{"type":"FeatureCollection","features":[{"type":"Feature","properties":{},"geometry":{"type":"Polygon","coordinates":[[[-79.391702,-2.524604],[-79.391702,-2.529654],[-79.379187,-2.529654],[-79.380015,-2.53244],[-79.379814,-2.534747],[-79.378436,-2.536789],[-79.378393,-2.537924],[-79.377596,-2.538567],[-79.377827,-2.539762],[-79.377525,-2.54124],[-79.377059,-2.542679],[-79.37608,-2.543622],[-79.375958,-2.544199],[-79.361928,-2.544199],[-79.361927,-2.551177],[-79.360289,-2.553523],[-79.359827,-2.555155],[-79.35863,-2.557018],[-79.358731,-2.557396],[-79.357114,-2.559177],[-79.356021,-2.559534],[-79.35579,-2.561443],[-79.356057,-2.567611],[-79.367369,-2.567611],[-79.365549,-2.569403],[-79.365393,-2.571608],[-79.362295,-2.574967],[-79.358517,-2.574717],[-79.357726,-2.575049],[-79.356076,-2.576867],[-79.355004,-2.577495],[-79.353451,-2.577416],[-79.350942,-2.577909],[-79.348856,-2.577557],[-79.347795,-2.577807],[-79.345863,-2.575995],[-79.342239,-2.574297],[-79.341874,-2.573468],[-79.340828,-2.573118],[-79.339281,-2.571486],[-79.337317,-2.57221],[-79.334088,-2.572083],[-79.333356,-2.57235],[-79.331578,-2.571894],[-79.329383,-2.572012],[-79.327821,-2.572667],[-79.326563,-2.5739],[-79.324262,-2.57344],[-79.321385,-2.575295],[-79.314769,-2.572528],[-79.3132,-2.571354],[-79.31213,-2.571125],[-79.310907,-2.569544],[-79.309427,-2.569104],[-79.30863,-2.569725],[-79.308236,-2.570961],[-79.307213,-2.571372],[-79.305421,-2.571277],[-79.304176,-2.572018],[-79.303757,-2.572512],[-79.304577,-2.575243],[-79.306232,-2.577842],[-79.306192,-2.58067],[-79.307088,-2.58527],[-79.30652,-2.58832],[-79.306737,-2.58991],[-79.30859,-2.594545],[-79.308815,-2.596295],[-79.308133,-2.597598],[-79.308047,-2.599067],[-79.308435,-2.600634],[-79.30812,-2.60335],[-79.306478,-2.606036],[-79.306696,-2.608408],[-79.305877,-2.610934],[-79.306113,-2.611827],[-79.304973,-2.613188],[-79.304396,-2.614691],[-79.304129,-2.61861],[-79.302775,-2.620393],[-79.300505,-2.620931],[-79.299311,-2.621764],[-79.29812,-2.623335],[-79.2981,-2.62422],[-79.297475,-2.624738],[-79.295061,-2.624895],[-79.29458,-2.62664],[-79.295085,-2.627917],[-79.295034,-2.628786],[-79.294184,-2.629366],[-79.293432,-2.630543],[-79.292586,-2.630949],[-79.291279,-2.632972],[-79.290523,-2.63309],[-79.290236,-2.633884],[-79.289103,-2.634141],[-79.288454,-2.635389],[-79.286723,-2.636974],[-79.286309,-2.63831],[-79.28518,-2.639419],[-79.284388,-2.640982],[-79.283706,-2.641746],[-79.282664,-2.642164],[-79.282335,-2.644067],[-79.281036,-2.645522],[-79.281332,-2.648565],[-79.280292,-2.650468],[-79.276922,-2.651388],[-79.276427,-2.652902],[-79.274739,-2.653824],[-79.273911,-2.655548],[-79.271733,-2.656473],[-79.270844,-2.656271],[-79.268771,-2.656687],[-79.26777,-2.657579],[-79.266143,-2.660656],[-79.265309,-2.660938],[-79.262531,-2.660407],[-79.259001,-2.661569],[-79.258119,-2.662877],[-79.25863,-2.665669],[-79.257658,-2.667588],[-79.25569,-2.669527],[-79.25302,-2.670488],[-79.251698,-2.672444],[-79.249241,-2.673357],[-79.248751,-2.674284],[-79.247493,-2.675107],[-79.244864,-2.67496],[-79.242703,-2.676037],[-79.242397,-2.676957],[-79.241645,-2.677015],[-79.241459,-2.677612],[-79.240696,-2.677642],[-79.239656,-2.679312],[-79.23977,-2.680696],[-79.239128,-2.681252],[-79.239352,-2.681744],[-79.238999,-2.682757],[-79.239322,-2.683813],[-79.23877,-2.685579],[-79.236449,-2.688],[-79.233902,-2.692205],[-79.232873,-2.692609],[-79.232318,-2.693583],[-79.231558,-2.693652],[-79.230963,-2.692656],[-79.228182,-2.691547],[-79.226641,-2.691397],[-79.226093,-2.691706],[-79.224,-2.690215],[-79.222414,-2.690105],[-79.220265,-2.690684],[-79.219245,-2.690407],[-79.218106,-2.689342],[-79.217224,-2.689378],[-79.216893,-2.686095],[-79.216541,-2.685886],[-79.206331,-2.692665],[-79.201971,-2.705638],[-79.20624,-2.706018],[-79.207258,-2.706394],[-79.207753,-2.70591],[-79.208198,-2.70635],[-79.209356,-2.705924],[-79.214119,-2.709165],[-79.217178,-2.710578],[-79.219094,-2.711196],[-79.221145,-2.710933],[-79.221489,-2.710582],[-79.222989,-2.711752],[-79.22354,-2.711251],[-79.223778,-2.711413],[-79.223645,-2.712603],[-79.22421,-2.713299],[-79.223815,-2.716039],[-79.224434,-2.716619],[-79.224963,-2.718349],[-79.226182,-2.718793],[-79.226412,-2.719482],[-79.227843,-2.720518],[-79.229148,-2.723218],[-79.230078,-2.723613],[-79.23038,-2.724442],[-79.231655,-2.725085],[-79.234146,-2.728162],[-79.233581,-2.729967],[-79.234336,-2.731667],[-79.234085,-2.731945],[-79.235053,-2.735183],[-79.235338,-2.735586],[-79.235683,-2.735487],[-79.234686,-2.739497],[-79.234772,-2.744374],[-79.234314,-2.745655],[-79.235096,-2.748069],[-79.234682,-2.748784],[-79.234662,-2.749893],[-79.236296,-2.752738],[-79.236894,-2.753043],[-79.236519,-2.753383],[-79.239562,-2.754683],[-79.240099,-2.755467],[-79.242898,-2.75615],[-79.24342,-2.756873],[-79.243702,-2.75876],[-79.244401,-2.759701],[-79.246292,-2.760051],[-79.246119,-2.762951],[-79.24642,-2.764125],[-79.245902,-2.767272],[-79.244552,-2.768124],[-79.243811,-2.769576],[-79.242878,-2.770469],[-79.243223,-2.773789],[-79.242804,-2.77438],[-79.242115,-2.777701],[-79.241356,-2.77844],[-79.240209,-2.77884],[-79.236993,-2.78222],[-79.235998,-2.782529],[-79.234721,-2.787341],[-79.233534,-2.788402],[-79.233659,-2.790967],[-79.232576,-2.792444],[-79.232408,-2.793917],[-79.236208,-2.795478],[-79.236212,-2.796657],[-79.235443,-2.797884],[-79.232508,-2.799937],[-79.233008,-2.800744],[-79.232695,-2.802435],[-79.229622,-2.807584],[-79.230192,-2.808092],[-79.230062,-2.809851],[-79.230682,-2.811046],[-79.232278,-2.812059],[-79.234241,-2.814489],[-79.236788,-2.815907],[-79.238826,-2.816313],[-79.24059,-2.817568],[-79.241765,-2.817434],[-79.242547,-2.818308],[-79.24181,-2.821601],[-79.242107,-2.822621],[-79.24179,-2.824642],[-79.240916,-2.826642],[-79.241643,-2.827069],[-79.241991,-2.828416],[-79.243445,-2.829676],[-79.243678,-2.830879],[-79.24901,-2.83621],[-79.249278,-2.837622],[-79.250044,-2.838648],[-79.251062,-2.838242],[-79.252626,-2.838884],[-79.252931,-2.84045],[-79.25416,-2.841002],[-79.254299,-2.841989],[-79.25926,-2.843801],[-79.260608,-2.843576],[-79.261922,-2.848338],[-79.263001,-2.848333],[-79.263699,-2.847412],[-79.266234,-2.845474],[-79.266612,-2.844549],[-79.265717,-2.843461],[-79.266578,-2.843061],[-79.275862,-2.852815],[-79.277017,-2.852509],[-79.278551,-2.852696],[-79.279352,-2.851971],[-79.280509,-2.851599],[-79.281441,-2.850632],[-79.281788,-2.848825],[-79.283683,-2.846638],[-79.287421,-2.852335],[-79.287761,-2.853768],[-79.289205,-2.854712],[-79.29047,-2.853624],[-79.292578,-2.853854],[-79.29394,-2.853539],[-79.295437,-2.851135],[-79.296341,-2.850737],[-79.297332,-2.850944],[-79.298176,-2.851622],[-79.299771,-2.850986],[-79.302727,-2.851504],[-79.303768,-2.85292],[-79.305321,-2.8529],[-79.306942,-2.855366],[-79.307409,-2.854971],[-79.308179,-2.853054],[-79.308995,-2.852991],[-79.310044,-2.851846],[-79.309766,-2.850424],[-79.31004,-2.846869],[-79.309744,-2.846041],[-79.310327,-2.844145],[-79.312589,-2.843415],[-79.313819,-2.843892],[-79.314563,-2.843707],[-79.317002,-2.844184],[-79.317561,-2.844692],[-79.319322,-2.845135],[-79.319459,-2.845642],[-79.321266,-2.845806],[-79.321757,-2.843799],[-79.323513,-2.841668],[-79.325437,-2.841573],[-79.327399,-2.840928],[-79.328743,-2.839703],[-79.332356,-2.840893],[-79.332136,-2.843758],[-79.331237,-2.845363],[-79.331294,-2.84602],[-79.332125,-2.846956],[-79.334353,-2.845889],[-79.33532,-2.846231],[-79.336857,-2.845873],[-79.338275,-2.844614],[-79.340986,-2.84535],[-79.34274,-2.845421],[-79.342618,-2.844422],[-79.343259,-2.842592],[-79.351714,-2.848477],[-79.353911,-2.847052],[-79.356582,-2.846397],[-79.357072,-2.846352],[-79.358258,-2.84725],[-79.361454,-2.847282],[-79.363556,-2.84692],[-79.365465,-2.845825],[-79.368554,-2.845572],[-79.370151,-2.84595],[-79.37171,-2.847451],[-79.374588,-2.849328],[-79.378682,-2.848183],[-79.381254,-2.848761],[-79.383098,-2.84989],[-79.383778,-2.849684],[-79.38423,-2.849961],[-79.385741,-2.849332],[-79.386711,-2.85067],[-79.387817,-2.850838],[-79.388116,-2.851234],[-79.389193,-2.850962],[-79.389674,-2.851409],[-79.390897,-2.851443],[-79.393275,-2.850331],[-79.394218,-2.851025],[-79.396329,-2.851484],[-79.396797,-2.85251],[-79.398186,-2.853547],[-79.400914,-2.85432],[-79.401461,-2.855133],[-79.4027,-2.854964],[-79.403135,-2.85579],[-79.404981,-2.856557],[-79.406214,-2.859005],[-79.407193,-2.859458],[-79.407789,-2.861085],[-79.407689,-2.86237],[-79.4082,-2.86319],[-79.409031,-2.863564],[-79.409596,-2.86502],[-79.409587,-2.866002],[-79.410913,-2.867857],[-79.413983,-2.869909],[-79.413822,-2.871086],[-79.414895,-2.870808],[-79.415251,-2.871342],[-79.416808,-2.871516],[-79.417609,-2.872053],[-79.41734,-2.873418],[-79.418707,-2.873848],[-79.418786,-2.874315],[-79.421086,-2.874488],[-79.42135,-2.874076],[-79.423834,-2.872968],[-79.425221,-2.872635],[-79.426283,-2.872853],[-79.428224,-2.872013],[-79.429058,-2.871312],[-79.428913,-2.870522],[-79.429748,-2.869564],[-79.429509,-2.868782],[-79.429822,-2.867909],[-79.430551,-2.867383],[-79.432036,-2.867226],[-79.432658,-2.866597],[-79.433291,-2.867178],[-79.433965,-2.866673],[-79.438155,-2.868533],[-79.438769,-2.868499],[-79.439305,-2.870004],[-79.440693,-2.870585],[-79.441884,-2.870862],[-79.444005,-2.870654],[-79.445266,-2.871826],[-79.445142,-2.872497],[-79.445765,-2.872341],[-79.447077,-2.87339],[-79.447191,-2.874466],[-79.448059,-2.874954],[-79.448602,-2.874598],[-79.449366,-2.875069],[-79.449317,-2.876125],[-79.449648,-2.876504],[-79.450309,-2.87642],[-79.451442,-2.877492],[-79.453598,-2.878162],[-79.454651,-2.879443],[-79.455946,-2.878789],[-79.456987,-2.879861],[-79.457759,-2.880153],[-79.458727,-2.879696],[-79.461232,-2.880817],[-79.461972,-2.880718],[-79.462465,-2.881447],[-79.462573,-2.884011],[-79.46221,-2.884358],[-79.462632,-2.885532],[-79.464514,-2.887769],[-79.46432,-2.889237],[-79.465265,-2.889468],[-79.466508,-2.891416],[-79.466346,-2.892089],[-79.466714,-2.893265],[-79.467518,-2.894059],[-79.469395,-2.894099],[-79.470687,-2.895048],[-79.472747,-2.898117],[-79.473096,-2.899161],[-79.473901,-2.899473],[-79.47433,-2.900205],[-79.474537,-2.902455],[-79.477315,-2.902926],[-79.478263,-2.903626],[-79.479891,-2.903786],[-79.480816,-2.902991],[-79.484777,-2.90134],[-79.485244,-2.899918],[-79.485924,-2.899734],[-79.487864,-2.897878],[-79.489001,-2.89796],[-79.489654,-2.896588],[-79.491278,-2.895405],[-79.49231,-2.895814],[-79.493927,-2.895743],[-79.496403,-2.894655],[-79.497317,-2.895107],[-79.498178,-2.894949],[-79.49949,-2.89569],[-79.500262,-2.895529],[-79.50171,-2.896334],[-79.503669,-2.896754],[-79.505222,-2.895535],[-79.507187,-2.895073],[-79.50936,-2.893017],[-79.510509,-2.892818],[-79.510805,-2.892152],[-79.511663,-2.891924],[-79.512026,-2.891371],[-79.514687,-2.890804],[-79.515498,-2.890265],[-79.516778,-2.890475],[-79.517995,-2.891923],[-79.518832,-2.891946],[-79.519961,-2.892554],[-79.520614,-2.89223],[-79.521404,-2.892499],[-79.522567,-2.892314],[-79.524244,-2.89291],[-79.527193,-2.893092],[-79.52787,-2.892483],[-79.529116,-2.892681],[-79.530447,-2.891691],[-79.532,-2.891925],[-79.532982,-2.892735],[-79.535948,-2.892284],[-79.536797,-2.893306],[-79.539431,-2.892133],[-79.540731,-2.892249],[-79.541468,-2.891738],[-79.542463,-2.891864],[-79.543722,-2.891426],[-79.544546,-2.890056],[-79.545634,-2.889624],[-79.549047,-2.888944],[-79.550771,-2.889545],[-79.550771,-2.881038],[-79.551659,-2.877304],[-79.552255,-2.877471],[-79.552897,-2.878482],[-79.554468,-2.878376],[-79.55619,-2.877635],[-79.557713,-2.877827],[-79.558259,-2.877302],[-79.558668,-2.878493],[-79.559934,-2.878755],[-79.561532,-2.877967],[-79.562863,-2.876594],[-79.564184,-2.876743],[-79.565672,-2.876134],[-79.566852,-2.876512],[-79.568913,-2.875879],[-79.570831,-2.877836],[-79.572563,-2.876681],[-79.573528,-2.876775],[-79.574918,-2.875669],[-79.576699,-2.875599],[-79.577551,-2.875124],[-79.578074,-2.875455],[-79.578598,-2.876727],[-79.580201,-2.875392],[-79.580999,-2.87518],[-79.583782,-2.875578],[-79.585025,-2.877088],[-79.585758,-2.877317],[-79.588896,-2.876943],[-79.590295,-2.876276],[-79.590949,-2.876696],[-79.591704,-2.876598],[-79.594312,-2.872768],[-79.597399,-2.871724],[-79.598565,-2.870259],[-79.600053,-2.866669],[-79.601288,-2.86665],[-79.601149,-2.865381],[-79.601977,-2.859801],[-79.601027,-2.858557],[-79.601388,-2.857748],[-79.60392,-2.857007],[-79.605946,-2.855103],[-79.610439,-2.857401],[-79.611253,-2.857171],[-79.614045,-2.854522],[-79.614823,-2.854169],[-79.622468,-2.854464],[-79.626709,-2.852434],[-79.628601,-2.850538],[-79.630878,-2.849966],[-79.633013,-2.848945],[-79.634817,-2.849127],[-79.636951,-2.846667],[-79.641364,-2.843794],[-79.648088,-2.842362],[-79.652,-2.839233],[-79.653167,-2.837095],[-79.653602,-2.836905],[-79.655016,-2.837278],[-79.657406,-2.834236],[-79.658807,-2.834122],[-79.66075,-2.832923],[-79.662188,-2.832513],[-79.665894,-2.82953],[-79.666637,-2.828448],[-79.66798,-2.827461],[-79.668724,-2.826191],[-79.670316,-2.82485],[-79.659184,-2.819663],[-79.659218,-2.818867],[-79.658657,-2.81854],[-79.650973,-2.817565],[-79.649155,-2.819017],[-79.647066,-2.81947],[-79.642849,-2.816279],[-79.640085,-2.815581],[-79.63876,-2.816011],[-79.637776,-2.815507],[-79.636991,-2.81651],[-79.637126,-2.816994],[-79.636473,-2.818112],[-79.636902,-2.818805],[-79.636326,-2.820616],[-79.636466,-2.821334],[-79.635947,-2.821632],[-79.636342,-2.822459],[-79.635989,-2.823359],[-79.635074,-2.823468],[-79.63434,-2.823094],[-79.631576,-2.823738],[-79.630137,-2.823622],[-79.629418,-2.823116],[-79.628338,-2.821448],[-79.626765,-2.820584],[-79.625916,-2.818942],[-79.622677,-2.815924],[-79.62236,-2.815297],[-79.622526,-2.814635],[-79.621871,-2.814162],[-79.617951,-2.814243],[-79.502941,-2.767744],[-79.488303,-2.692982],[-79.486969,-2.677846],[-79.46004,-2.657386],[-79.464457,-2.64524],[-79.463858,-2.63839],[-79.464919,-2.634306],[-79.466399,-2.632618],[-79.466181,-2.629075],[-79.467198,-2.6267],[-79.467306,-2.625086],[-79.471471,-2.621934],[-79.471719,-2.620103],[-79.472306,-2.619796],[-79.473098,-2.618544],[-79.473098,-2.607572],[-79.452309,-2.607572],[-79.450458,-2.608431],[-79.449511,-2.610322],[-79.447574,-2.611207],[-79.445837,-2.609549],[-79.444343,-2.610137],[-79.443295,-2.609915],[-79.444216,-2.609456],[-79.444188,-2.60903],[-79.441726,-2.605187],[-79.441471,-2.603832],[-79.440524,-2.603179],[-79.43941,-2.603447],[-79.438442,-2.603252],[-79.438298,-2.602392],[-79.437173,-2.601764],[-79.436447,-2.602209],[-79.436261,-2.603531],[-79.435328,-2.603444],[-79.433612,-2.604431],[-79.43128,-2.604478],[-79.429408,-2.605176],[-79.427861,-2.606292],[-79.425988,-2.606208],[-79.424998,-2.606785],[-79.424998,-2.555767],[-79.426253,-2.555001],[-79.427394,-2.553465],[-79.428286,-2.553096],[-79.428287,-2.518039],[-79.4261,-2.51984],[-79.424627,-2.520589],[-79.422286,-2.520475],[-79.420541,-2.521073],[-79.420219,-2.520901],[-79.420493,-2.520652],[-79.419585,-2.520144],[-79.41705,-2.520923],[-79.416223,-2.520463],[-79.411678,-2.520628],[-79.397492,-2.516905],[-79.391702,-2.524604]]]}}]}