{"type":"FeatureCollection","name":"Poblados_Opt","crs":{"type":"name","properties":{"name":"urn:ogc:def:crs:OGC:1.3:CRS84"}},"features":[{"type":"Feature","properties":{"nam":"Patul","Pob_estudi":null},"geometry":{"type":"Point","coordinates":[-79.22823117103016,-2.705645272111969]}},{"type":"Feature","properties":{"nam":"Tambillo","Pob_estudi":null},"geometry":{"type":"Point","coordinates":[-79.23106329709005,-2.703146730331798]}},{"type":"Feature","properties":{"nam":"El Descanso","Pob_estudi":null},"geometry":{"type":"Point","coordinates":[-79.449633386789,-2.696543335219759]}},{"type":"Feature","properties":{"nam":"Zambal","Pob_estudi":null},"geometry":{"type":"Point","coordinates":[-79.4721885712197,-2.696506811127589]}},{"type":"Feature","properties":{"nam":"San José","Pob_estudi":null},"geometry":{"type":"Point","coordinates":[-79.47932804048823,-2.692776778525649]}},{"type":"Feature","properties":{"nam":"Luz María","Pob_estudi":null},"geometry":{"type":"Point","coordinates":[-79.41759671832884,-2.689777293972859]}},{"type":"Feature","properties":{"nam":"Villa Nueva","Pob_estudi":null},"geometry":{"type":"Point","coordinates":[-79.42462151387208,-2.676064100839934]}},{"type":"Feature","properties":{"nam":"Kablucay","Pob_estudi":null},"geometry":{"type":"Point","coordinates":[-79.37941166018928,-2.667545640453768]}},{"type":"Feature","properties":{"nam":"Kablucay","Pob_estudi":null},"geometry":{"type":"Point","coordinates":[-79.37995798147847,-2.667118980973466]}},{"type":"Feature","properties":{"nam":"Corona de Oro","Pob_estudi":null},"geometry":{"type":"Point","coordinates":[-79.43522630447758,-2.658608851752934]}},{"type":"Feature","properties":{"nam":"Chacanseo","Pob_estudi":null},"geometry":{"type":"Point","coordinates":[-79.3219569935253,-2.632921197159038]}},{"type":"Feature","properties":{"nam":"Agua Caliente","Pob_estudi":null},"geometry":{"type":"Point","coordinates":[-79.4928197127384,-2.623931998312689]}},{"type":"Feature","properties":{"nam":"Tamarindos","Pob_estudi":"SI"},"geometry":{"type":"Point","coordinates":[-79.46450301810063,-2.619256467697505]}},{"type":"Feature","properties":{"nam":"La Marota","Pob_estudi":null},"geometry":{"type":"Point","coordinates":[-79.31887730249035,-2.617046260499642]}},{"type":"Feature","properties":{"nam":"Cacao Loma","Pob_estudi":null},"geometry":{"type":"Point","coordinates":[-79.44131963725799,-2.60357872241486]}},{"type":"Feature","properties":{"nam":"Chilca Playa","Pob_estudi":null},"geometry":{"type":"Point","coordinates":[-79.43728108390646,-2.600455046056172]}},{"type":"Feature","properties":{"nam":"El Rosario","Pob_estudi":null},"geometry":{"type":"Point","coordinates":[-79.30570178826834,-2.592459329865764]}},{"type":"Feature","properties":{"nam":"Cargua","Pob_estudi":null},"geometry":{"type":"Point","coordinates":[-79.22484294695153,-2.580039671999806]}},{"type":"Feature","properties":{"nam":"Luz de América","Pob_estudi":"SI"},"geometry":{"type":"Point","coordinates":[-79.43289573690433,-2.57942614920193]}},{"type":"Feature","properties":{"nam":"La Aurora","Pob_estudi":null},"geometry":{"type":"Point","coordinates":[-79.35356032532628,-2.579083468948184]}},{"type":"Feature","properties":{"nam":"Milagro Chico","Pob_estudi":null},"geometry":{"type":"Point","coordinates":[-79.30735235348678,-2.572562872738702]}},{"type":"Feature","properties":{"nam":"Estero Piedras","Pob_estudi":"SI"},"geometry":{"type":"Point","coordinates":[-79.41586761434489,-2.572197695230808]}},{"type":"Feature","properties":{"nam":"Los Tres Ranchos","Pob_estudi":null},"geometry":{"type":"Point","coordinates":[-79.40773396991595,-2.567175469940241]}},{"type":"Feature","properties":{"nam":"La Providencia","Pob_estudi":null},"geometry":{"type":"Point","coordinates":[-79.41582965034942,-2.558052480281086]}},{"type":"Feature","properties":{"nam":"Manta Real","Pob_estudi":null},"geometry":{"type":"Point","coordinates":[-79.3664365364774,-2.555562573429423]}},{"type":"Feature","properties":{"nam":"Putucay","Pob_estudi":null},"geometry":{"type":"Point","coordinates":[-79.38024656548833,-2.552313090665085]}},{"type":"Feature","properties":{"nam":"Cinco de Octubre","Pob_estudi":null},"geometry":{"type":"Point","coordinates":[-79.50193407518455,-2.550805978715898]}},{"type":"Feature","properties":{"nam":"Cooperativa Cinco de Octubre","Pob_estudi":null},"geometry":{"type":"Point","coordinates":[-79.49946444847153,-2.550515274785341]}},{"type":"Feature","properties":{"nam":"La Delicia","Pob_estudi":null},"geometry":{"type":"Point","coordinates":[-79.25984719764514,-2.548553884712774]}},{"type":"Feature","properties":{"nam":"Virgen del Mar","Pob_estudi":null},"geometry":{"type":"Point","coordinates":[-79.43532470778136,-2.544766582829188]}},{"type":"Feature","properties":{"nam":"Carmela","Pob_estudi":null},"geometry":{"type":"Point","coordinates":[-79.24431080752792,-2.534925981970123]}},{"type":"Feature","properties":{"nam":"Jesús del Gran Poder","Pob_estudi":null},"geometry":{"type":"Point","coordinates":[-79.41706659972056,-2.53260382949117]}},{"type":"Feature","properties":{"nam":"El Barranco","Pob_estudi":null},"geometry":{"type":"Point","coordinates":[-79.23334821819896,-2.532288144975851]}},{"type":"Feature","properties":{"nam":"El Capricho","Pob_estudi":null},"geometry":{"type":"Point","coordinates":[-79.46647050421596,-2.527824628007837]}},{"type":"Feature","properties":{"nam":"Barranco Amarillo","Pob_estudi":null},"geometry":{"type":"Point","coordinates":[-79.49820496118569,-2.526287855644465]}},{"type":"Feature","properties":{"nam":"La Primavera","Pob_estudi":null},"geometry":{"type":"Point","coordinates":[-79.47976336611588,-2.524944395010459]}},{"type":"Feature","properties":{"nam":"San Carlos","Pob_estudi":null},"geometry":{"type":"Point","coordinates":[-79.47400796564568,-2.522041670783021]}},{"type":"Feature","properties":{"nam":"San Martín","Pob_estudi":null},"geometry":{"type":"Point","coordinates":[-79.49256442785742,-2.519723591617224]}},{"type":"Feature","properties":{"nam":"Nueva Susana","Pob_estudi":null},"geometry":{"type":"Point","coordinates":[-79.46814127098516,-2.519640025661879]}},{"type":"Feature","properties":{"nam":"Teresa de Patul","Pob_estudi":null},"geometry":{"type":"Point","coordinates":[-79.38626846397682,-2.518610383501648]}},{"type":"Feature","properties":{"nam":"Zhucay","Pob_estudi":null},"geometry":{"type":"Point","coordinates":[-79.3296004507423,-2.515436779416362]}},{"type":"Feature","properties":{"nam":"Cruce a La Indiana","Pob_estudi":null},"geometry":{"type":"Point","coordinates":[-79.505025605006,-2.512812093167986]}},{"type":"Feature","properties":{"nam":"Santa Rita","Pob_estudi":null},"geometry":{"type":"Point","coordinates":[-79.26508388250176,-2.511904932377371]}},{"type":"Feature","properties":{"nam":"Ruidoso","Pob_estudi":null},"geometry":{"type":"Point","coordinates":[-79.3066490591039,-2.510614429566044]}},{"type":"Feature","properties":{"nam":"Pancho Negro","Pob_estudi":null},"geometry":{"type":"Point","coordinates":[-79.4942835162575,-2.505440659825973]}},{"type":"Feature","properties":{"nam":"Sulla","Pob_estudi":null},"geometry":{"type":"Point","coordinates":[-79.41635460029198,-2.504841371859211]}},{"type":"Feature","properties":{"nam":"San Felipe","Pob_estudi":null},"geometry":{"type":"Point","coordinates":[-79.48822358949025,-2.502509834167754]}},{"type":"Feature","properties":{"nam":"Ocaña","Pob_estudi":null},"geometry":{"type":"Point","coordinates":[-79.23107495309004,-2.493432773147378]}},{"type":"Feature","properties":{"nam":"La Envidia","Pob_estudi":null},"geometry":{"type":"Point","coordinates":[-79.41275529186387,-2.487939176644306]}}]}