{"type":"FeatureCollection","name":"Poblados_IGM250_Opt","crs":{"type":"name","properties":{"name":"urn:ogc:def:crs:OGC:1.3:CRS84"}},"features":[{"type":"Feature","properties":{"codigo":"AL105","descripcio":"UNA CONCENTRACION DE CASAS","nam":"LUIS CORDERO VEGA","na2":"LUGUAN","na3_cod":"010359","na3_desc":"PARROQUIA RURAL","LABEL":1},"geometry":{"type":"Point","coordinates":[-78.74405765678118,-2.887506640321085]}},{"type":"Feature","properties":{"codigo":"AL105","descripcio":"UNA CONCENTRACION DE CASAS","nam":"MARIANO MORENO","na2":null,"na3_cod":"010354","na3_desc":"PARROQUIA RURAL","LABEL":1},"geometry":{"type":"Point","coordinates":[-78.72515684015852,-2.849559430007911]}},{"type":"Feature","properties":{"codigo":"AL105","descripcio":"UNA CONCENTRACION DE CASAS","nam":"EL CABO","na2":null,"na3_cod":"010554","na3_desc":"PARROQUIA RURAL","LABEL":1},"geometry":{"type":"Point","coordinates":[-78.77462792747306,-2.84465517359433]}},{"type":"Feature","properties":{"codigo":"AL105","descripcio":"UNA CONCENTRACION DE CASAS","nam":"ICAMANCHI","na2":null,"na3_cod":"011253","na3_desc":"PARROQUIA RURAL","LABEL":1},"geometry":{"type":"Point","coordinates":[-78.6668545821194,-2.804326059682919]}},{"type":"Feature","properties":{"codigo":"AL105","descripcio":"UNA CONCENTRACION DE CASAS","nam":"SAN MIGUEL","na2":null,"na3_cod":"030158","na3_desc":"PARROQUIA RURAL","LABEL":1},"geometry":{"type":"Point","coordinates":[-78.84126236670693,-2.791764433424634]}},{"type":"Feature","properties":{"codigo":"AL105","descripcio":"UNA CONCENTRACION DE CASAS","nam":"NULTI","na2":null,"na3_cod":"010158","na3_desc":"PARROQUIA RURAL","LABEL":1},"geometry":{"type":"Point","coordinates":[-78.92425610088289,-2.860785096961444]}},{"type":"Feature","properties":{"codigo":"AL105","descripcio":"UNA CONCENTRACION DE CASAS","nam":"LLACAO","na2":null,"na3_cod":"010156","na3_desc":"PARROQUIA RURAL","LABEL":1},"geometry":{"type":"Point","coordinates":[-78.93766050129803,-2.828427774334959]}},{"type":"Feature","properties":{"codigo":"AL105","descripcio":"UNA CONCENTRACION DE CASAS","nam":"SOLANO","na2":null,"na3_cod":"030651","na3_desc":"PARROQUIA RURAL","LABEL":1},"geometry":{"type":"Point","coordinates":[-78.92894933282129,-2.80273593755483]}},{"type":"Feature","properties":{"codigo":"AL105","descripcio":"UNA CONCENTRACION DE CASAS","nam":"CHECA","na2":null,"na3_cod":"010154","na3_desc":"PARROQUIA RURAL","LABEL":1},"geometry":{"type":"Point","coordinates":[-78.98796860561346,-2.799334034332038]}},{"type":"Feature","properties":{"codigo":"AL105","descripcio":"UNA CONCENTRACION DE CASAS","nam":"SIDCAY","na2":null,"na3_cod":"010166","na3_desc":"PARROQUIA RURAL","LABEL":1},"geometry":{"type":"Point","coordinates":[-78.97405936224574,-2.813639746604041]}},{"type":"Feature","properties":{"codigo":"AL105","descripcio":"UNA CONCENTRACION DE CASAS","nam":"GUACHAPALA","na2":null,"na3_cod":"011450","na3_desc":"CABECERA CANTONAL","LABEL":1},"geometry":{"type":"Point","coordinates":[-78.70856019384657,-2.764970426368298]}},{"type":"Feature","properties":{"codigo":"AL105","descripcio":"UNA CONCENTRACION DE CASAS","nam":"RIVERA","na2":"SHARAY RIVERA","na3_cod":"030157","na3_desc":"PARROQUIA RURAL","LABEL":1},"geometry":{"type":"Point","coordinates":[-78.65071781203352,-2.571192984916235]}},{"type":"Feature","properties":{"codigo":"AL105","descripcio":"UNA CONCENTRACION DE CASAS","nam":"TADAY","na2":null,"na3_cod":"030160","na3_desc":"PARROQUIA RURAL","LABEL":1},"geometry":{"type":"Point","coordinates":[-78.6857083895968,-2.634034860880655]}},{"type":"Feature","properties":{"codigo":"AL105","descripcio":"UNA CONCENTRACION DE CASAS","nam":"INGAPIRCA","na2":null,"na3_cod":"030356","na3_desc":"PARROQUIA RURAL","LABEL":1},"geometry":{"type":"Point","coordinates":[-78.87091225018739,-2.538650271103632]}},{"type":"Feature","properties":{"codigo":"AL105","descripcio":"UNA CONCENTRACION DE CASAS","nam":"JUNCAL","na2":null,"na3_cod":"030357","na3_desc":"PARROQUIA RURAL","LABEL":1},"geometry":{"type":"Point","coordinates":[-78.96727509714489,-2.479914986633755]}},{"type":"Feature","properties":{"codigo":"AL105","descripcio":"UNA CONCENTRACION DE CASAS","nam":"COJITAMBO","na2":null,"na3_cod":"030151","na3_desc":"PARROQUIA RURAL","LABEL":1},"geometry":{"type":"Point","coordinates":[-78.88238157900882,-2.756064355920558]}},{"type":"Feature","properties":{"codigo":"AL105","descripcio":"UNA CONCENTRACION DE CASAS","nam":"SUMAYPAMBA","na2":null,"na3_cod":"111160","na3_desc":"PARROQUIA RURAL","LABEL":1},"geometry":{"type":"Point","coordinates":[-79.35236283791664,-3.347923639433209]}},{"type":"Feature","properties":{"codigo":"AL105","descripcio":"UNA CONCENTRACION DE CASAS","nam":"VALLE","na2":null,"na3_cod":"010170","na3_desc":"PARROQUIA RURAL","LABEL":1},"geometry":{"type":"Point","coordinates":[-78.96153277142228,-2.930888819967291]}},{"type":"Feature","properties":{"codigo":"AL105","descripcio":"UNA CONCENTRACION DE CASAS","nam":"ZHIDMAD","na2":null,"na3_cod":"010358","na3_desc":"PARROQUIA RURAL","LABEL":1},"geometry":{"type":"Point","coordinates":[-78.89506827120918,-2.923774808660312]}},{"type":"Feature","properties":{"codigo":"AL105","descripcio":"UNA CONCENTRACION DE CASAS","nam":"SANTA ANA","na2":null,"na3_cod":"010164","na3_desc":"PARROQUIA RURAL","LABEL":1},"geometry":{"type":"Point","coordinates":[-78.91518498681205,-2.928563984982334]}},{"type":"Feature","properties":{"codigo":"AL105","descripcio":"UNA CONCENTRACION DE CASAS","nam":"JADAN","na2":null,"na3_cod":"010353","na3_desc":"PARROQUIA RURAL","LABEL":1},"geometry":{"type":"Point","coordinates":[-78.87254819928913,-2.88208128465216]}},{"type":"Feature","properties":{"codigo":"AL105","descripcio":"UNA CONCENTRACION DE CASAS","nam":"MULTITUD","na2":null,"na3_cod":"060255","na3_desc":"PARROQUIA RURAL","LABEL":1},"geometry":{"type":"Point","coordinates":[-78.99210205530522,-2.102670619857308]}},{"type":"Feature","properties":{"codigo":"AL105","descripcio":"UNA CONCENTRACION DE CASAS","nam":"GUAPAN","na2":"HUAPAN","na3_cod":"030153","na3_desc":"PARROQUIA RURAL","LABEL":1},"geometry":{"type":"Point","coordinates":[-78.84204158655021,-2.708330224210223]}},{"type":"Feature","properties":{"codigo":"AL105","descripcio":"UNA CONCENTRACION DE CASAS","nam":"SIBAMBE","na2":null,"na3_cod":"060259","na3_desc":"PARROQUIA RURAL","LABEL":1},"geometry":{"type":"Point","coordinates":[-78.88990709284933,-2.221937883472441]}},{"type":"Feature","properties":{"codigo":"AL105","descripcio":"UNA CONCENTRACION DE CASAS","nam":"SAN JUAN DE PINDILIG","na2":"PINDILIG","na3_cod":"030156","na3_desc":"PARROQUIA RURAL","LABEL":1},"geometry":{"type":"Point","coordinates":[-78.67852137491033,-2.615505872128776]}},{"type":"Feature","properties":{"codigo":"AL105","descripcio":"UNA CONCENTRACION DE CASAS","nam":"CHONTAMARCA","na2":null,"na3_cod":"030351","na3_desc":"PARROQUIA RURAL","LABEL":1},"geometry":{"type":"Point","coordinates":[-79.09221335134328,-2.437459324321571]}},{"type":"Feature","properties":{"codigo":"AL105","descripcio":"UNA CONCENTRACION DE CASAS","nam":"TIXAN","na2":null,"na3_cod":"060260","na3_desc":"PARROQUIA RURAL","LABEL":1},"geometry":{"type":"Point","coordinates":[-78.79736379815633,-2.146125517917233]}},{"type":"Feature","properties":{"codigo":"AL105","descripcio":"UNA CONCENTRACION DE CASAS","nam":"PUMALLACTA","na2":null,"na3_cod":"060257","na3_desc":"PARROQUIA RURAL","LABEL":1},"geometry":{"type":"Point","coordinates":[-78.80417348416533,-2.253759544831049]}},{"type":"Feature","properties":{"codigo":"AL105","descripcio":"UNA CONCENTRACION DE CASAS","nam":"SEVILLA","na2":null,"na3_cod":"060258","na3_desc":"PARROQUIA RURAL","LABEL":1},"geometry":{"type":"Point","coordinates":[-78.81938314538854,-2.266792446932714]}},{"type":"Feature","properties":{"codigo":"AL105","descripcio":"UNA CONCENTRACION DE CASAS","nam":"ACHUPALLAS","na2":null,"na3_cod":"060251","na3_desc":"PARROQUIA RURAL","LABEL":1},"geometry":{"type":"Point","coordinates":[-78.76328751610608,-2.276593157499145]}},{"type":"Feature","properties":{"codigo":"AL105","descripcio":"UNA CONCENTRACION DE CASAS","nam":"PALMIRA","na2":null,"na3_cod":"060652","na3_desc":"PARROQUIA RURAL","LABEL":1},"geometry":{"type":"Point","coordinates":[-78.72664091659979,-2.075569490957914]}},{"type":"Feature","properties":{"codigo":"AL105","descripcio":"UNA CONCENTRACION DE CASAS","nam":"JERUSALEN","na2":null,"na3_cod":"030254","na3_desc":"PARROQUIA RURAL","LABEL":1},"geometry":{"type":"Point","coordinates":[-78.92561219231962,-2.68786460638993]}},{"type":"Feature","properties":{"codigo":"AL105","descripcio":"UNA CONCENTRACION DE CASAS","nam":"SAN FRANCISCO DE SAGEO","na2":"SAGEO","na3_cod":"030252","na3_desc":"PARROQUIA RURAL","LABEL":1},"geometry":{"type":"Point","coordinates":[-78.87088007281656,-2.715280185719654]}},{"type":"Feature","properties":{"codigo":"AL105","descripcio":"UNA CONCENTRACION DE CASAS","nam":"CHIQUINTAD","na2":null,"na3_cod":"010155","na3_desc":"PARROQUIA RURAL","LABEL":1},"geometry":{"type":"Point","coordinates":[-78.99476002417305,-2.804766866061794]}},{"type":"Feature","properties":{"codigo":"AL105","descripcio":"UNA CONCENTRACION DE CASAS","nam":"CHOROCOPTE","na2":null,"na3_cod":"030352","na3_desc":"PARROQUIA RURAL","LABEL":1},"geometry":{"type":"Point","coordinates":[-78.94272878087503,-2.575739844107344]}},{"type":"Feature","properties":{"codigo":"AL105","descripcio":"UNA CONCENTRACION DE CASAS","nam":"SAN JUAN","na2":null,"na3_cod":"010357","na3_desc":"PARROQUIA RURAL","LABEL":1},"geometry":{"type":"Point","coordinates":[-78.81337150422826,-2.962572151934002]}},{"type":"Feature","properties":{"codigo":"AL105","descripcio":"UNA CONCENTRACION DE CASAS","nam":"SAN MARTIN DE PUZHIO","na2":null,"na3_cod":"011154","na3_desc":"PARROQUIA RURAL","LABEL":1},"geometry":{"type":"Point","coordinates":[-78.755640114793,-2.979366448322914]}},{"type":"Feature","properties":{"codigo":"AL105","descripcio":"UNA CONCENTRACION DE CASAS","nam":"HUIGRA","na2":null,"na3_cod":"060254","na3_desc":"PARROQUIA RURAL","LABEL":1},"geometry":{"type":"Point","coordinates":[-78.97870058097551,-2.281019743863715]}},{"type":"Feature","properties":{"codigo":"AL105","descripcio":"UNA CONCENTRACION DE CASAS","nam":"LUIS CORDERO","na2":null,"na3_cod":"030155","na3_desc":"PARROQUIA RURAL","LABEL":1},"geometry":{"type":"Point","coordinates":[-78.82148721306866,-2.738591187010239]}},{"type":"Feature","properties":{"codigo":"AL105","descripcio":"UNA CONCENTRACION DE CASAS","nam":"HONORATO VASQUEZ","na2":null,"na3_cod":"030355","na3_desc":"PARROQUIA RURAL","LABEL":1},"geometry":{"type":"Point","coordinates":[-78.91794138966249,-2.54944521920476]}},{"type":"Feature","properties":{"codigo":"AL105","descripcio":"UNA CONCENTRACION DE CASAS","nam":"PISTISHI","na2":null,"na3_cod":"060256","na3_desc":"PARROQUIA RURAL","LABEL":1},"geometry":{"type":"Point","coordinates":[-78.87492540977745,-2.244690958453046]}},{"type":"Feature","properties":{"codigo":"AL105","descripcio":"UNA CONCENTRACION DE CASAS","nam":"SAN FRANCISCO","na2":null,"na3_cod":"030104","na3_desc":"PARROQUIA URBANA","LABEL":1},"geometry":{"type":"Point","coordinates":[-78.64963161385997,-2.558557117011662]}},{"type":"Feature","properties":{"codigo":"AL105","descripcio":"UNA CONCENTRACION DE CASAS","nam":"GUASUNTOS","na2":null,"na3_cod":"060253","na3_desc":"PARROQUIA RURAL","LABEL":1},"geometry":{"type":"Point","coordinates":[-78.80766019406794,-2.225617425923525]}},{"type":"Feature","properties":{"codigo":"AL105","descripcio":"UNA CONCENTRACION DE CASAS","nam":"COMPUD","na2":null,"na3_cod":"060552","na3_desc":"PARROQUIA RURAL","LABEL":1},"geometry":{"type":"Point","coordinates":[-78.93584845952417,-2.338385856859718]}},{"type":"Feature","properties":{"codigo":"AL105","descripcio":"UNA CONCENTRACION DE CASAS","nam":"DUG DUG","na2":null,"na3_cod":"010562","na3_desc":"PARROQUIA RURAL","LABEL":1},"geometry":{"type":"Point","coordinates":[-78.71878544388751,-2.736870226212915]}},{"type":"Feature","properties":{"codigo":"AL105","descripcio":"UNA CONCENTRACION DE CASAS","nam":"LA UNION","na2":null,"na3_cod":"011152","na3_desc":"PARROQUIA RURAL","LABEL":1},"geometry":{"type":"Point","coordinates":[-78.75797126657123,-2.917630189181288]}},{"type":"Feature","properties":{"codigo":"AL105","descripcio":"UNA CONCENTRACION DE CASAS","nam":"RICAURTE","na2":null,"na3_cod":"010162","na3_desc":"PARROQUIA RURAL","LABEL":1},"geometry":{"type":"Point","coordinates":[-78.95910286113504,-2.855835850268774]}},{"type":"Feature","properties":{"codigo":"AL105","descripcio":"UNA CONCENTRACION DE CASAS","nam":"GONZOL","na2":null,"na3_cod":"060553","na3_desc":"PARROQUIA RURAL","LABEL":1},"geometry":{"type":"Point","coordinates":[-78.83927939565972,-2.257069324775505]}},{"type":"Feature","properties":{"codigo":"AL105","descripcio":"UNA CONCENTRACION DE CASAS","nam":"TURUPAMBA","na2":null,"na3_cod":"030253","na3_desc":"PARROQUIA RURAL","LABEL":1},"geometry":{"type":"Point","coordinates":[-78.90753719223363,-2.71992567831872]}},{"type":"Feature","properties":{"codigo":"AL105","descripcio":"UNA CONCENTRACION DE CASAS","nam":"NAZON","na2":null,"na3_cod":"030251","na3_desc":"PARROQUIA RURAL","LABEL":1},"geometry":{"type":"Point","coordinates":[-78.90609883451633,-2.696164764847341]}},{"type":"Feature","properties":{"codigo":"AL105","descripcio":"UNA CONCENTRACION DE CASAS","nam":"CAPZOL","na2":null,"na3_cod":"060551","na3_desc":"PARROQUIA RURAL","LABEL":1},"geometry":{"type":"Point","coordinates":[-78.9201206382998,-2.295668156500652]}},{"type":"Feature","properties":{"codigo":"AL105","descripcio":"UNA CONCENTRACION DE CASAS","nam":"SAN IGNACIO DE  LOYOLA","na2":null,"na3_cod":"030154","na3_desc":"PARROQUIA RURAL","LABEL":1},"geometry":{"type":"Point","coordinates":[-78.86781258055983,-2.797716559274112]}},{"type":"Feature","properties":{"codigo":"AL105","descripcio":"UNA CONCENTRACION DE CASAS","nam":"LLAGOS","na2":null,"na3_cod":"060554","na3_desc":"PARROQUIA RURAL","LABEL":1},"geometry":{"type":"Point","coordinates":[-78.98222456765426,-2.357535414470848]}},{"type":"Feature","properties":{"codigo":"AL105","descripcio":"UNA CONCENTRACION DE CASAS","nam":"SANTA ISABEL","na2":"CHAGUARURCO","na3_cod":"010850","na3_desc":"CABECERA CANTONAL","LABEL":1},"geometry":{"type":"Point","coordinates":[-79.31433468534537,-3.268968071199681]}},{"type":"Feature","properties":{"codigo":"AL105","descripcio":"UNA CONCENTRACION DE CASAS","nam":"PUCARA","na2":null,"na3_cod":"010650","na3_desc":"CABECERA CANTONAL","LABEL":1},"geometry":{"type":"Point","coordinates":[-79.46616459853203,-3.212544872934243]}},{"type":"Feature","properties":{"codigo":"AL105","descripcio":"UNA CONCENTRACION DE CASAS","nam":"LA VICTORIA DE  PORTETE","na2":"IRQUIS","na3_cod":"010171","na3_desc":"PARROQUIA RURAL","LABEL":1},"geometry":{"type":"Point","coordinates":[-79.06041048541839,-3.057306155941013]}},{"type":"Feature","properties":{"codigo":"AL105","descripcio":"UNA CONCENTRACION DE CASAS","nam":"OCTAVIO CORDERO PALACIOS","na2":"SANTA ROSA","na3_cod":"010159","na3_desc":"PARROQUIA RURAL","LABEL":1},"geometry":{"type":"Point","coordinates":[-78.95744530135472,-2.7796850627965]}},{"type":"Feature","properties":{"codigo":"AL105","descripcio":"UNA CONCENTRACION DE CASAS","nam":"PACCHA","na2":null,"na3_cod":"010160","na3_desc":"PARROQUIA RURAL","LABEL":1},"geometry":{"type":"Point","coordinates":[-78.92887328608907,-2.892818895974026]}},{"type":"Feature","properties":{"codigo":"AL105","descripcio":"UNA CONCENTRACION DE CASAS","nam":"SININCAY","na2":"SHININCAY","na3_cod":"010167","na3_desc":"PARROQUIA RURAL","LABEL":1},"geometry":{"type":"Point","coordinates":[-79.01215399020231,-2.847114403967416]}},{"type":"Feature","properties":{"codigo":"AL105","descripcio":"UNA CONCENTRACION DE CASAS","nam":"REMIGIO CRESPO TORAL","na2":"GULAG","na3_cod":"010356","na3_desc":"PARROQUIA RURAL","LABEL":1},"geometry":{"type":"Point","coordinates":[-78.75355552137859,-2.90878481613978]}},{"type":"Feature","properties":{"codigo":"AL105","descripcio":"UNA CONCENTRACION DE CASAS","nam":"CHICAN","na2":"GUILLERMO ORTEGA","na3_cod":"010553","na3_desc":"PARROQUIA RURAL","LABEL":1},"geometry":{"type":"Point","coordinates":[-78.75629664481264,-2.813588885815532]}},{"type":"Feature","properties":{"codigo":"AL105","descripcio":"UNA CONCENTRACION DE CASAS","nam":"SAN FERNANDO","na2":null,"na3_cod":"010750","na3_desc":"CABECERA CANTONAL","LABEL":1},"geometry":{"type":"Point","coordinates":[-79.24958435564265,-3.144420077599461]}},{"type":"Feature","properties":{"codigo":"AL105","descripcio":"UNA CONCENTRACION DE CASAS","nam":"DANIEL CORDOVA TORAL","na2":"EL ORIENTE","na3_cod":"010352","na3_desc":"PARROQUIA RURAL","LABEL":1},"geometry":{"type":"Point","coordinates":[-78.73749091220199,-2.868798836279466]}},{"type":"Feature","properties":{"codigo":"AL105","descripcio":"UNA CONCENTRACION DE CASAS","nam":"SIGSIG","na2":null,"na3_cod":"010950","na3_desc":"CABECERA CANTONAL","LABEL":1},"geometry":{"type":"Point","coordinates":[-78.79179141383483,-3.052712097625187]}},{"type":"Feature","properties":{"codigo":"AL105","descripcio":"UNA CONCENTRACION DE CASAS","nam":"LAS NIEVES","na2":"CHAYA","na3_cod":"010453","na3_desc":"PARROQUIA RURAL","LABEL":1},"geometry":{"type":"Point","coordinates":[-79.11733236033086,-3.338126710645646]}},{"type":"Feature","properties":{"codigo":"AL105","descripcio":"UNA CONCENTRACION DE CASAS","nam":"SAN CRISTOBAL","na2":"CARLOS ORDONEZ LAZO","na3_cod":"010559","na3_desc":"PARROQUIA RURAL","LABEL":1},"geometry":{"type":"Point","coordinates":[-78.8322309157499,-2.821937875343319]}},{"type":"Feature","properties":{"codigo":"AL105","descripcio":"UNA CONCENTRACION DE CASAS","nam":"AMAZONAS","na2":null,"na3_cod":"140251","na3_desc":"PARROQUIA RURAL","LABEL":1},"geometry":{"type":"Point","coordinates":[-78.75028954061284,-3.377812724525405]}},{"type":"Feature","properties":{"codigo":"AL105","descripcio":"UNA CONCENTRACION DE CASAS","nam":"SAN MIGUEL DE CUYES","na2":null,"na3_cod":"140257","na3_desc":"PARROQUIA RURAL","LABEL":1},"geometry":{"type":"Point","coordinates":[-78.81256373366519,-3.334034145712377]}},{"type":"Feature","properties":{"codigo":"AL105","descripcio":"UNA CONCENTRACION DE CASAS","nam":"BERMEJOS","na2":null,"na3_cod":"140252","na3_desc":"PARROQUIA RURAL","LABEL":1},"geometry":{"type":"Point","coordinates":[-78.72515054118011,-3.241960267373111]}},{"type":"Feature","properties":{"codigo":"AL105","descripcio":"UNA CONCENTRACION DE CASAS","nam":"CHIGUINDA","na2":null,"na3_cod":"140254","na3_desc":"PARROQUIA RURAL","LABEL":1},"geometry":{"type":"Point","coordinates":[-78.71851011726316,-3.224686802512039]}},{"type":"Feature","properties":{"codigo":"AL105","descripcio":"UNA CONCENTRACION DE CASAS","nam":"EL ROSARIO","na2":"EL AGUACATE","na3_cod":"140255","na3_desc":"PARROQUIA RURAL","LABEL":1},"geometry":{"type":"Point","coordinates":[-78.6436883618118,-3.282982461417482]}},{"type":"Feature","properties":{"codigo":"AL105","descripcio":"UNA CONCENTRACION DE CASAS","nam":"LUDO","na2":null,"na3_cod":"010954","na3_desc":"PARROQUIA RURAL","LABEL":1},"geometry":{"type":"Point","coordinates":[-78.88864852212222,-3.076170863361487]}},{"type":"Feature","properties":{"codigo":"AL105","descripcio":"UNA CONCENTRACION DE CASAS","nam":"QUINGEO","na2":null,"na3_cod":"010161","na3_desc":"PARROQUIA RURAL","LABEL":1},"geometry":{"type":"Point","coordinates":[-78.9269834306517,-3.025902518793379]}},{"type":"Feature","properties":{"codigo":"AL105","descripcio":"UNA CONCENTRACION DE CASAS","nam":"GUEL","na2":null,"na3_cod":"010953","na3_desc":"PARROQUIA RURAL","LABEL":1},"geometry":{"type":"Point","coordinates":[-78.76551983851445,-3.012502703950165]}},{"type":"Feature","properties":{"codigo":"AL105","descripcio":"UNA CONCENTRACION DE CASAS","nam":"SAN JOSE DE RARANGA","na2":null,"na3_cod":"010956","na3_desc":"PARROQUIA RURAL","LABEL":1},"geometry":{"type":"Point","coordinates":[-78.96058411800125,-3.127447661830532]}},{"type":"Feature","properties":{"codigo":"AL105","descripcio":"UNA CONCENTRACION DE CASAS","nam":"SAN BARTOLOME","na2":null,"na3_cod":"010955","na3_desc":"PARROQUIA RURAL","LABEL":1},"geometry":{"type":"Point","coordinates":[-78.84078910350215,-3.00442870712441]}},{"type":"Feature","properties":{"codigo":"AL105","descripcio":"UNA CONCENTRACION DE CASAS","nam":"BULAN","na2":"JOSE VICTOR IZQUIERDO","na3_cod":"010552","na3_desc":"PARROQUIA RURAL","LABEL":1},"geometry":{"type":"Point","coordinates":[-78.77173306194311,-2.725780240615508]}},{"type":"Feature","properties":{"codigo":"AL105","descripcio":"UNA CONCENTRACION DE CASAS","nam":"PRINCIPAL","na2":null,"na3_cod":"011151","na3_desc":"PARROQUIA RURAL","LABEL":1},"geometry":{"type":"Point","coordinates":[-78.74983586063976,-3.021495568517719]}},{"type":"Feature","properties":{"codigo":"AL105","descripcio":"UNA CONCENTRACION DE CASAS","nam":"PUNA NUEVO","na2":null,"na3_cod":"090157","na3_desc":"PARROQUIA RURAL","LABEL":1},"geometry":{"type":"Point","coordinates":[-79.90671097564166,-2.735481849287451]}},{"type":"Feature","properties":{"codigo":"AL105","descripcio":"UNA CONCENTRACION DE CASAS","nam":"TENGUEL","na2":null,"na3_cod":"090158","na3_desc":"PARROQUIA RURAL","LABEL":1},"geometry":{"type":"Point","coordinates":[-79.79303255826564,-2.98775271447698]}},{"type":"Feature","properties":{"codigo":"AL105","descripcio":"UNA CONCENTRACION DE CASAS","nam":"SAN CARLOS","na2":null,"na3_cod":null,"na3_desc":"POBLADO","LABEL":1},"geometry":{"type":"Point","coordinates":[-79.7067017424556,-2.905174300510447]}},{"type":"Feature","properties":{"codigo":"AL105","descripcio":"UNA CONCENTRACION DE CASAS","nam":"SHUMIRAL","na2":null,"na3_cod":null,"na3_desc":"POBLADO","LABEL":1},"geometry":{"type":"Point","coordinates":[-79.6873360674745,-2.978812619677911]}},{"type":"Feature","properties":{"codigo":"AL105","descripcio":"UNA CONCENTRACION DE CASAS","nam":"FLORIDA","na2":null,"na3_cod":null,"na3_desc":"POBLADO","LABEL":1},"geometry":{"type":"Point","coordinates":[-79.62998088318494,-2.966604555496009]}},{"type":"Feature","properties":{"codigo":"AL105","descripcio":"UNA CONCENTRACION DE CASAS","nam":"CHAUCHA","na2":null,"na3_cod":"010153","na3_desc":"PARROQUIA RURAL","LABEL":1},"geometry":{"type":"Point","coordinates":[-79.43331536462826,-2.913425287323781]}},{"type":"Feature","properties":{"codigo":"AL105","descripcio":"UNA CONCENTRACION DE CASAS","nam":"EL CARMEN DE PIJILI","na2":null,"na3_cod":"011551","na3_desc":"PARROQUIA RURAL","LABEL":1},"geometry":{"type":"Point","coordinates":[-79.51976394109546,-2.959319483949931]}},{"type":"Feature","properties":{"codigo":"AL105","descripcio":"UNA CONCENTRACION DE CASAS","nam":"CIEN FAMILIAS","na2":null,"na3_cod":null,"na3_desc":"POBLADO","LABEL":1},"geometry":{"type":"Point","coordinates":[-79.7037834293055,-2.822461743410689]}},{"type":"Feature","properties":{"codigo":"AL105","descripcio":"UNA CONCENTRACION DE CASAS","nam":"SAN VINICIO","na2":null,"na3_cod":null,"na3_desc":"POBLADO","LABEL":1},"geometry":{"type":"Point","coordinates":[-79.70359654371678,-2.859643373380449]}},{"type":"Feature","properties":{"codigo":"AL105","descripcio":"UNA CONCENTRACION DE CASAS","nam":"SHAGAL","na2":null,"na3_cod":null,"na3_desc":"POBLADO","LABEL":1},"geometry":{"type":"Point","coordinates":[-79.62506298809967,-2.851327598485936]}},{"type":"Feature","properties":{"codigo":"AL105","descripcio":"UNA CONCENTRACION DE CASAS","nam":"SAN LUIS","na2":null,"na3_cod":null,"na3_desc":"POBLADO","LABEL":1},"geometry":{"type":"Point","coordinates":[-79.57006318449096,-2.893281951365742]}},{"type":"Feature","properties":{"codigo":"AL105","descripcio":"UNA CONCENTRACION DE CASAS","nam":"ABDON CALDERON","na2":null,"na3_cod":null,"na3_desc":"POBLADO","LABEL":1},"geometry":{"type":"Point","coordinates":[-79.61757435883237,-2.897446028506797]}},{"type":"Feature","properties":{"codigo":"AL105","descripcio":"UNA CONCENTRACION DE CASAS","nam":"LA JOYA","na2":null,"na3_cod":null,"na3_desc":"POBLADO","LABEL":1},"geometry":{"type":"Point","coordinates":[-79.65317715034517,-2.894108285464175]}},{"type":"Feature","properties":{"codigo":"AL105","descripcio":"UNA CONCENTRACION DE CASAS","nam":"BELLA UNION","na2":null,"na3_cod":null,"na3_desc":"POBLADO","LABEL":1},"geometry":{"type":"Point","coordinates":[-79.44533803292799,-2.829491883517775]}},{"type":"Feature","properties":{"codigo":"AL105","descripcio":"UNA CONCENTRACION DE CASAS","nam":"LAS TRES MARIAS","na2":null,"na3_cod":null,"na3_desc":"POBLADO","LABEL":1},"geometry":{"type":"Point","coordinates":[-79.47201054139215,-2.841536819550802]}},{"type":"Feature","properties":{"codigo":"AL105","descripcio":"UNA CONCENTRACION DE CASAS","nam":"LA IBERIA","na2":null,"na3_cod":null,"na3_desc":"POBLADO","LABEL":1},"geometry":{"type":"Point","coordinates":[-79.51800362519701,-2.889358727311976]}},{"type":"Feature","properties":{"codigo":"AL105","descripcio":"UNA CONCENTRACION DE CASAS","nam":"VENTURA","na2":null,"na3_cod":"030362","na3_desc":"PARROQUIA RURAL","LABEL":1},"geometry":{"type":"Point","coordinates":[-79.12235363183969,-2.242773172045071]}},{"type":"Feature","properties":{"codigo":"AL105","descripcio":"UNA CONCENTRACION DE CASAS","nam":"GENERAL ANTONIO ELIZALDE","na2":"BUCAY","na3_cod":"092750","na3_desc":"CABECERA CANTONAL","LABEL":1},"geometry":{"type":"Point","coordinates":[-79.12699460617665,-2.194525626441528]}},{"type":"Feature","properties":{"codigo":"AL105","descripcio":"UNA CONCENTRACION DE CASAS","nam":"CUMANDA","na2":null,"na3_cod":"061050","na3_desc":"CABECERA CANTONAL","LABEL":1},"geometry":{"type":"Point","coordinates":[-79.13062754797171,-2.201264221287355]}},{"type":"Feature","properties":{"codigo":"AL105","descripcio":"UNA CONCENTRACION DE CASAS","nam":"ROBERTO ASTUDILLO","na2":null,"na3_cod":"091054","na3_desc":"PARROQUIA RURAL","LABEL":1},"geometry":{"type":"Point","coordinates":[-79.51225166478243,-2.17678131002403]}},{"type":"Feature","properties":{"codigo":"AL105","descripcio":"UNA CONCENTRACION DE CASAS","nam":"MANUEL J. CALLE","na2":null,"na3_cod":"030451","na3_desc":"PARROQUIA RURAL","LABEL":1},"geometry":{"type":"Point","coordinates":[-79.3931067142049,-2.349866178558187]}},{"type":"Feature","properties":{"codigo":"AL105","descripcio":"UNA CONCENTRACION DE CASAS","nam":"JAIME ROLDOS","na2":null,"na3_cod":null,"na3_desc":"POBLADO","LABEL":1},"geometry":{"type":"Point","coordinates":[-79.70695822626344,-2.800303770396715]}},{"type":"Feature","properties":{"codigo":"AL105","descripcio":"UNA CONCENTRACION DE CASAS","nam":"COOPERATIVA NUEVA UNION CAMPESINA","na2":null,"na3_cod":null,"na3_desc":"POBLADO","LABEL":1},"geometry":{"type":"Point","coordinates":[-79.67319607680794,-2.725282024820775]}},{"type":"Feature","properties":{"codigo":"AL105","descripcio":"UNA CONCENTRACION DE CASAS","nam":"COOPERATIVA SEIS DE JULIO","na2":null,"na3_cod":null,"na3_desc":"POBLADO","LABEL":1},"geometry":{"type":"Point","coordinates":[-79.69891305226842,-2.740874074044531]}},{"type":"Feature","properties":{"codigo":"AL105","descripcio":"UNA CONCENTRACION DE CASAS","nam":"CAMACHO","na2":null,"na3_cod":null,"na3_desc":"POBLADO","LABEL":1},"geometry":{"type":"Point","coordinates":[-79.65454377064094,-2.814357552753186]}},{"type":"Feature","properties":{"codigo":"AL105","descripcio":"UNA CONCENTRACION DE CASAS","nam":"EL VENADO","na2":null,"na3_cod":null,"na3_desc":"POBLADO","LABEL":1},"geometry":{"type":"Point","coordinates":[-79.6667625886259,-2.80750818843481]}},{"type":"Feature","properties":{"codigo":"AL105","descripcio":"UNA CONCENTRACION DE CASAS","nam":"SAN PABLO","na2":null,"na3_cod":null,"na3_desc":"POBLADO","LABEL":1},"geometry":{"type":"Point","coordinates":[-79.76727480321439,-2.688348111015669]}},{"type":"Feature","properties":{"codigo":"AL105","descripcio":"UNA CONCENTRACION DE CASAS","nam":"NUEVO PORVENIR","na2":null,"na3_cod":null,"na3_desc":"POBLADO","LABEL":1},"geometry":{"type":"Point","coordinates":[-79.67001912305604,-2.633230646361512]}},{"type":"Feature","properties":{"codigo":"AL105","descripcio":"UNA CONCENTRACION DE CASAS","nam":"CHURUTILLO","na2":null,"na3_cod":null,"na3_desc":"POBLADO","LABEL":1},"geometry":{"type":"Point","coordinates":[-79.74870005664397,-2.520182619527557]}},{"type":"Feature","properties":{"codigo":"AL105","descripcio":"UNA CONCENTRACION DE CASAS","nam":"LOS TAMARINDOS","na2":null,"na3_cod":null,"na3_desc":"POBLADO","LABEL":1},"geometry":{"type":"Point","coordinates":[-79.71844271780164,-2.54718234086396]}},{"type":"Feature","properties":{"codigo":"AL105","descripcio":"UNA CONCENTRACION DE CASAS","nam":"PUERTO SANTA FE","na2":null,"na3_cod":null,"na3_desc":"POBLADO","LABEL":1},"geometry":{"type":"Point","coordinates":[-79.70099919333431,-2.607280397436651]}},{"type":"Feature","properties":{"codigo":"AL105","descripcio":"UNA CONCENTRACION DE CASAS","nam":"PUERTO SALVADOR","na2":null,"na3_cod":null,"na3_desc":"POBLADO","LABEL":1},"geometry":{"type":"Point","coordinates":[-79.68149602699397,-2.589720879388193]}},{"type":"Feature","properties":{"codigo":"AL105","descripcio":"UNA CONCENTRACION DE CASAS","nam":"ONCE DE AGOSTO","na2":null,"na3_cod":null,"na3_desc":"POBLADO","LABEL":1},"geometry":{"type":"Point","coordinates":[-79.59296728131862,-2.70526041583885]}},{"type":"Feature","properties":{"codigo":"AL105","descripcio":"UNA CONCENTRACION DE CASAS","nam":"PAN DE AZUCAR","na2":null,"na3_cod":null,"na3_desc":"POBLADO","LABEL":1},"geometry":{"type":"Point","coordinates":[-79.48775850712833,-2.775607257910284]}},{"type":"Feature","properties":{"codigo":"AL105","descripcio":"UNA CONCENTRACION DE CASAS","nam":"COCHAPAMBA","na2":null,"na3_cod":null,"na3_desc":"POBLADO","LABEL":1},"geometry":{"type":"Point","coordinates":[-79.41425086393684,-2.784301243681592]}},{"type":"Feature","properties":{"codigo":"AL105","descripcio":"UNA CONCENTRACION DE CASAS","nam":"YAGUACHI VIEJO","na2":null,"na3_cod":"092055","na3_desc":"PARROQUIA RURAL","LABEL":1},"geometry":{"type":"Point","coordinates":[-79.64301390900599,-2.157203729536543]}},{"type":"Feature","properties":{"codigo":"AL105","descripcio":"UNA CONCENTRACION DE CASAS","nam":"MIRADOR","na2":null,"na3_cod":null,"na3_desc":"POBLADO","LABEL":1},"geometry":{"type":"Point","coordinates":[-79.62944317461833,-2.421637822733281]}},{"type":"Feature","properties":{"codigo":"AL105","descripcio":"UNA CONCENTRACION DE CASAS","nam":"PUERTO DEL GALLO","na2":null,"na3_cod":null,"na3_desc":"POBLADO","LABEL":1},"geometry":{"type":"Point","coordinates":[-79.66048437596284,-2.418263067879726]}},{"type":"Feature","properties":{"codigo":"AL105","descripcio":"UNA CONCENTRACION DE CASAS","nam":"SANTA ROSA DE FLANDES","na2":null,"na3_cod":"091153","na3_desc":"PARROQUIA RURAL","LABEL":1},"geometry":{"type":"Point","coordinates":[-79.64528044910936,-2.63342888295429]}},{"type":"Feature","properties":{"codigo":"AL105","descripcio":"UNA CONCENTRACION DE CASAS","nam":"LA DELICIA","na2":null,"na3_cod":null,"na3_desc":"POBLADO","LABEL":1},"geometry":{"type":"Point","coordinates":[-79.57213117676059,-2.640995601764295]}},{"type":"Feature","properties":{"codigo":"AL105","descripcio":"UNA CONCENTRACION DE CASAS","nam":"GRAMALOTAL","na2":null,"na3_cod":null,"na3_desc":"POBLADO","LABEL":1},"geometry":{"type":"Point","coordinates":[-79.5424028259156,-2.626775055797267]}},{"type":"Feature","properties":{"codigo":"AL105","descripcio":"UNA CONCENTRACION DE CASAS","nam":"SAN JOAQUIN","na2":null,"na3_cod":"010163","na3_desc":"PARROQUIA RURAL","LABEL":1},"geometry":{"type":"Point","coordinates":[-79.04865032016026,-2.890574315368333]}},{"type":"Feature","properties":{"codigo":"AL105","descripcio":"UNA CONCENTRACION DE CASAS","nam":"TOMEBAMBA","na2":null,"na3_cod":"010561","na3_desc":"PARROQUIA RURAL","LABEL":1},"geometry":{"type":"Point","coordinates":[-78.67735703563729,-2.734503087915889]}},{"type":"Feature","properties":{"codigo":"AL105","descripcio":"UNA CONCENTRACION DE CASAS","nam":"TURI","na2":null,"na3_cod":"010169","na3_desc":"PARROQUIA RURAL","LABEL":1},"geometry":{"type":"Point","coordinates":[-79.00770181787522,-2.919532699173166]}},{"type":"Feature","properties":{"codigo":"AL105","descripcio":"UNA CONCENTRACION DE CASAS","nam":"SAN ANTONIO","na2":null,"na3_cod":"030358","na3_desc":"PARROQUIA RURAL","LABEL":1},"geometry":{"type":"Point","coordinates":[-79.183244282799,-2.510898538134121]}},{"type":"Feature","properties":{"codigo":"AL105","descripcio":"UNA CONCENTRACION DE CASAS","nam":"SAN FRANCISCO DE GUALLETURO","na2":null,"na3_cod":"030354","na3_desc":"PARROQUIA RURAL","LABEL":1},"geometry":{"type":"Point","coordinates":[-79.13013875082585,-2.520356307024435]}},{"type":"Feature","properties":{"codigo":"AL105","descripcio":"UNA CONCENTRACION DE CASAS","nam":"CUCHIL","na2":"CUTCHIL","na3_cod":"010951","na3_desc":"PARROQUIA RURAL","LABEL":1},"geometry":{"type":"Point","coordinates":[-78.79192922069568,-3.072590829307138]}},{"type":"Feature","properties":{"codigo":"AL105","descripcio":"UNA CONCENTRACION DE CASAS","nam":"VILLA NUEVA","na2":null,"na3_cod":null,"na3_desc":"POBLADO","LABEL":1},"geometry":{"type":"Point","coordinates":[-79.41918461564542,-2.671946648273026]}},{"type":"Feature","properties":{"codigo":"AL105","descripcio":"UNA CONCENTRACION DE CASAS","nam":"LUZ MARIA","na2":null,"na3_cod":null,"na3_desc":"POBLADO","LABEL":1},"geometry":{"type":"Point","coordinates":[-79.41296947564845,-2.686894390091218]}},{"type":"Feature","properties":{"codigo":"AL105","descripcio":"UNA CONCENTRACION DE CASAS","nam":"HIERBA BUENA","na2":null,"na3_cod":null,"na3_desc":"POBLADO","LABEL":1},"geometry":{"type":"Point","coordinates":[-79.43898966436512,-2.720980773417147]}},{"type":"Feature","properties":{"codigo":"AL105","descripcio":"UNA CONCENTRACION DE CASAS","nam":"ARQUILLO","na2":null,"na3_cod":null,"na3_desc":"POBLADO","LABEL":1},"geometry":{"type":"Point","coordinates":[-79.37195802277088,-2.70782985587097]}},{"type":"Feature","properties":{"codigo":"AL105","descripcio":"UNA CONCENTRACION DE CASAS","nam":"SAN JOSE DE HUIGRA","na2":null,"na3_cod":null,"na3_desc":"POBLADO","LABEL":1},"geometry":{"type":"Point","coordinates":[-79.3789836212518,-2.737684881122528]}},{"type":"Feature","properties":{"codigo":"AL105","descripcio":"UNA CONCENTRACION DE CASAS","nam":"SAN FELIPE DE MOLLETURO","na2":null,"na3_cod":null,"na3_desc":"PARROQUIA RURAL","LABEL":1},"geometry":{"type":"Point","coordinates":[-79.39682752876202,-2.766313833350653]}},{"type":"Feature","properties":{"codigo":"AL105","descripcio":"UNA CONCENTRACION DE CASAS","nam":"CHOBO","na2":null,"na3_cod":"091051","na3_desc":"PARROQUIA RURAL","LABEL":1},"geometry":{"type":"Point","coordinates":[-79.6342774064768,-2.131934612959438]}},{"type":"Feature","properties":{"codigo":"AL105","descripcio":"UNA CONCENTRACION DE CASAS","nam":"PANCHO NEGRO","na2":null,"na3_cod":"030452","na3_desc":"PARROQUIA RURAL","LABEL":1},"geometry":{"type":"Point","coordinates":[-79.49864979588419,-2.50923912810468]}},{"type":"Feature","properties":{"codigo":"AL105","descripcio":"UNA CONCENTRACION DE CASAS","nam":"SAN CARLOS","na2":null,"na3_cod":"091152","na3_desc":"PARROQUIA RURAL","LABEL":1},"geometry":{"type":"Point","coordinates":[-79.47429682198225,-2.522414195996475]}},{"type":"Feature","properties":{"codigo":"AL105","descripcio":"UNA CONCENTRACION DE CASAS","nam":"JESUS MARIA","na2":null,"na3_cod":"091151","na3_desc":"PARROQUIA RURAL","LABEL":1},"geometry":{"type":"Point","coordinates":[-79.54268709628887,-2.565175730280355]}},{"type":"Feature","properties":{"codigo":"AL105","descripcio":"UNA CONCENTRACION DE CASAS","nam":"EL MANGO","na2":null,"na3_cod":null,"na3_desc":"POBLADO","LABEL":1},"geometry":{"type":"Point","coordinates":[-79.6167322599402,-2.465869543934193]}},{"type":"Feature","properties":{"codigo":"AL105","descripcio":"UNA CONCENTRACION DE CASAS","nam":"COOPERATIVA CRISTOBAL COLON","na2":null,"na3_cod":null,"na3_desc":"POBLADO","LABEL":1},"geometry":{"type":"Point","coordinates":[-79.59841952662399,-2.487488039537376]}},{"type":"Feature","properties":{"codigo":"AL105","descripcio":"UNA CONCENTRACION DE CASAS","nam":"REY RANCHO","na2":"TROVADOR","na3_cod":null,"na3_desc":"POBLADO","LABEL":1},"geometry":{"type":"Point","coordinates":[-79.59613099899002,-2.538026831967468]}},{"type":"Feature","properties":{"codigo":"AL105","descripcio":"UNA CONCENTRACION DE CASAS","nam":"AGUAS CALIENTES","na2":null,"na3_cod":null,"na3_desc":"POBLADO","LABEL":1},"geometry":{"type":"Point","coordinates":[-79.49421964335995,-2.624091261680965]}},{"type":"Feature","properties":{"codigo":"AL105","descripcio":"UNA CONCENTRACION DE CASAS","nam":"CACAO LOMA","na2":null,"na3_cod":null,"na3_desc":"POBLADO","LABEL":1},"geometry":{"type":"Point","coordinates":[-79.43908228306582,-2.599882539926551]}},{"type":"Feature","properties":{"codigo":"AL105","descripcio":"UNA CONCENTRACION DE CASAS","nam":"CORONA DE ORO","na2":null,"na3_cod":null,"na3_desc":"POBLADO","LABEL":1},"geometry":{"type":"Point","coordinates":[-79.43151794975448,-2.652529595176611]}},{"type":"Feature","properties":{"codigo":"AL105","descripcio":"UNA CONCENTRACION DE CASAS","nam":"ROSA AMERICA","na2":null,"na3_cod":null,"na3_desc":"POBLADO","LABEL":1},"geometry":{"type":"Point","coordinates":[-79.32765627047895,-2.431379116188923]}},{"type":"Feature","properties":{"codigo":"AL105","descripcio":"UNA CONCENTRACION DE CASAS","nam":"VOLUNTAD DE DIOS","na2":null,"na3_cod":null,"na3_desc":"POBLADO","LABEL":1},"geometry":{"type":"Point","coordinates":[-79.31392570357991,-2.443786905039628]}},{"type":"Feature","properties":{"codigo":"AL105","descripcio":"UNA CONCENTRACION DE CASAS","nam":"ZHUD","na2":null,"na3_cod":"030361","na3_desc":"PARROQUIA RURAL","LABEL":1},"geometry":{"type":"Point","coordinates":[-79.00221659690065,-2.455924122516847]}},{"type":"Feature","properties":{"codigo":"AL105","descripcio":"UNA CONCENTRACION DE CASAS","nam":"SAN JAVIER","na2":null,"na3_cod":"030351","na3_desc":"PARROQUIA RURAL","LABEL":1},"geometry":{"type":"Point","coordinates":[-79.10802968301768,-2.429536363328459]}},{"type":"Feature","properties":{"codigo":"AL105","descripcio":"UNA CONCENTRACION DE CASAS","nam":"JIMA","na2":"GIMA","na3_cod":"010952","na3_desc":"PARROQUIA RURAL","LABEL":1},"geometry":{"type":"Point","coordinates":[-78.95070860589881,-3.190103832287871]}},{"type":"Feature","properties":{"codigo":"AL105","descripcio":"UNA CONCENTRACION DE CASAS","nam":"SUSCAL","na2":null,"na3_cod":"030750","na3_desc":"CABECERA CANTONAL","LABEL":1},"geometry":{"type":"Point","coordinates":[-79.05101416557775,-2.435076117485405]}},{"type":"Feature","properties":{"codigo":"AL105","descripcio":"UNA CONCENTRACION DE CASAS","nam":"GENERAL MORALES","na2":null,"na3_cod":"030353","na3_desc":"PARROQUIA RURAL","LABEL":1},"geometry":{"type":"Point","coordinates":[-79.02248657352946,-2.404361851303976]}},{"type":"Feature","properties":{"codigo":"AL105","descripcio":"UNA CONCENTRACION DE CASAS","nam":"ROCAFUERTE","na2":null,"na3_cod":"090110","na3_desc":"PARROQUIA URBANA","LABEL":1},"geometry":{"type":"Point","coordinates":[-79.32831043107663,-2.167073914628974]}},{"type":"Feature","properties":{"codigo":"AL105","descripcio":"UNA CONCENTRACION DE CASAS","nam":"CHURUTE","na2":null,"na3_cod":null,"na3_desc":"POBLADO","LABEL":1},"geometry":{"type":"Point","coordinates":[-79.65522893133287,-2.434793378312222]}},{"type":"Feature","properties":{"codigo":"AL105","descripcio":"UNA CONCENTRACION DE CASAS","nam":"LUIS GALARZA ORELLANA","na2":"DELEGSOL","na3_cod":"011153","na3_desc":"PARROQUIA RURAL","LABEL":1},"geometry":{"type":"Point","coordinates":[-78.75823662181016,-2.990514252069018]}},{"type":"Feature","properties":{"codigo":"AL105","descripcio":"UNA CONCENTRACION DE CASAS","nam":"JAMBELI","na2":null,"na3_cod":"071252","na3_desc":"PARROQUIA RURAL","LABEL":1},"geometry":{"type":"Point","coordinates":[-80.03992987612862,-3.237525319173471]}},{"type":"Feature","properties":{"codigo":"AL105","descripcio":"UNA CONCENTRACION DE CASAS","nam":"GIRON","na2":null,"na3_cod":"010250","na3_desc":"CABECERA CANTONAL","LABEL":1},"geometry":{"type":"Point","coordinates":[-79.1431533379078,-3.155952765695895]}},{"type":"Feature","properties":{"codigo":"AL105","descripcio":"UNA CONCENTRACION DE CASAS","nam":"CANARIBAMBA","na2":"CANARIBAMBA","na3_cod":"010102","na3_desc":"PARROQUIA URBANA","LABEL":1},"geometry":{"type":"Point","coordinates":[-79.33488744202572,-3.230357332714498]}},{"type":"Feature","properties":{"codigo":"AL105","descripcio":"UNA CONCENTRACION DE CASAS","nam":"LOMA DE FRANCO","na2":null,"na3_cod":"070902","na3_desc":"PARROQUIA URBANA","LABEL":1},"geometry":{"type":"Point","coordinates":[-79.79085974565987,-3.336788683760008]}},{"type":"Feature","properties":{"codigo":"AL105","descripcio":"UNA CONCENTRACION DE CASAS","nam":"TRES CERRITOS","na2":null,"na3_cod":"070904","na3_desc":"PARROQUIA URBANA","LABEL":1},"geometry":{"type":"Point","coordinates":[-79.7647640994301,-3.320758761539308]}},{"type":"Feature","properties":{"codigo":"AL105","descripcio":"UNA CONCENTRACION DE CASAS","nam":"ABDON CALDERON","na2":"LA UNION","na3_cod":"010851","na3_desc":"PARROQUIA RURAL","LABEL":1},"geometry":{"type":"Point","coordinates":[-79.27868281596122,-3.254800924392872]}},{"type":"Feature","properties":{"codigo":"AL105","descripcio":"UNA CONCENTRACION DE CASAS","nam":"PUERTO JELI","na2":null,"na3_cod":"071202","na3_desc":"PARROQUIA URBANA","LABEL":1},"geometry":{"type":"Point","coordinates":[-79.99141515660763,-3.407782181646876]}},{"type":"Feature","properties":{"codigo":"AL105","descripcio":"UNA CONCENTRACION DE CASAS","nam":"NABON","na2":null,"na3_cod":"010450","na3_desc":"CABECERA CANTONAL","LABEL":1},"geometry":{"type":"Point","coordinates":[-79.06181640730092,-3.334617281772132]}},{"type":"Feature","properties":{"codigo":"AL105","descripcio":"UNA CONCENTRACION DE CASAS","nam":"RIO BONITO","na2":null,"na3_cod":"070654","na3_desc":"PARROQUIA RURAL","LABEL":1},"geometry":{"type":"Point","coordinates":[-79.76402469028992,-3.104335457294457]}},{"type":"Feature","properties":{"codigo":"AL105","descripcio":"UNA CONCENTRACION DE CASAS","nam":"SAN RAFAEL DE SHARUG","na2":"SAN RAFAEL DE SHARO","na3_cod":"010652","na3_desc":"PARROQUIA RURAL","LABEL":1},"geometry":{"type":"Point","coordinates":[-79.54330430943111,-3.269737888076603]}},{"type":"Feature","properties":{"codigo":"AL105","descripcio":"UNA CONCENTRACION DE CASAS","nam":"CAMILO PONCE ENRIQUEZ","na2":null,"na3_cod":"011550","na3_desc":"CABECERA CANTONAL","LABEL":1},"geometry":{"type":"Point","coordinates":[-79.74436616629492,-3.059967176215723]}},{"type":"Feature","properties":{"codigo":"AL105","descripcio":"UNA CONCENTRACION DE CASAS","nam":"TENDALES","na2":null,"na3_cod":"070653","na3_desc":"PARROQUIA RURAL","LABEL":1},"geometry":{"type":"Point","coordinates":[-79.84345251971077,-3.116817529079181]}},{"type":"Feature","properties":{"codigo":"AL105","descripcio":"UNA CONCENTRACION DE CASAS","nam":"LA IBERIA","na2":null,"na3_cod":"070652","na3_desc":"PARROQUIA RURAL","LABEL":1},"geometry":{"type":"Point","coordinates":[-79.86533542108181,-3.248963436972769]}},{"type":"Feature","properties":{"codigo":"AL105","descripcio":"UNA CONCENTRACION DE CASAS","nam":"EL CAMBIO","na2":null,"na3_cod":"070105","na3_desc":"PARROQUIA URBANA","LABEL":1},"geometry":{"type":"Point","coordinates":[-79.8990444655054,-3.282755415021934]}},{"type":"Feature","properties":{"codigo":"AL105","descripcio":"UNA CONCENTRACION DE CASAS","nam":"CANAQUEMADA","na2":null,"na3_cod":"070956","na3_desc":"PARROQUIA RURAL","LABEL":1},"geometry":{"type":"Point","coordinates":[-79.81638043053785,-3.290769000704095]}},{"type":"Feature","properties":{"codigo":"AL105","descripcio":"UNA CONCENTRACION DE CASAS","nam":"EL PROGRESO","na2":null,"na3_cod":"070954","na3_desc":"PARROQUIA RURAL","LABEL":1},"geometry":{"type":"Point","coordinates":[-79.75740430765359,-3.288391353485813]}},{"type":"Feature","properties":{"codigo":"AL105","descripcio":"UNA CONCENTRACION DE CASAS","nam":"LA PEANA","na2":null,"na3_cod":"070953","na3_desc":"PARROQUIA RURAL","LABEL":1},"geometry":{"type":"Point","coordinates":[-79.8467957450767,-3.305590332992314]}},{"type":"Feature","properties":{"codigo":"AL105","descripcio":"UNA CONCENTRACION DE CASAS","nam":"BUENAVISTA","na2":null,"na3_cod":"070951","na3_desc":"PARROQUIA RURAL","LABEL":1},"geometry":{"type":"Point","coordinates":[-79.83918799769462,-3.355817191489094]}},{"type":"Feature","properties":{"codigo":"AL105","descripcio":"UNA CONCENTRACION DE CASAS","nam":"CASACAY","na2":null,"na3_cod":"070952","na3_desc":"PARROQUIA RURAL","LABEL":1},"geometry":{"type":"Point","coordinates":[-79.72023410052617,-3.317396230935552]}},{"type":"Feature","properties":{"codigo":"AL105","descripcio":"UNA CONCENTRACION DE CASAS","nam":"EL PROGRESO","na2":null,"na3_cod":"010452","na3_desc":"PARROQUIA RURAL","LABEL":1},"geometry":{"type":"Point","coordinates":[-79.20520937158211,-3.337415531655203]}},{"type":"Feature","properties":{"codigo":"AL105","descripcio":"UNA CONCENTRACION DE CASAS","nam":"EL RETIRO","na2":null,"na3_cod":"070152","na3_desc":"PARROQUIA RURAL","LABEL":1},"geometry":{"type":"Point","coordinates":[-79.90259868492078,-3.380943991952744]}},{"type":"Feature","properties":{"codigo":"AL105","descripcio":"UNA CONCENTRACION DE CASAS","nam":"ABANIN","na2":null,"na3_cod":"071351","na3_desc":"PARROQUIA RURAL","LABEL":1},"geometry":{"type":"Point","coordinates":[-79.49988929866115,-3.331302713188848]}},{"type":"Feature","properties":{"codigo":"AL105","descripcio":"UNA CONCENTRACION DE CASAS","nam":"SAN SEBASTIAN DE YULUC","na2":null,"na3_cod":"111157","na3_desc":"PARROQUIA RURAL","LABEL":1},"geometry":{"type":"Point","coordinates":[-79.43439284165414,-3.363526120149357]}},{"type":"Feature","properties":{"codigo":"AL105","descripcio":"UNA CONCENTRACION DE CASAS","nam":"COCHAPATA","na2":null,"na3_cod":"010451","na3_desc":"PARROQUIA RURAL","LABEL":1},"geometry":{"type":"Point","coordinates":[-79.08199562796456,-3.385157407441394]}},{"type":"Feature","properties":{"codigo":"AL105","descripcio":"UNA CONCENTRACION DE CASAS","nam":"SUSUDEL","na2":null,"na3_cod":"011051","na3_desc":"PARROQUIA RURAL","LABEL":1},"geometry":{"type":"Point","coordinates":[-79.1735414419021,-3.401559067977904]}},{"type":"Feature","properties":{"codigo":"AL105","descripcio":"UNA CONCENTRACION DE CASAS","nam":"CHUMBLIN","na2":null,"na3_cod":"010751","na3_desc":"PARROQUIA RURAL","LABEL":1},"geometry":{"type":"Point","coordinates":[-79.23866108200403,-3.127123545182509]}},{"type":"Feature","properties":{"codigo":"AL105","descripcio":"UNA CONCENTRACION DE CASAS","nam":"SAN GERARDO","na2":null,"na3_cod":"010252","na3_desc":"PARROQUIA RURAL","LABEL":1},"geometry":{"type":"Point","coordinates":[-79.2017229680172,-3.135214150746719]}},{"type":"Feature","properties":{"codigo":"AL105","descripcio":"UNA CONCENTRACION DE CASAS","nam":"CUMBE","na2":null,"na3_cod":"010152","na3_desc":"PARROQUIA RURAL","LABEL":1},"geometry":{"type":"Point","coordinates":[-79.00706654926687,-3.080052547662017]}},{"type":"Feature","properties":{"codigo":"AL105","descripcio":"UNA CONCENTRACION DE CASAS","nam":"ASUNCION","na2":null,"na3_cod":"010251","na3_desc":"PARROQUIA RURAL","LABEL":1},"geometry":{"type":"Point","coordinates":[-79.25672032246179,-3.20858847440896]}},{"type":"Feature","properties":{"codigo":"AL105","descripcio":"UNA CONCENTRACION DE CASAS","nam":"TARQUI","na2":null,"na3_cod":"010168","na3_desc":"PARROQUIA RURAL","LABEL":1},"geometry":{"type":"Point","coordinates":[-79.03166281550858,-3.010820289882477]}},{"type":"Feature","properties":{"codigo":"AL105","descripcio":"UNA CONCENTRACION DE CASAS","nam":"UZHCURRUMI","na2":null,"na3_cod":"070955","na3_desc":"PARROQUIA RURAL","LABEL":1},"geometry":{"type":"Point","coordinates":[-79.5926515821692,-3.315885866947939]}},{"type":"Feature","properties":{"codigo":"AL105","descripcio":"UNA CONCENTRACION DE CASAS","nam":"SAYAUSI","na2":null,"na3_cod":"010165","na3_desc":"PARROQUIA RURAL","LABEL":1},"geometry":{"type":"Point","coordinates":[-79.07050296670279,-2.86802839473392]}},{"type":"Feature","properties":{"codigo":"AL105","descripcio":"UNA CONCENTRACION DE CASAS","nam":"BELLAVISTA","na2":null,"na3_cod":"010101","na3_desc":"PARROQUIA URBANA","LABEL":1},"geometry":{"type":"Point","coordinates":[-79.07365837626499,-2.855993919541925]}},{"type":"Feature","properties":{"codigo":"AL105","descripcio":"UNA CONCENTRACION DE CASAS","nam":"YANUNCAY GRANDE","na2":null,"na3_cod":"010114","na3_desc":"PARROQUIA URBANA","LABEL":1},"geometry":{"type":"Point","coordinates":[-79.04901434393385,-2.909186075025779]}},{"type":"Feature","properties":{"codigo":"AL105","descripcio":"UNA CONCENTRACION DE CASAS","nam":"BANOS","na2":null,"na3_cod":"010151","na3_desc":"PARROQUIA RURAL","LABEL":1},"geometry":{"type":"Point","coordinates":[-79.0610361897354,-2.920141993749818]}},{"type":"Feature","properties":{"codigo":"AL105","descripcio":"UNA CONCENTRACION DE CASAS","nam":"BARBONES","na2":"BORBONES","na3_cod":"070651","na3_desc":"PARROQUIA RURAL","LABEL":1},"geometry":{"type":"Point","coordinates":[-79.85057129210692,-3.186780288310862]}},{"type":"Feature","properties":{"codigo":"AL105","descripcio":"UNA CONCENTRACION DE CASAS","nam":"VICTORIA","na2":null,"na3_cod":"071256","na3_desc":"PARROQUIA RURAL","LABEL":1},"geometry":{"type":"Point","coordinates":[-79.8515996836816,-3.364867768200206]}},{"type":"Feature","properties":{"codigo":null,"descripcio":null,"nam":"NARANJAL","na2":null,"na3_cod":null,"na3_desc":"CABECERA CANTONAL","LABEL":1},"geometry":{"type":"Point","coordinates":[-79.61803110987299,-2.677527206206531]}},{"type":"Feature","properties":{"codigo":null,"descripcio":null,"nam":"TAURA","na2":null,"na3_cod":"PARROQUIA RURAL","na3_desc":"PARROQUIA RURAL","LABEL":1},"geometry":{"type":"Point","coordinates":[-79.73315651459447,-2.311201285452287]}},{"type":"Feature","properties":{"codigo":null,"descripcio":null,"nam":"DURAN","na2":null,"na3_cod":null,"na3_desc":"CABECERA CANTONAL","LABEL":1},"geometry":{"type":"Point","coordinates":[-79.83644097147724,-2.169704812444559]}},{"type":"Feature","properties":{"codigo":null,"descripcio":null,"nam":"BALAO","na2":null,"na3_cod":null,"na3_desc":"CABECERA CANTONAL","LABEL":1},"geometry":{"type":"Point","coordinates":[-79.8168707119277,-2.911473501496385]}},{"type":"Feature","properties":{"codigo":null,"descripcio":null,"nam":"SAN NICOLAS","na2":null,"na3_cod":null,"na3_desc":"POBLADO","LABEL":1},"geometry":{"type":"Point","coordinates":[-79.4761271937884,-2.602117091744391]}},{"type":"Feature","properties":{"codigo":null,"descripcio":null,"nam":"LA PUNTILLA","na2":null,"na3_cod":null,"na3_desc":"POBLADO","LABEL":1},"geometry":{"type":"Point","coordinates":[-79.37727131973219,-2.450920386354082]}},{"type":"Feature","properties":{"codigo":null,"descripcio":null,"nam":"CEDRO","na2":null,"na3_cod":null,"na3_desc":"POBLADO","LABEL":1},"geometry":{"type":"Point","coordinates":[-79.44543393977561,-2.900189750887189]}}]}