{"type":"FeatureCollection","name":"Rio_Principal_Opt","crs":{"type":"name","properties":{"name":"urn:ogc:def:crs:OGC:1.3:CRS84"}},"features":[{"type":"Feature","properties":{"nam":"Río Zaracay","hyp_desc":"PERENNE","SHAPE_Leng":6712.7736326},"geometry":{"type":"LineString","coordinates":[[-79.41158557402098,-2.727780328192094],[-79.41149897956956,-2.727580990652025],[-79.41118323999724,-2.727026616285427],[-79.41075615191374,-2.726602183094178],[-79.4097800864256,-2.726203452890986],[-79.40358172376648,-2.724520151178076],[-79.40235061196607,-2.724073959561624],[-79.4012773722046,-2.723328608169989],[-79.39718087426903,-2.719961047092987],[-79.3962708324823,-2.719426978838219],[-79.39546175587613,-2.719307857727873],[-79.39354049645792,-2.719332959151627],[-79.39271239206128,-2.719240600608118],[-79.39194638402458,-2.718924035934911],[-79.38991661056413,-2.71774904945136],[-79.38913575597157,-2.71741984021811],[-79.38806599752044,-2.717195566769665],[-79.3839137462765,-2.716592942603818]]}},{"type":"Feature","properties":{"nam":"Río Quitahuaycu","hyp_desc":"PERENNE","SHAPE_Leng":4530.97330373},"geometry":{"type":"LineString","coordinates":[[-79.34802575367738,-2.72498630889666],[-79.34823522491159,-2.724671971696862],[-79.34839120008206,-2.723911392060865],[-79.34827354582295,-2.723378974137054],[-79.34788776477292,-2.722965059746609],[-79.34654800720617,-2.722040934916454],[-79.34631937188858,-2.721604802523036],[-79.34638338248199,-2.721067963667838],[-79.34726364075776,-2.718678761147489],[-79.34741210971308,-2.717852663914904],[-79.34731338449433,-2.716768066406554],[-79.34620649558664,-2.71021916770228],[-79.34633300224878,-2.709144735521341],[-79.34712823935416,-2.706812259095151],[-79.34733356132705,-2.705969275279528],[-79.34731719196193,-2.705528026522187],[-79.34716983918256,-2.70500978247027],[-79.34660908947441,-2.703755828680217]]}},{"type":"Feature","properties":{"nam":"Quebrada León Huaycu","hyp_desc":"PERENNE","SHAPE_Leng":5458.34223273},"geometry":{"type":"LineString","coordinates":[[-79.34660908947441,-2.703755828680217],[-79.33848591142659,-2.705377831501191],[-79.33770248855419,-2.705729466457856],[-79.3361218189029,-2.706832461718025],[-79.33538628167693,-2.707201735849643],[-79.33456206119546,-2.707294667900237],[-79.3337933956089,-2.707263193146161]]}},{"type":"Feature","properties":{"nam":null,"hyp_desc":"PERENNE","SHAPE_Leng":2714.07212709},"geometry":{"type":"LineString","coordinates":[[-79.36441797778605,-2.689420038598107],[-79.36447707757769,-2.691803641612252],[-79.36435699872082,-2.692868082669191],[-79.36392938888127,-2.694129342639328],[-79.3622784366642,-2.698280274460353],[-79.36193977927383,-2.698839828086534],[-79.36137181281377,-2.699501660950546],[-79.35750021045901,-2.703427422623382],[-79.35711200454486,-2.703936255048424],[-79.35692700064934,-2.704315222213425],[-79.35665757239265,-2.70560299210613],[-79.35591702935389,-2.711393823913877]]}},{"type":"Feature","properties":{"nam":"Río Quitahuaycu","hyp_desc":"PERENNE","SHAPE_Leng":3471.61044356},"geometry":{"type":"LineString","coordinates":[[-79.34660908947441,-2.703755828680217],[-79.3496579759607,-2.692513512745124],[-79.3499353048283,-2.691694501792237],[-79.35025557448577,-2.691198777416012],[-79.3507640931118,-2.69090519349057],[-79.35244068227401,-2.690438469841797],[-79.3530453704569,-2.690197683564914],[-79.35439109349157,-2.689193099178052],[-79.35491489870408,-2.688904388485356],[-79.35549532274258,-2.688817895315545],[-79.35610468117007,-2.688867287052403],[-79.35670493083632,-2.689026281951095],[-79.35727961957689,-2.689282638434411],[-79.3582025101049,-2.689798256898983],[-79.35887153266525,-2.69028660513307],[-79.35936805855613,-2.69094302221099],[-79.36029415974926,-2.692772732159537],[-79.36049793893973,-2.692993645922935],[-79.36073788859929,-2.693039744482686],[-79.3610160366337,-2.692899536332948],[-79.36146422751057,-2.692511603093373],[-79.36441797778605,-2.689420038598107]]}},{"type":"Feature","properties":{"nam":"Río Putucay","hyp_desc":"PERENNE","SHAPE_Leng":3751.8929647},"geometry":{"type":"LineString","coordinates":[[-79.33782877114969,-2.650437320085548],[-79.33478279659974,-2.661154993131587],[-79.33431106422239,-2.66212123188419],[-79.33332208129963,-2.663238325906351],[-79.3329881576527,-2.663754044142919],[-79.33293657459932,-2.663956231628646]]}},{"type":"Feature","properties":{"nam":"Quebrada Aguarico","hyp_desc":"PERENNE","SHAPE_Leng":3473.40500291},"geometry":{"type":"LineString","coordinates":[[-79.33782877114969,-2.650437320085548],[-79.33458463641733,-2.652786015137373],[-79.33365956067415,-2.653362068944335],[-79.333074052039,-2.653565979535278],[-79.33293224966076,-2.653578251595153]]}},{"type":"Feature","properties":{"nam":"Quebrada Tinsay","hyp_desc":"PERENNE","SHAPE_Leng":4386.74814801},"geometry":{"type":"LineString","coordinates":[[-79.33920569828611,-2.646122262975694],[-79.33691905034155,-2.64709221367209],[-79.33629948256309,-2.647268917834333],[-79.33589064478454,-2.647297221547667],[-79.33489072919998,-2.646960828752003],[-79.3329290616307,-2.645928359733445]]}},{"type":"Feature","properties":{"nam":"Río Putucay","hyp_desc":"PERENNE","SHAPE_Leng":501.121462322},"geometry":{"type":"LineString","coordinates":[[-79.33920569828611,-2.646122262975694],[-79.33782877114969,-2.650437320085548]]}},{"type":"Feature","properties":{"nam":"Río Putucay","hyp_desc":"PERENNE","SHAPE_Leng":1200.08523551},"geometry":{"type":"LineString","coordinates":[[-79.34582563316006,-2.637551286794587],[-79.33920569828611,-2.646122262975694]]}},{"type":"Feature","properties":{"nam":"Río Miguir","hyp_desc":"PERENNE","SHAPE_Leng":1876.07219623},"geometry":{"type":"LineString","coordinates":[[-79.3839137462765,-2.716592942603818],[-79.38290665516243,-2.719253910674353],[-79.38268988863642,-2.720282811182622],[-79.3828671116994,-2.721360599020183],[-79.38430978475452,-2.72612301330918],[-79.38458947977391,-2.727429633506402],[-79.38456590753464,-2.727792198788371]]}},{"type":"Feature","properties":{"nam":"Río Miguir","hyp_desc":"PERENNE","SHAPE_Leng":3858.28549317},"geometry":{"type":"LineString","coordinates":[[-79.38721701857772,-2.685257061674458],[-79.38929803736899,-2.686839031635745],[-79.38965838994903,-2.687238391446027],[-79.38974682355952,-2.68750879092173],[-79.38963982305759,-2.687795395083403],[-79.38940244492092,-2.688085705993231],[-79.38811534470919,-2.689278500814746],[-79.38755833240225,-2.689950061138184],[-79.38682399481515,-2.691499894285133],[-79.3862532870949,-2.69310114533238],[-79.386206346796,-2.693710626706787],[-79.38632554962096,-2.694334184882353],[-79.38801578014889,-2.69934018750777],[-79.38818814836935,-2.700183334289659],[-79.38817645595495,-2.700821488556616],[-79.38758177580013,-2.704480460236099],[-79.38726968770389,-2.705747324408293],[-79.38406804830521,-2.712824852200894],[-79.38368711974108,-2.713845872098402],[-79.38362853689966,-2.714715764724147],[-79.3839137462765,-2.716592942603818]]}},{"type":"Feature","properties":{"nam":"Río Quitahuaycu","hyp_desc":"PERENNE","SHAPE_Leng":2908.34443383},"geometry":{"type":"LineString","coordinates":[[-79.36441797778605,-2.689420038598107],[-79.36709744134934,-2.68600181478277],[-79.36753447915365,-2.685554407307625],[-79.36804635579368,-2.685240299795508],[-79.36907905195646,-2.685031141551682],[-79.37388737635227,-2.684605383608259],[-79.37518411772787,-2.684424994061177],[-79.38006923420488,-2.682845344919519],[-79.38066912430226,-2.682822900658736],[-79.38121746734346,-2.683062714006057],[-79.38395336866363,-2.685348136154259],[-79.3846596780954,-2.685801736871006],[-79.38502942100365,-2.685887927192203],[-79.38545241196621,-2.685847777922955],[-79.38721701857772,-2.685257061674458]]}},{"type":"Feature","properties":{"nam":"Quebrada Ciriacu","hyp_desc":"PERENNE","SHAPE_Leng":4127.86643168},"geometry":{"type":"LineString","coordinates":[[-79.38749846181835,-2.677319572348574],[-79.39065496761894,-2.678822196019564],[-79.39124078225338,-2.679010348001944],[-79.39181749567781,-2.679008806711713],[-79.39276039131406,-2.678560953490192],[-79.39742475297622,-2.675559239633198],[-79.3979952026807,-2.675272474581905],[-79.3985901991921,-2.675144611582905],[-79.39964133233498,-2.675310247133604],[-79.40415588786796,-2.676541936714941],[-79.4049938589902,-2.6767973849682],[-79.4055568540704,-2.677062689935538],[-79.40597328321951,-2.677491459918893],[-79.40635957364668,-2.678252619087637],[-79.40937229716545,-2.685906977657844],[-79.40969951746459,-2.687192347042032],[-79.41096128645263,-2.693498944760278]]}},{"type":"Feature","properties":{"nam":"Río Miguir","hyp_desc":"PERENNE","SHAPE_Leng":902.345128164},"geometry":{"type":"LineString","coordinates":[[-79.38749846181835,-2.677319572348574],[-79.38809103215571,-2.683036238134733],[-79.38793677975059,-2.683797033799586],[-79.38721701857772,-2.685257061674458]]}},{"type":"Feature","properties":{"nam":"Quebrada Juntas","hyp_desc":"PERENNE","SHAPE_Leng":3692.2731639},"geometry":{"type":"LineString","coordinates":[[-79.39994396969719,-2.662885409768177],[-79.40128106259587,-2.666354004202451],[-79.40186969113765,-2.667491531036952],[-79.40279704716698,-2.668364422831014],[-79.40438058940127,-2.669467191051334],[-79.40496870385566,-2.66968487445369],[-79.40667832547489,-2.669878602486861],[-79.40719625664205,-2.670134531400306],[-79.40779842365524,-2.67099150820658],[-79.40963813864131,-2.674625248895217],[-79.41028506443308,-2.6755007033283],[-79.41188294959726,-2.676604091300847],[-79.41305078562674,-2.677154527504138],[-79.4141181497053,-2.677378065846191],[-79.41782033017654,-2.677926907202497],[-79.41882262405315,-2.678242474814323],[-79.41931407029521,-2.678628347865161],[-79.41975449159236,-2.6791049531452],[-79.42325536705546,-2.683377847756471]]}},{"type":"Feature","properties":{"nam":"Río Miguir","hyp_desc":"PERENNE","SHAPE_Leng":1300.46646571},"geometry":{"type":"LineString","coordinates":[[-79.39189720139639,-2.666522505265471],[-79.3898901789555,-2.669893505348431],[-79.38928661547675,-2.671045276219094],[-79.3888668947249,-2.672322037720293],[-79.38749846181835,-2.677319572348574]]}},{"type":"Feature","properties":{"nam":null,"hyp_desc":"PERENNE","SHAPE_Leng":1019.13427795},"geometry":{"type":"LineString","coordinates":[[-79.39994396969719,-2.662885409768177],[-79.39481113391734,-2.664133248875175],[-79.3937918975926,-2.664459554991987],[-79.39312482116125,-2.664990156280713],[-79.39189720139639,-2.666522505265471]]}},{"type":"Feature","properties":{"nam":"Quebrada de Guachapala","hyp_desc":"INTERMITENTE","SHAPE_Leng":3601.72863217},"geometry":{"type":"LineString","coordinates":[[-79.39189720139639,-2.666522505265471],[-79.38973393157343,-2.664595779057646],[-79.38920268576241,-2.664212259819413],[-79.38862101231928,-2.663935099427265],[-79.38458733930281,-2.662865797148351],[-79.38331046449497,-2.66261343163175],[-79.3826840094213,-2.662629409203753],[-79.38087881502945,-2.663158776195017],[-79.38031290036236,-2.663186101424004],[-79.37977540253839,-2.662938577957226],[-79.37826090914251,-2.661714428959428],[-79.37774774774317,-2.661510482689936],[-79.37739223127319,-2.661570847052045],[-79.37703036581874,-2.66174333028113],[-79.3751886956111,-2.663004896131239],[-79.37441143684424,-2.663382192882294],[-79.37335788969912,-2.663456347942967],[-79.3691895922482,-2.663099118697215],[-79.36810592536314,-2.663106571740742],[-79.36684705041348,-2.663437933304492],[-79.362074855502,-2.665127997584423]]}},{"type":"Feature","properties":{"nam":"Quebrada Tigre Canina","hyp_desc":"PERENNE","SHAPE_Leng":4171.33251529},"geometry":{"type":"LineString","coordinates":[[-79.40904068573711,-2.639798374769743],[-79.41352441588538,-2.652933127658516],[-79.41386668084368,-2.653752242932614],[-79.41421197902382,-2.654289418496422],[-79.4150831019089,-2.65519596706521],[-79.41578547101751,-2.655610360674884],[-79.4166371120063,-2.655781287757051],[-79.41908853426762,-2.656012062885651],[-79.4197217402389,-2.656151840338381],[-79.42010404026296,-2.656324998093608],[-79.42094523921627,-2.656991715307115],[-79.42334221897413,-2.65929056532936],[-79.42394359833686,-2.659921337051827],[-79.42430191813102,-2.660440871386573],[-79.42461991106651,-2.661706049661669],[-79.42566147256959,-2.670208915968913]]}},{"type":"Feature","properties":{"nam":"Río Norcay","hyp_desc":"PERENNE","SHAPE_Leng":1941.10372894},"geometry":{"type":"LineString","coordinates":[[-79.39994396969719,-2.662885409768177],[-79.40008191216691,-2.658249197358077],[-79.40021139853266,-2.657177161494081],[-79.40054788914345,-2.656402936040041],[-79.40201899193627,-2.654251849956772],[-79.40228820129623,-2.653522854694576],[-79.40218097187649,-2.652937269419128],[-79.40109034458474,-2.650744174532872],[-79.40090949870498,-2.649976917810756],[-79.40101332542228,-2.649638811527934],[-79.40133696581053,-2.649153905449426],[-79.40325302212673,-2.64712042783084]]}},{"type":"Feature","properties":{"nam":"Quebrada del Azuay","hyp_desc":"PERENNE","SHAPE_Leng":3853.3136135},"geometry":{"type":"LineString","coordinates":[[-79.40325302212673,-2.64712042783084],[-79.40193865735975,-2.646151011265449],[-79.40113811090336,-2.645745015700395],[-79.40054939409083,-2.645715105249157],[-79.39932882977031,-2.645923285683469],[-79.39877412011779,-2.645834752781032],[-79.39828624074731,-2.645518862286565],[-79.39668565222509,-2.644178443980606],[-79.39612117701839,-2.64393810332224],[-79.3951106927405,-2.643688738089664],[-79.39380465636741,-2.643589898665217],[-79.38372411258244,-2.643741057929204],[-79.38242043968233,-2.643648370498855],[-79.3820322844598,-2.643507762735868],[-79.38150561250903,-2.643171648207266],[-79.37900154897739,-2.641120038004741],[-79.37863431431597,-2.640936936644628],[-79.37801986437486,-2.640806593468983],[-79.37627445635076,-2.640798801927575],[-79.37522773682561,-2.641002875408178],[-79.37428547987712,-2.641515523591934],[-79.37136720840996,-2.643451287646799]]}},{"type":"Feature","properties":{"nam":"Río Norcay","hyp_desc":"PERENNE","SHAPE_Leng":1047.40465111},"geometry":{"type":"LineString","coordinates":[[-79.40325302212673,-2.64712042783084],[-79.40502492926527,-2.645778846203725],[-79.40567837130347,-2.645141362898005],[-79.40904068573711,-2.639798374769743]]}},{"type":"Feature","properties":{"nam":"Quebrada de Monoloma","hyp_desc":"PERENNE","SHAPE_Leng":2728.38828329},"geometry":{"type":"LineString","coordinates":[[-79.43200663275779,-2.64060113825618],[-79.43138486878632,-2.635750574664511],[-79.4313059908715,-2.634651696841785],[-79.4314002633496,-2.63377798000481],[-79.43201249520332,-2.631171427615791],[-79.43214835369498,-2.63029759635498],[-79.43211712008271,-2.629189940023428],[-79.43191355773156,-2.627412686646266],[-79.43158730098101,-2.626123516928727],[-79.43071527303589,-2.624085893359941],[-79.43036226243773,-2.623547999642386],[-79.42947742484614,-2.622734973605347],[-79.42914838498214,-2.622303136119638],[-79.42906732142008,-2.621739141041159],[-79.42925162129636,-2.62024436053462],[-79.42923265504709,-2.619601304023914],[-79.42895777911623,-2.618693385507207],[-79.42827994753699,-2.617123614427452]]}},{"type":"Feature","properties":{"nam":"Río Norcay","hyp_desc":"PERENNE","SHAPE_Leng":3333.88044806},"geometry":{"type":"LineString","coordinates":[[-79.40904068573711,-2.639798374769743],[-79.41863838409772,-2.62757812199914],[-79.41923082825178,-2.626640108484435],[-79.4196549952249,-2.625523331922411],[-79.41992690656555,-2.625026562077516],[-79.42054386102802,-2.624521147651728],[-79.42281623902134,-2.623330685719439],[-79.42350819416129,-2.62283999180348],[-79.4243885664177,-2.621878649484784],[-79.42827994753699,-2.617123614427452]]}},{"type":"Feature","properties":{"nam":"Río de Piedras","hyp_desc":"PERENNE","SHAPE_Leng":3231.62772589},"geometry":{"type":"LineString","coordinates":[[-79.39355430575351,-2.607376835032295],[-79.39328727143975,-2.618319809883155],[-79.39320096758505,-2.619186172773762],[-79.39299352875251,-2.619777162215729],[-79.39217937744701,-2.6207956713137],[-79.38155567759836,-2.63198178390356]]}},{"type":"Feature","properties":{"nam":null,"hyp_desc":"PERENNE","SHAPE_Leng":2601.01964392},"geometry":{"type":"LineString","coordinates":[[-79.39988553600118,-2.597399915386694],[-79.40080024385861,-2.602692142667732],[-79.40092286480186,-2.604011696949704],[-79.40075759126309,-2.605110988074177],[-79.39975745028832,-2.609275964863251],[-79.39965631539943,-2.609934927634924],[-79.39966082329259,-2.610594551866363],[-79.40151840502328,-2.620517243106267]]}},{"type":"Feature","properties":{"nam":"Río Norcay","hyp_desc":"PERENNE","SHAPE_Leng":2957.50157176},"geometry":{"type":"LineString","coordinates":[[-79.42827994753699,-2.617123614427452],[-79.4284318581733,-2.616113429593779],[-79.42874270032208,-2.615352193796578],[-79.42942194417662,-2.614441306290708],[-79.43086946304715,-2.612765701721314],[-79.43135070355541,-2.612348853032471],[-79.431716550689,-2.612155459008148],[-79.43339677637489,-2.611784896641377],[-79.43398759364264,-2.611574045199501],[-79.43461922499495,-2.611054440531885],[-79.43539351148985,-2.610048009933939],[-79.43558294764266,-2.609675295527611],[-79.435757051354,-2.609041259111145],[-79.43634329011262,-2.60340730169596],[-79.43646165838798,-2.602783306701528],[-79.43671234408416,-2.602296824848023],[-79.43737082283809,-2.602026976564217],[-79.43927055481888,-2.601830442714427],[-79.4400898535602,-2.601625215797098],[-79.44103662751384,-2.601115140010683],[-79.4439604328932,-2.599199027646193]]}},{"type":"Feature","properties":{"nam":null,"hyp_desc":"PERENNE","SHAPE_Leng":1025.85495488},"geometry":{"type":"LineString","coordinates":[[-79.39355430575351,-2.607376835032295],[-79.3920522275807,-2.60782288563154],[-79.39135262137094,-2.607881616352894],[-79.39067793221922,-2.607660415756451],[-79.38868925492122,-2.606633781805484],[-79.38800876913048,-2.606395076482026],[-79.38712201409399,-2.606399920807878],[-79.384757333492,-2.606768463663342]]}},{"type":"Feature","properties":{"nam":"Río de Piedras","hyp_desc":"PERENNE","SHAPE_Leng":1379.81418539},"geometry":{"type":"LineString","coordinates":[[-79.39988553600118,-2.597399915386694],[-79.3966472473061,-2.599705948108374],[-79.39615063458899,-2.600115739300111],[-79.39575608453144,-2.600586075203554],[-79.39549907215488,-2.601378759301907],[-79.3952096966021,-2.603576493768215],[-79.39500591588214,-2.604428646156535],[-79.39355430575351,-2.607376835032295]]}},{"type":"Feature","properties":{"nam":"Quebrada Paredones","hyp_desc":"PERENNE","SHAPE_Leng":7862.63240176},"geometry":{"type":"LineString","coordinates":[[-79.52515554828551,-2.702464985063618],[-79.52066682694286,-2.707497919423114],[-79.51985777284538,-2.708546972107716],[-79.51951243774198,-2.709555004983685],[-79.51903493406759,-2.712588524015698],[-79.518734751578,-2.713333309062057],[-79.51810930082796,-2.713847297125129],[-79.51595288623143,-2.71494357931935],[-79.51527158487097,-2.715442509836968],[-79.514921864227,-2.715936808152548],[-79.51389090328851,-2.718003019759314],[-79.51348048903786,-2.718482046897233],[-79.51251829986043,-2.71933878633036],[-79.5121355772414,-2.719832548774053],[-79.51161498683722,-2.721238522704691],[-79.5112357933426,-2.722916031588541],[-79.51127436946206,-2.723513757212163],[-79.51177568453258,-2.724813273452212],[-79.51191012811239,-2.725395002712025],[-79.51187744693635,-2.726217376495171],[-79.51182489128297,-2.726431066219512]]}},{"type":"Feature","properties":{"nam":"Quebrada de Parvaurcu","hyp_desc":"PERENNE","SHAPE_Leng":5851.35833626},"geometry":{"type":"LineString","coordinates":[[-79.46453334362714,-2.693525305133782],[-79.46204644507917,-2.69384164063741],[-79.4614307590535,-2.694009742133031],[-79.46108788652694,-2.694205417087891],[-79.46068259678722,-2.694796592891671],[-79.4604776066053,-2.695524835414198],[-79.46047442475654,-2.695919765893821],[-79.46067709855991,-2.6971209912481],[-79.46056164575032,-2.697628794397619],[-79.45981305127403,-2.698287304062075],[-79.45716505869552,-2.699947035706783],[-79.45639844111798,-2.700710453822268],[-79.45456147467068,-2.704042292288432],[-79.45389375476303,-2.705450380792193],[-79.45370742966499,-2.706298595171643],[-79.45350103460555,-2.708915476655846],[-79.4532431737382,-2.709633088364585],[-79.45258601130965,-2.710058720546657],[-79.45046789250011,-2.71075475787234],[-79.44972501746591,-2.711158873344734],[-79.4492193299393,-2.711831338830831],[-79.44820523119073,-2.713814690749357],[-79.44764999951002,-2.714485298933007],[-79.4412709543475,-2.719070490410322],[-79.44077130411978,-2.719495520254325],[-79.44039079404219,-2.719993805117368],[-79.44003446807417,-2.720986617003863],[-79.43934995115646,-2.723738587829044],[-79.43913372952468,-2.724797140637889],[-79.43909952193337,-2.725438566121966],[-79.43928928454338,-2.726745374901958],[-79.43949575822832,-2.727768066363145]]}},{"type":"Feature","properties":{"nam":"Quebrada Tunga","hyp_desc":"INTERMITENTE","SHAPE_Leng":4319.97315892},"geometry":{"type":"LineString","coordinates":[[-79.46453334362714,-2.693525305133782],[-79.46539859887453,-2.695270402693887],[-79.46557523627688,-2.696083867636877],[-79.46534726283049,-2.69686639357724],[-79.46423807927619,-2.699013034664033],[-79.46392703084442,-2.699810182814729],[-79.46385930591092,-2.700420777555791],[-79.46391643095532,-2.701649832035831],[-79.46380311574862,-2.702218285876774],[-79.46297854480264,-2.703558434612022],[-79.46278509856155,-2.704071958553136],[-79.4628314605165,-2.704632823900765],[-79.46333633235439,-2.706182190786388],[-79.4633753844346,-2.706735023269537],[-79.46315595901142,-2.707243859985872],[-79.46217872634575,-2.708571355888118],[-79.46181810532293,-2.709377569518186],[-79.4584145435864,-2.720296863213519],[-79.45811735843513,-2.720888901816548],[-79.4567988428438,-2.72268535258825],[-79.45650267420243,-2.723255298147539],[-79.45635137417788,-2.724518207300124],[-79.45639511296731,-2.727760641940732]]}},{"type":"Feature","properties":{"nam":"Quebrada San José","hyp_desc":"INTERMITENTE","SHAPE_Leng":4630.24409363},"geometry":{"type":"LineString","coordinates":[[-79.52515554828551,-2.702464985063618],[-79.51719393549973,-2.705077148766907],[-79.51635346423461,-2.705299650112821],[-79.51571755502347,-2.705353681598283],[-79.51486004610038,-2.705237786031229],[-79.51076844891668,-2.704295020226642],[-79.5096910873421,-2.704127289458828],[-79.50884083147727,-2.704189227808084],[-79.50673622511066,-2.704650174945054],[-79.50594497978003,-2.704649680679145],[-79.50523207984263,-2.70425272860129],[-79.50306865954975,-2.702341774180992],[-79.50232403862604,-2.701995991364539],[-79.50125139907539,-2.701995843470487],[-79.49412135380994,-2.702837685472416],[-79.49279120299484,-2.702902308032626],[-79.49150382058934,-2.702679469253456],[-79.48530850782451,-2.701164998049381]]}},{"type":"Feature","properties":{"nam":"Quebrada Hierba Buena","hyp_desc":"PERENNE","SHAPE_Leng":7098.55208929},"geometry":{"type":"LineString","coordinates":[[-79.44743663442839,-2.66252982532782],[-79.44937227998851,-2.666359413062527],[-79.4498491675064,-2.667607423457757],[-79.45064526619392,-2.674303554711251],[-79.45065023392011,-2.675588222925511],[-79.45039365864818,-2.676127033262088],[-79.44996439119514,-2.676597112677786],[-79.44489700659896,-2.6809914541754],[-79.4444311281424,-2.6814504564605],[-79.44407020350889,-2.681960135434249],[-79.44385411093575,-2.682964594965169],[-79.44372348581965,-2.686229836425096],[-79.44359288619664,-2.687306816394702],[-79.44203561537947,-2.692604707888057],[-79.44153153932035,-2.694055598766564],[-79.44095877227426,-2.694985639112245],[-79.43874725920332,-2.697766385677546],[-79.43815790224764,-2.698683529932338],[-79.43783319518822,-2.699706764626197],[-79.43698444646986,-2.703777446426334],[-79.4365888411363,-2.704759250428751],[-79.43575534275028,-2.705756775001008],[-79.43252069763919,-2.709087367941003],[-79.43192994005575,-2.70991618666379],[-79.43187569390328,-2.710479981729837],[-79.4321112676274,-2.711296921443625],[-79.43525379925595,-2.719040468350934]]}},{"type":"Feature","properties":{"nam":"Río Guarumales","hyp_desc":"PERENNE","SHAPE_Leng":7180.34716404},"geometry":{"type":"LineString","coordinates":[[-79.48830302699605,-2.692981705189275],[-79.49052204549047,-2.69262829782141],[-79.49159973465318,-2.692629354967989],[-79.49259256107224,-2.693028172732829],[-79.495109221723,-2.694419103338292],[-79.49590438797331,-2.694683757252885],[-79.49695229521826,-2.694588640561863],[-79.50016690512281,-2.693755073923908],[-79.50123457565601,-2.693553298717404],[-79.50185283079787,-2.69357184083452],[-79.5033935366296,-2.694000750285028],[-79.50396359639542,-2.694008079767485],[-79.50453419944368,-2.693820892586894],[-79.50528713656743,-2.693445119546102],[-79.5066872698724,-2.692523187123769],[-79.50714779422928,-2.691860007890054],[-79.50791618171493,-2.690159643986698],[-79.50830768209393,-2.689728275016636],[-79.50905179466818,-2.689358193509644],[-79.5117544923713,-2.688446578762694],[-79.5124794730532,-2.688015573428742],[-79.51386567635814,-2.68634294457084],[-79.51508676335592,-2.684542911882577],[-79.51530705791488,-2.683740489763504],[-79.51547727320967,-2.681170646524754],[-79.51562932694613,-2.680362765765107],[-79.51605572244227,-2.679685385849169],[-79.51744882764638,-2.678364511771146],[-79.51796151010896,-2.677693869875363],[-79.51830088791883,-2.676881364856764],[-79.51904678003653,-2.674525104148906],[-79.5193993091305,-2.673729836506967],[-79.51979419089812,-2.673256144460937],[-79.52120304047737,-2.672076835129188],[-79.52167359864605,-2.671164453516285],[-79.52188767179672,-2.670904879076023],[-79.52236740262244,-2.670607572620951],[-79.52365740635541,-2.670033429466771],[-79.5240821682106,-2.669690551021803],[-79.5242923245901,-2.669174190663101],[-79.52448413853195,-2.667279739838601],[-79.52469797659629,-2.66646224264918],[-79.52513815650497,-2.665700404882706],[-79.52732696497375,-2.662578519749268],[-79.52759833647359,-2.661991746372631],[-79.52783361388781,-2.660850529165703],[-79.52797363999268,-2.660530103731081],[-79.52838503105676,-2.660174843709909],[-79.53002883311946,-2.659339546641296],[-79.5305207489165,-2.658745314493974],[-79.5305575234558,-2.658678657258648]]}},{"type":"Feature","properties":{"nam":null,"hyp_desc":"PERENNE","SHAPE_Leng":6694.08859741},"geometry":{"type":"LineString","coordinates":[[-79.48306172813629,-2.689268863355457],[-79.48822130831915,-2.686814055845866],[-79.48891154688904,-2.686307422479348],[-79.49026575243657,-2.684945072700275],[-79.49090077970811,-2.684456662719996],[-79.49146139418085,-2.684312077658842],[-79.49337207929311,-2.684466297081821],[-79.49421949481932,-2.684371714571367],[-79.49916673468044,-2.682384890047414],[-79.50054744702284,-2.681678716235837],[-79.50526866269374,-2.678279034092378],[-79.50628690793792,-2.677424945420864],[-79.50707191796666,-2.676370190869165],[-79.51040448542511,-2.671125033134443],[-79.51108002317474,-2.670319732508408],[-79.51160275735712,-2.670057097384567],[-79.51344533787548,-2.669789426892653],[-79.51412115346965,-2.669519085391481],[-79.51441834113132,-2.669066544790123],[-79.51486624200474,-2.667949993128665],[-79.51526414377088,-2.667500739574715],[-79.51618937943088,-2.666945139944233],[-79.51960912075587,-2.665282482360989],[-79.52053563458463,-2.664712695998297],[-79.52182399833879,-2.663136847925836],[-79.52334686112803,-2.662383672165089],[-79.52384121546129,-2.662015151978709],[-79.52496713476815,-2.660209026207083],[-79.52553603339564,-2.6596433555607],[-79.52610968702628,-2.659406642712602],[-79.5281808842907,-2.658807936492085],[-79.52866303284478,-2.658480639339864],[-79.52935174112787,-2.657816312752002],[-79.52973564666874,-2.657607184485276],[-79.53045572479476,-2.657496374512656],[-79.53055685090014,-2.657503953767489]]}},{"type":"Feature","properties":{"nam":"Quebrada de Parvaurcu","hyp_desc":"PERENNE","SHAPE_Leng":7488.39353165},"geometry":{"type":"LineString","coordinates":[[-79.5030738760704,-2.649240896296321],[-79.49751223941675,-2.648877930932033],[-79.49619321277417,-2.648899218048999],[-79.49513506957948,-2.649189904558898],[-79.49158530233616,-2.650520975750033],[-79.49081238238499,-2.650910753047978],[-79.49034890232711,-2.651330902413298],[-79.48834433465662,-2.654459738969929],[-79.48779841064277,-2.655562536838938],[-79.48776532459648,-2.655913032797793],[-79.48788305258329,-2.656244471460685],[-79.48870761271911,-2.657372512731473],[-79.48888307343587,-2.657904625810585],[-79.48876571608565,-2.658697193001933],[-79.48793785950272,-2.661404514383508],[-79.4878597290751,-2.663692108433674],[-79.4874973167515,-2.66438854885599],[-79.48636435612389,-2.665613469187639],[-79.48608159160796,-2.66607692248445],[-79.48609609257866,-2.666549005745237],[-79.48653299635247,-2.667501240198683],[-79.48652637296873,-2.66795191932916],[-79.48619748694772,-2.668379536534823],[-79.48511572919442,-2.669385841686841],[-79.4847782136764,-2.669923879316159],[-79.48441386946787,-2.67095668754436],[-79.483459801059,-2.674390948725289],[-79.48312820006598,-2.675174142421321],[-79.48271919636763,-2.675633382497518],[-79.48219064111662,-2.675997019330187],[-79.47597284238881,-2.679412611501415],[-79.47491570259093,-2.680162073850781],[-79.47431473094066,-2.681071588054393],[-79.47372047234845,-2.682494834885652],[-79.4736555985402,-2.683104946172931],[-79.47393891819185,-2.684819049684463],[-79.473846071233,-2.685166489245036],[-79.47362647950425,-2.685495342703759],[-79.47284950359095,-2.686255393393748],[-79.46453334362714,-2.693525305133782]]}},{"type":"Feature","properties":{"nam":"Quebrada Pauji","hyp_desc":"PERENNE","SHAPE_Leng":2273.58006218},"geometry":{"type":"LineString","coordinates":[[-79.44743663442839,-2.66252982532782],[-79.44025537494669,-2.672263023631241],[-79.43939683129344,-2.673254595750215],[-79.43885725646383,-2.673585989927048],[-79.43824357458118,-2.673807079991057],[-79.43263821765686,-2.675297919763923]]}},{"type":"Feature","properties":{"nam":"Estero Ciriaco","hyp_desc":"PERENNE","SHAPE_Leng":2884.91748672},"geometry":{"type":"LineString","coordinates":[[-79.5030738760704,-2.649240896296321],[-79.50174751502985,-2.65072459544243],[-79.50130519493482,-2.651445796986935],[-79.50123224530972,-2.651827716602834],[-79.50129707153216,-2.653057708541789],[-79.50076210467151,-2.655002011969434],[-79.5008592483413,-2.65630098112163],[-79.50176366773326,-2.662007041303586],[-79.50179709838243,-2.662645915360637],[-79.5016728727084,-2.663245126844352],[-79.50094404189863,-2.664326318598933],[-79.49463610698183,-2.671989452110525]]}},{"type":"Feature","properties":{"nam":"Río Chacayacu","hyp_desc":"PERENNE","SHAPE_Leng":15006.7324171},"geometry":{"type":"LineString","coordinates":[[-79.52515554828551,-2.702464985063618],[-79.52876593078292,-2.699623037006273],[-79.52968392674829,-2.698708242007204],[-79.53037646615812,-2.697571460373236],[-79.53057957597106,-2.69719616342931]]}},{"type":"Feature","properties":{"nam":"Río Piedra de Afilar","hyp_desc":"PERENNE","SHAPE_Leng":8823.00338653},"geometry":{"type":"LineString","coordinates":[[-79.52957145019164,-2.683048556851006],[-79.530571317142,-2.682771074267573]]}},{"type":"Feature","properties":{"nam":"Estero Ciriaco","hyp_desc":"PERENNE","SHAPE_Leng":7911.97570658},"geometry":{"type":"LineString","coordinates":[[-79.5030738760704,-2.649240896296321],[-79.50298075476756,-2.646832043864034],[-79.50304603389684,-2.645787006433334],[-79.50325828325624,-2.64523804644388],[-79.50398948147087,-2.644260686480274],[-79.50421907820315,-2.643677534281842],[-79.50516037148486,-2.638256254548967],[-79.50516272900248,-2.637169972957021],[-79.5046753550087,-2.634575913844373],[-79.50463429319886,-2.633746050747874],[-79.50482089787602,-2.633189327958122],[-79.50560226954771,-2.631995650362576],[-79.50576514165905,-2.631443890743192],[-79.50566305114165,-2.630625889223346],[-79.50511153700931,-2.62850168364445],[-79.50511013304627,-2.627655298574267],[-79.50582138727614,-2.625140183892654],[-79.50605968717188,-2.624540451473254],[-79.50639313307362,-2.624004464259413],[-79.50752528183426,-2.622993959592551],[-79.5086216831824,-2.622295655884325],[-79.50988222308636,-2.621958290815983],[-79.51228544726085,-2.621587181577636],[-79.51404443676518,-2.621474135292755],[-79.51512485837598,-2.621555181888922],[-79.51887325807144,-2.622902353475437],[-79.51992287269536,-2.623157420102139],[-79.52079364272446,-2.623101422338845],[-79.52211673997267,-2.62284657021359],[-79.52365161823857,-2.622507968555256],[-79.52445100348214,-2.622215667192452],[-79.52476892609232,-2.621970936606865],[-79.52513709545771,-2.621473849450983],[-79.52634702769637,-2.619136454121215],[-79.52694332778233,-2.618224307222448],[-79.53053241717264,-2.614827359326839]]}},{"type":"Feature","properties":{"nam":null,"hyp_desc":"PERENNE","SHAPE_Leng":6545.2616773},"geometry":{"type":"LineString","coordinates":[[-79.53053842801604,-2.625326057336827],[-79.5300176352265,-2.62545778993646],[-79.52970492533235,-2.625656052084491],[-79.52903099832548,-2.626362855381508],[-79.52794491758469,-2.627006586165031],[-79.52773466952553,-2.627274199778352],[-79.52761272962894,-2.627627105501783],[-79.5273955642854,-2.629069573621893],[-79.52720175089803,-2.629668931349673],[-79.5256067281289,-2.632029407376343],[-79.52474061292688,-2.634416783803415],[-79.52447664585252,-2.634686013091466],[-79.52412540529068,-2.634872542942182],[-79.52247935585953,-2.635381820088917],[-79.52180241768092,-2.635770043727102],[-79.52153952413008,-2.636252204775786],[-79.52116190670779,-2.637617559601691],[-79.52086924697338,-2.638138858176524],[-79.52022604406505,-2.638706466380303],[-79.51798836814969,-2.640206960584988],[-79.51730233537813,-2.640770271079905],[-79.51388486892088,-2.644832878121313]]}},{"type":"Feature","properties":{"nam":"Río Platanal","hyp_desc":"PERENNE","SHAPE_Leng":8562.2999098},"geometry":{"type":"LineString","coordinates":[[-79.47052367267244,-2.594455885188816],[-79.47260886291669,-2.600348103368768],[-79.47289554444473,-2.601586036359245],[-79.47283648478297,-2.601971430170197],[-79.47256823646235,-2.602516593901829],[-79.47089811479299,-2.604805156472898],[-79.47042167360975,-2.605757284206626],[-79.47024356873858,-2.606848562447274],[-79.46984440540625,-2.611793928260897],[-79.46964913298193,-2.612884796514568],[-79.46909276286156,-2.614075620845255],[-79.46404105796665,-2.622961452998569],[-79.46171242816888,-2.629241760547304],[-79.46136273307953,-2.62972959038441],[-79.46046291738254,-2.630296502673797],[-79.4598870603043,-2.630900382920408],[-79.45792837528828,-2.63386560873324],[-79.45727422166514,-2.635007194683507],[-79.45707443458961,-2.635825941874188],[-79.45721463546279,-2.638456019933806],[-79.45708600416478,-2.639247779151334],[-79.4567297504941,-2.639721192605457],[-79.45502810219615,-2.641068128932745],[-79.4544885350572,-2.641684463729318],[-79.45427457159929,-2.642488008180725],[-79.45413747161714,-2.644489379541168],[-79.45402158998935,-2.645133394003925],[-79.45376653421249,-2.64570783444401],[-79.45310387505494,-2.646752409224042],[-79.45298610729722,-2.64710409846005],[-79.45299879985603,-2.647450786392241],[-79.45320736031137,-2.647935640048148],[-79.45362059373034,-2.648294234770182],[-79.45442053759433,-2.648726194986379],[-79.45461902530302,-2.649066948247637],[-79.45446318037412,-2.649544462776169],[-79.45370654142805,-2.651051948889987],[-79.45346679997503,-2.652803923298146],[-79.45316749694354,-2.653358398708826],[-79.45276085678869,-2.653874769344162],[-79.44899323151847,-2.658039566641549],[-79.44817070441238,-2.659077856566578],[-79.44780437069822,-2.660091659103007],[-79.44743663442839,-2.66252982532782]]}},{"type":"Feature","properties":{"nam":"Río Tixay","hyp_desc":"PERENNE","SHAPE_Leng":11807.9254829},"geometry":{"type":"LineString","coordinates":[[-79.52678088549466,-2.588177479814826],[-79.52290171261808,-2.589704598165723],[-79.52233027206898,-2.589993217029146],[-79.52184163337431,-2.590384894361074],[-79.52110912428638,-2.591480498157134],[-79.51648559049418,-2.599734325541715],[-79.51612916087902,-2.600290522620978],[-79.5157034836572,-2.600758162883417],[-79.5147499243936,-2.601210140622233],[-79.51068070522781,-2.602356556071315],[-79.50965437274745,-2.602721697512226],[-79.50897489972081,-2.603209798046452],[-79.50787102411908,-2.604538835997741],[-79.50737772480876,-2.604931331038441],[-79.50657597674179,-2.605266836074957],[-79.5046614581948,-2.605860130766788],[-79.50408600184484,-2.606132563667049],[-79.50352393902058,-2.606721241267514],[-79.5026818561283,-2.60823447286638],[-79.50216819724169,-2.608924639209131],[-79.50149240107359,-2.609495156439032],[-79.49948722008827,-2.61093381824881],[-79.49884157395682,-2.611527387714057],[-79.49848173858335,-2.612057637296653],[-79.49798614151594,-2.613030041448284],[-79.49648426776646,-2.61621396565149],[-79.49617959357884,-2.617022178276851],[-79.49607234603337,-2.618083612883071],[-79.49633825139522,-2.622028891340097],[-79.496050295657,-2.623030151071818],[-79.49568784997884,-2.623761320895012],[-79.49524455460747,-2.624276798179875],[-79.49412739679906,-2.625321554845836],[-79.49276317765145,-2.62640746297431],[-79.48656344157025,-2.629417526406334],[-79.48541505699039,-2.630070597201348],[-79.48460509955139,-2.630804635813236],[-79.48111694005928,-2.63451426335462],[-79.48057947483915,-2.635196548010492],[-79.48022469141699,-2.635986419478263],[-79.47878637463248,-2.6421045084025],[-79.47843269084147,-2.643128688780505],[-79.4778910078151,-2.643760832626407],[-79.4757258565466,-2.645283323514623],[-79.47508282229674,-2.6458739672962],[-79.47247039106108,-2.649137292034167],[-79.47177218143297,-2.650195013261063],[-79.47165394368425,-2.650753644413851],[-79.47212092793576,-2.652499154705436],[-79.47215095820961,-2.652851907501522],[-79.4720443420169,-2.653163280319437],[-79.47128174372764,-2.653783867329866],[-79.46716697625877,-2.65606702456925],[-79.46641677000494,-2.656677302482619],[-79.46633255077273,-2.657130179490085],[-79.46660548922968,-2.658205771266477],[-79.46663000429236,-2.659068323060869],[-79.46586727194557,-2.664821767619247]]}},{"type":"Feature","properties":{"nam":"Río de Cañas","hyp_desc":"PERENNE","SHAPE_Leng":5549.19908466},"geometry":{"type":"LineString","coordinates":[[-79.44843987668528,-2.631972383940909],[-79.45169630487304,-2.627159466919974],[-79.45225229311575,-2.626215112642733],[-79.45246151113157,-2.625411736108447],[-79.45235910246024,-2.623062790710402],[-79.45243493206131,-2.622238775481146],[-79.45277298547194,-2.621488548913254],[-79.4537738630155,-2.619861172564311],[-79.45398485464011,-2.619277775912561],[-79.45409976497336,-2.617569844172198],[-79.45410594582023,-2.615178029202386],[-79.45403361039172,-2.614329135223245],[-79.45366554031654,-2.61333211997986],[-79.45229985327877,-2.610848774843582],[-79.45211395109773,-2.610058032954814],[-79.45230410053091,-2.609017011171133],[-79.45330542687937,-2.605845821621829],[-79.45430464173147,-2.605097114621301],[-79.4549901193338,-2.60440292815088],[-79.45575598218488,-2.602670012860337],[-79.45624569670497,-2.601998533990755],[-79.45993242265129,-2.599233378539878],[-79.46048319513444,-2.598908142266714],[-79.4610672801736,-2.598720054852342],[-79.46273982345333,-2.598728554589001],[-79.46333677799338,-2.598644673270468],[-79.46369471288205,-2.598481382701626],[-79.46487036556248,-2.597637342625024],[-79.4654258874942,-2.597344527479029],[-79.46844105072499,-2.596648560170575],[-79.46880670376099,-2.596446992227549],[-79.46929350852234,-2.595998578428303],[-79.47052367267244,-2.594455885188816]]}},{"type":"Feature","properties":{"nam":"Río Secadal","hyp_desc":"PERENNE","SHAPE_Leng":10269.4263264},"geometry":{"type":"LineString","coordinates":[[-79.46639881913235,-2.632618202925953],[-79.46622953861008,-2.630178601530838],[-79.46626375037633,-2.62908536344611],[-79.46661994310034,-2.627824753479517],[-79.46750208113762,-2.625573969506537],[-79.46814831319098,-2.624709181328893],[-79.47050814150694,-2.622649649371371],[-79.47128533279334,-2.621860017493811],[-79.47176752622842,-2.621118188620069],[-79.4728199599815,-2.619143386887652],[-79.47331049937148,-2.618440594531399],[-79.47362553273355,-2.61817956253679],[-79.47419060574519,-2.617908816600434],[-79.47797407429397,-2.61676501729642],[-79.47856645250575,-2.616525011315396],[-79.47907241930342,-2.61617124363822],[-79.47982599813488,-2.615121129447797],[-79.48399866461727,-2.608031894843424],[-79.48436403498465,-2.607496266967689],[-79.48479815511006,-2.607060730032495],[-79.48536319426928,-2.606805148579516],[-79.48599791736284,-2.606650894480757],[-79.49129722470903,-2.605732681606735],[-79.49184883599908,-2.605544573380402],[-79.49209496865791,-2.605338388211857],[-79.4921832613509,-2.604850156332997],[-79.49192294133643,-2.602965245891776],[-79.49203049205406,-2.602349486162232],[-79.49247501960151,-2.601364811907225],[-79.49448690488578,-2.597686363370112],[-79.49488199939385,-2.596688621660863],[-79.4949509794957,-2.595621057561008],[-79.49480977213639,-2.592772969877778],[-79.49490449001881,-2.591936957318294],[-79.49516476913213,-2.591349750216416],[-79.49577253750729,-2.590421246438195],[-79.49785027612968,-2.587485300211974],[-79.49858290618303,-2.586677456512193],[-79.49953001476553,-2.586159175871451],[-79.50139016045561,-2.585470624583087],[-79.50221282336126,-2.585336613146288],[-79.5036105222251,-2.585532817420804],[-79.50416238470088,-2.585323553797392],[-79.50541596200446,-2.584477147400274],[-79.50598210395378,-2.584228444785654],[-79.50759744532436,-2.584232041790472],[-79.50796179429865,-2.584127004947579],[-79.50916749013636,-2.583445717713959],[-79.50998872604214,-2.583309068270245],[-79.51106453319619,-2.583294510062632],[-79.51212461944355,-2.583479445519393],[-79.51502417342435,-2.584435890989977],[-79.51585058896461,-2.584640441917008],[-79.51646253987273,-2.584656828815635],[-79.51784593110449,-2.584325027038477],[-79.51841752721667,-2.584287855265444],[-79.51895719386225,-2.584466838627183],[-79.520027922777,-2.585032770313969],[-79.52062011875816,-2.585202082475723],[-79.52362729056124,-2.585328314248423],[-79.52443597229758,-2.585453123251576],[-79.5247859186848,-2.585625698778141],[-79.52523292438038,-2.58604262692651],[-79.52678088549466,-2.588177479814826]]}},{"type":"Feature","properties":{"nam":null,"hyp_desc":"PERENNE","SHAPE_Leng":3485.06599624},"geometry":{"type":"LineString","coordinates":[[-79.45459844506527,-2.574947619047891],[-79.45044043118945,-2.578149815222369],[-79.4494519243506,-2.579001603553475],[-79.44676516540112,-2.582491791539291],[-79.4461076655911,-2.5835511566165],[-79.44605949141683,-2.584077995087054],[-79.4463055867915,-2.584603140796717],[-79.4497137378798,-2.588958371725237],[-79.45001609605193,-2.589483515892547],[-79.45008634053202,-2.590011020948852],[-79.44921023417103,-2.591827702125575],[-79.44884334284812,-2.594078686305928],[-79.44862086379067,-2.594635221806636],[-79.44778414473225,-2.595593327213024],[-79.4439604328932,-2.599199027646193]]}},{"type":"Feature","properties":{"nam":"Río de Cañas","hyp_desc":"PERENNE","SHAPE_Leng":10001.067397},"geometry":{"type":"LineString","coordinates":[[-79.47052367267244,-2.594455885188816],[-79.47132010684962,-2.592961385489835],[-79.47193330680746,-2.592274633255088],[-79.47289982507006,-2.591761848600024],[-79.47784880476962,-2.589640622253946],[-79.47878080237916,-2.589083246523002],[-79.4793311216846,-2.588433194793073],[-79.48072965635996,-2.586183376993438],[-79.48125365112816,-2.585483721543704],[-79.482251534015,-2.584622783728599],[-79.48352349451325,-2.583788218983013],[-79.48391087212647,-2.583645533464167],[-79.48451630227937,-2.583599923958268],[-79.48770242877268,-2.584030535282458],[-79.48875186690758,-2.583938760246837],[-79.49268257862286,-2.582428071195009],[-79.49424746112436,-2.582293723610836],[-79.49460656497718,-2.582189958990775],[-79.49564628691019,-2.581661607836257],[-79.49719547409399,-2.581528255546979],[-79.49809500119454,-2.581004236052602],[-79.50000257774242,-2.579492936685156],[-79.50333055895118,-2.578598035331945],[-79.50437095910276,-2.578573435989904],[-79.50727604412232,-2.579307455748549],[-79.50786688816677,-2.579381262775078],[-79.50822770234508,-2.579330207541139],[-79.50870228603178,-2.579017046568659],[-79.51009843341119,-2.577369630563215],[-79.51075131270098,-2.576832561335619],[-79.51175430776073,-2.576430009081311],[-79.51724292892902,-2.574755687868666],[-79.51796670953583,-2.574301165677261],[-79.51937429582709,-2.572919953195592],[-79.51988678059328,-2.572536375687418],[-79.52166613027448,-2.571916545075934],[-79.52221446099158,-2.571634720549413],[-79.52342769608886,-2.570477956063703],[-79.52429209303583,-2.569327867378538],[-79.52444471447453,-2.568740934529445],[-79.52453410812505,-2.567006959663169],[-79.52510546749083,-2.565312085737879],[-79.52760760466333,-2.559026040493392],[-79.52815884339782,-2.558064097084815],[-79.52934799698102,-2.556460102522524],[-79.53042971661742,-2.555340541736689],[-79.53049832620137,-2.555283167608684]]}},{"type":"Feature","properties":{"nam":"Río Norcay","hyp_desc":"PERENNE","SHAPE_Leng":10581.877629},"geometry":{"type":"LineString","coordinates":[[-79.4439604328932,-2.599199027646193],[-79.45543422505722,-2.59381127529469],[-79.45659952777379,-2.593187999099416],[-79.45740818310307,-2.592463803581331],[-79.46041733424332,-2.588920920115856],[-79.46136343837524,-2.588011211022328],[-79.4722612662808,-2.581876680236234],[-79.47993782849124,-2.575524580405676],[-79.48037651652592,-2.575044139756538],[-79.48081967469102,-2.574293207950122],[-79.48306760076198,-2.569201231157745],[-79.48370075246272,-2.568050701403249],[-79.48463417223512,-2.567129150696251],[-79.48823619451893,-2.564159087444593],[-79.48893542295014,-2.563362279459627],[-79.4891469153384,-2.562800117033762],[-79.48952286674077,-2.560729912030236],[-79.48979151219633,-2.55991462146771],[-79.49296767637755,-2.554021687014973],[-79.49368316099326,-2.552927420691523],[-79.49435033735345,-2.552418835642154],[-79.49695421575208,-2.55124978719273],[-79.4978803305707,-2.550679939568711],[-79.49864089988064,-2.549872942423265],[-79.49911447493326,-2.549163384657219],[-79.49926057431534,-2.548617599917244],[-79.49921560875471,-2.547629535751575],[-79.4993491521952,-2.547388292720319],[-79.50053361538588,-2.546839522876705],[-79.50107236311925,-2.546500546983306],[-79.50327529052787,-2.544270323096413],[-79.503913553551,-2.543734968338867],[-79.50425713326032,-2.54359482982826],[-79.50461813273442,-2.543603393769518],[-79.50637674328696,-2.544253433558235],[-79.50677151609545,-2.544342769881079],[-79.50716777800818,-2.544327506110291],[-79.50834128493703,-2.543801312861175],[-79.50887792171173,-2.543444650830836],[-79.50927642605318,-2.543046733570753],[-79.50933625784668,-2.542571036415638],[-79.50911936583142,-2.542031562118129],[-79.50735993559779,-2.53918351097706]]}},{"type":"Feature","properties":{"nam":null,"hyp_desc":"PERENNE","SHAPE_Leng":7727.97681997},"geometry":{"type":"LineString","coordinates":[[-79.47290355665474,-2.58511127705126],[-79.47792035776567,-2.580873967746587],[-79.4786883157831,-2.580505683949631],[-79.48100945191817,-2.579940086693374],[-79.4813833381498,-2.579778401984449],[-79.48169779545587,-2.579534966325349],[-79.48227492156094,-2.578643428864475],[-79.48441026503315,-2.574197452865815],[-79.48504725838885,-2.573026933475497],[-79.48592877435125,-2.572039268010618],[-79.48778290142474,-2.570445130687758],[-79.48835393920426,-2.570142743318412],[-79.4889870192545,-2.56996439602386],[-79.49697307159589,-2.568638326373625],[-79.49759308094819,-2.568480301780907],[-79.4980972953585,-2.568201097594142],[-79.49830613498509,-2.567903622572432],[-79.49882460473758,-2.566620776621725],[-79.49905987219181,-2.566327924959412],[-79.49977748549352,-2.565741861498432],[-79.4999469842801,-2.565445843370049],[-79.50002817744948,-2.563673781708614],[-79.50012188256541,-2.563308140005933],[-79.50031528861611,-2.563010364444465],[-79.50072830033146,-2.562655920569276],[-79.50120472050966,-2.562439800752586],[-79.5015441090615,-2.562427557341244],[-79.5023136937379,-2.56262730531358],[-79.50248165838332,-2.562527562587144],[-79.5026765155563,-2.561145003955999],[-79.50282902030436,-2.560839668348878],[-79.50335600819525,-2.560235765610118],[-79.50347487262589,-2.559943259043121],[-79.50342452619519,-2.558661481598364],[-79.50351663710696,-2.558182261025142],[-79.5037508366663,-2.5579428966413],[-79.50408615080302,-2.557760653459345],[-79.50586186994609,-2.557129325436583],[-79.50625244835163,-2.556887452614224],[-79.50630220706714,-2.556790197753523],[-79.5062435949733,-2.556567291928631],[-79.50565534728153,-2.555734936526259],[-79.50560260835266,-2.555211850319307],[-79.50578109532529,-2.554629410741915],[-79.50624810075759,-2.553627665224348],[-79.50704982118977,-2.552329190106929],[-79.5077459533427,-2.551863830203682],[-79.51024014377695,-2.55093166847256],[-79.51073419037398,-2.550556328586011],[-79.51158001002494,-2.549674879586487],[-79.51204549325143,-2.549354730404343],[-79.51346027271083,-2.54917837435382],[-79.51373732983369,-2.549059934483408],[-79.51393721200306,-2.548791704604483],[-79.51406250265617,-2.548425459686201],[-79.51448787822271,-2.546038398671054],[-79.51463884120727,-2.545674955185493],[-79.51488608336592,-2.545410610655021],[-79.51583691227616,-2.54508951472285],[-79.51936404070872,-2.544547659131134]]}},{"type":"Feature","properties":{"nam":"Río de Piedras","hyp_desc":"PERENNE","SHAPE_Leng":8128.75866614},"geometry":{"type":"LineString","coordinates":[[-79.43145125664365,-2.559378851909933],[-79.43165018610719,-2.558902105578715],[-79.43168811225436,-2.558436443294066],[-79.43141164491182,-2.556937689776175],[-79.4314884054454,-2.556592043952789],[-79.43169898504941,-2.556261251281333],[-79.43230325042269,-2.55566123223318],[-79.43284343774471,-2.555298869450073],[-79.43462059495505,-2.554607536692142],[-79.43507440258834,-2.554177046630067],[-79.43603571944335,-2.552995753452096],[-79.43673330566145,-2.552463659720773],[-79.43867868054672,-2.551410528343406],[-79.43927736962715,-2.551253326568751],[-79.44041810147546,-2.55117143520243],[-79.44094277895063,-2.550993360551571],[-79.44263920291648,-2.549508308231177],[-79.44391876905513,-2.549219832371915],[-79.44458382649249,-2.548060899833777],[-79.44541786336339,-2.547411504141549],[-79.44660830165236,-2.546851921954036],[-79.44820187731456,-2.546524155797564],[-79.44850453029125,-2.546140566347455],[-79.44873021309735,-2.545034949743377],[-79.44892743035204,-2.544671631591085],[-79.44930826294618,-2.544671771853365],[-79.45053791240818,-2.545131440082163],[-79.45115552652429,-2.545216395778597],[-79.45312796114935,-2.54501673530422],[-79.45462724445682,-2.54468826081061],[-79.45632927232403,-2.543748295329153],[-79.45828156723445,-2.54240770822042],[-79.45864838923912,-2.541924265448793],[-79.45920483415662,-2.540157173387244],[-79.45948509126103,-2.539767448763138],[-79.45994691920231,-2.539698722642299],[-79.46214015842047,-2.540227634829069],[-79.46292943243385,-2.54021016399727],[-79.46387115517757,-2.539757792175175],[-79.46735849548004,-2.537495305139239],[-79.46848713621601,-2.536857041528891],[-79.46931504319758,-2.536606239082695],[-79.47126388343122,-2.536269234591686],[-79.47186317364671,-2.536060955094604],[-79.47286416981572,-2.535246472536494],[-79.47887143413354,-2.528928904385028],[-79.47984610864181,-2.528067382469704],[-79.48033909554474,-2.527885684745625],[-79.48095421655474,-2.527958195732495],[-79.48139842533381,-2.528340729250925],[-79.48248932713634,-2.529694842861264],[-79.48298967555979,-2.52996933825628],[-79.48350876962299,-2.530089838805879],[-79.48381772931961,-2.530060005037101],[-79.48446344619117,-2.529681714006333],[-79.48546234076402,-2.530003283786716],[-79.48599219606662,-2.529945319709699],[-79.48851150257664,-2.528791705714668]]}},{"type":"Feature","properties":{"nam":"Estero Joaquinilla","hyp_desc":"PERENNE","SHAPE_Leng":3457.46747772},"geometry":{"type":"LineString","coordinates":[[-79.50735993559779,-2.53918351097706],[-79.50684496340503,-2.539030144414592],[-79.50635614140329,-2.538994308430201],[-79.50508999384476,-2.539276317125568],[-79.5047369230013,-2.539248392712383],[-79.50419808044376,-2.53899723137996],[-79.50276223025757,-2.53805342455906],[-79.50203808370135,-2.537801521674566],[-79.50167291297011,-2.537860030904609],[-79.50039557941649,-2.53834613124601],[-79.50005466606765,-2.538334206153677],[-79.49923461817886,-2.538008491220673],[-79.49868459511325,-2.537897897539782],[-79.49769235429116,-2.537958612751853],[-79.49691127258433,-2.53814392369155],[-79.4963549849143,-2.538430385535539],[-79.4958318225171,-2.538825638143856],[-79.49065850609408,-2.543369216938252],[-79.48961775597951,-2.544162954189509],[-79.48883765335873,-2.544469830314864],[-79.48609702465632,-2.544995297824644],[-79.48527896142463,-2.545253538376081],[-79.4842931782421,-2.54577093544416],[-79.4800513304577,-2.548304916169212]]}},{"type":"Feature","properties":{"nam":"Río San Francisco","hyp_desc":"PERENNE","SHAPE_Leng":2363.57489867},"geometry":{"type":"LineString","coordinates":[[-79.53051810632044,-2.589831646542861],[-79.52678088549466,-2.588177479814826]]}},{"type":"Feature","properties":{"nam":"Río Cañar","hyp_desc":"PERENNE","SHAPE_Leng":7651.0459246},"geometry":{"type":"LineString","coordinates":[[-79.51936404070872,-2.544547659131134],[-79.52146538621668,-2.54512485959],[-79.52181719938706,-2.545139880383636],[-79.52208528814566,-2.545042131201031],[-79.52224373529872,-2.544777605107059],[-79.52232633486283,-2.544407056036602],[-79.5224814158429,-2.542409717178646],[-79.52266273729494,-2.541579249681156],[-79.52287569408882,-2.541248643503877],[-79.52318530223813,-2.540994252805899],[-79.52394131572092,-2.54070449503419],[-79.52466228536845,-2.54078767621076],[-79.52527989793244,-2.541134544825874],[-79.5255085115457,-2.541455749091696],[-79.52611309303416,-2.542814331877567],[-79.52653461084999,-2.543264828388498],[-79.52706792279447,-2.543563159019723],[-79.52742012096851,-2.543665749283607],[-79.52772418081167,-2.543636182838335],[-79.52784088512354,-2.543551698834849],[-79.5281703067629,-2.542909717404435],[-79.5287623479344,-2.540796921539443],[-79.5290989274246,-2.540039893168546],[-79.52952895241079,-2.539637507376481],[-79.53048912539442,-2.539212794950761]]}},{"type":"Feature","properties":{"nam":"Río Cañar","hyp_desc":"PERENNE","SHAPE_Leng":1413.99447524},"geometry":{"type":"LineString","coordinates":[[-79.51647243183166,-2.535338968079768],[-79.51771160015251,-2.535447081271883],[-79.51839770671866,-2.535770082533728],[-79.52079818044098,-2.538405885299285],[-79.52120161506402,-2.538927071368195],[-79.52149278129762,-2.539482049232147],[-79.52156785585082,-2.540094462875718],[-79.52141785465864,-2.540909095381747],[-79.52108595529832,-2.541415127619751],[-79.51965532213171,-2.542690359236761],[-79.51940453909343,-2.543361610284775],[-79.51936404070872,-2.544547659131134]]}},{"type":"Feature","properties":{"nam":"Estero Seco","hyp_desc":"PERENNE","SHAPE_Leng":5233.95799357},"geometry":{"type":"LineString","coordinates":[[-79.53040970978898,-2.49972444504253],[-79.53031925395844,-2.49968324594259],[-79.5287752961589,-2.498615377596181]]}},{"type":"Feature","properties":{"nam":null,"hyp_desc":"PERENNE","SHAPE_Leng":1186.17792087},"geometry":{"type":"LineString","coordinates":[[-79.34582563316006,-2.637551286794587],[-79.34603088145298,-2.639172620936661],[-79.34624394913943,-2.640058736568271],[-79.34671426990296,-2.640979028493912],[-79.34794154859678,-2.642928414485136],[-79.3484451456092,-2.643584315925513],[-79.34890187682863,-2.64400758052339],[-79.35162003105503,-2.645997564427224]]}},{"type":"Feature","properties":{"nam":"Río Putucay","hyp_desc":"PERENNE","SHAPE_Leng":1382.75349943},"geometry":{"type":"LineString","coordinates":[[-79.34528922118027,-2.625218709463229],[-79.34475707710232,-2.626783076657249],[-79.34464804397835,-2.627727659987786],[-79.34582563316006,-2.637551286794587]]}},{"type":"Feature","properties":{"nam":null,"hyp_desc":"PERENNE","SHAPE_Leng":1592.61755712},"geometry":{"type":"LineString","coordinates":[[-79.34528922118027,-2.625218709463229],[-79.34037562874767,-2.626351293066537],[-79.33912410939311,-2.626722474480467],[-79.33795260069351,-2.627335420046002],[-79.33292257341812,-2.630359458648453]]}},{"type":"Feature","properties":{"nam":"Río Putucay","hyp_desc":"PERENNE","SHAPE_Leng":3349.29537645},"geometry":{"type":"LineString","coordinates":[[-79.3604288938888,-2.599866115651087],[-79.35977718920068,-2.602171206554481],[-79.35935634191216,-2.603165703324961],[-79.35591828023502,-2.607897423953647],[-79.35533615876291,-2.608838197224518],[-79.3551358261748,-2.609430055153116],[-79.35488900779534,-2.610854797432773],[-79.35470151853957,-2.6114205536381],[-79.35421723670947,-2.612065136239804],[-79.35286502366998,-2.613391149576274],[-79.35238034467783,-2.614090587862885],[-79.35023139665088,-2.619500334729157],[-79.3498551921645,-2.620291328013711],[-79.34931579783138,-2.620915175937077],[-79.34752357894537,-2.622029421015551],[-79.34688151013984,-2.622565433380011],[-79.34637732691942,-2.623274607597025],[-79.34528922118027,-2.625218709463229]]}},{"type":"Feature","properties":{"nam":"Quebrada Río Blanco","hyp_desc":"PERENNE","SHAPE_Leng":3723.66155765},"geometry":{"type":"LineString","coordinates":[[-79.37589203471529,-2.621012689127708],[-79.37463120757364,-2.622411168691464],[-79.37392731875876,-2.622941742384801],[-79.37227724921634,-2.623571725401948],[-79.37102809768949,-2.623835039620309],[-79.37044983804462,-2.623710562496056],[-79.36953844728775,-2.623190573780868],[-79.36704396954981,-2.621456283816966],[-79.36629056434167,-2.620690938045688],[-79.36375153105169,-2.616458881533531],[-79.3632085226857,-2.615247867110129],[-79.3629701031852,-2.613925196244928],[-79.36138554844858,-2.601826468920128],[-79.36108892749958,-2.600802159713175],[-79.36084558233846,-2.600359320521819],[-79.3604288938888,-2.599866115651087]]}},{"type":"Feature","properties":{"nam":null,"hyp_desc":"PERENNE","SHAPE_Leng":2910.09951127},"geometry":{"type":"LineString","coordinates":[[-79.36108079906973,-2.594944250803991],[-79.35290864247949,-2.60078221583412],[-79.3517045797006,-2.601272255625877],[-79.34710486236195,-2.602650744768728],[-79.34587777161842,-2.60308819694819],[-79.34470345076852,-2.603734223032004],[-79.33839305006492,-2.607621179231263]]}},{"type":"Feature","properties":{"nam":"Río Putucay","hyp_desc":"PERENNE","SHAPE_Leng":549.056142444},"geometry":{"type":"LineString","coordinates":[[-79.3604288938888,-2.599866115651087],[-79.36108079906973,-2.594944250803991]]}},{"type":"Feature","properties":{"nam":null,"hyp_desc":"PERENNE","SHAPE_Leng":5368.93009599},"geometry":{"type":"LineString","coordinates":[[-79.33448191211978,-2.572229564582928],[-79.33377262169242,-2.573310670994108],[-79.33325509921615,-2.573880422114506],[-79.33289912593202,-2.574095643780078]]}},{"type":"Feature","properties":{"nam":null,"hyp_desc":"PERENNE","SHAPE_Leng":4223.82732478},"geometry":{"type":"LineString","coordinates":[[-79.34366963553657,-2.574800945049176],[-79.34079506958533,-2.576296781508445],[-79.34033496341296,-2.57664609499784],[-79.34013936854336,-2.576927947945623],[-79.3400945731835,-2.577472681663061],[-79.34048758093947,-2.57935951222656],[-79.34050374332662,-2.57997941084713],[-79.33984498278679,-2.581657472821443],[-79.33972887810711,-2.582487512632599],[-79.34029339410229,-2.589138000389222],[-79.34013234655505,-2.590451770403889],[-79.3396848677197,-2.592843138070612],[-79.33938728373289,-2.593630499994972],[-79.33899260610193,-2.594105538262148],[-79.33576283706263,-2.596668034802458],[-79.33532526193909,-2.597118416744518],[-79.33510538054279,-2.597470484959385],[-79.33472785442846,-2.598724222119367],[-79.33291293248398,-2.607225390851442]]}},{"type":"Feature","properties":{"nam":"Río Patul","hyp_desc":"PERENNE","SHAPE_Leng":4858.81364515},"geometry":{"type":"LineString","coordinates":[[-79.36108079906973,-2.594944250803991],[-79.36196518012946,-2.593166368244551],[-79.36246405290808,-2.592420892354375],[-79.36328819184848,-2.591690202258182],[-79.36778074950666,-2.588344624293411],[-79.36887356942235,-2.586983029699899],[-79.36959155364805,-2.585685303690539],[-79.36963221319566,-2.584872791668244],[-79.36899711603843,-2.581891241913873],[-79.36908379467607,-2.581306300086228],[-79.36991615199788,-2.579926797061382],[-79.37008301923153,-2.579415713819146],[-79.37003031696706,-2.579069797834122],[-79.36965362481148,-2.57816817191859],[-79.36951665659524,-2.577569824214517],[-79.36950008064558,-2.576502050930255],[-79.3696266508073,-2.57521069950184],[-79.37003086894678,-2.573943017876696],[-79.37351629442686,-2.565649698105565],[-79.3736680097635,-2.564809769265193],[-79.37348901019563,-2.56314665042448],[-79.37350219569211,-2.562538034930068],[-79.37369109554386,-2.561946441066705],[-79.37459224436536,-2.560238297767572],[-79.37478017410113,-2.559684028927246],[-79.3747625077588,-2.559329774988159],[-79.37451521314962,-2.55882179675194],[-79.37284812067081,-2.556848728467229]]}},{"type":"Feature","properties":{"nam":"Río Patul","hyp_desc":"PERENNE","SHAPE_Leng":1132.74264463},"geometry":{"type":"LineString","coordinates":[[-79.33448191211978,-2.572229564582928],[-79.33878138192904,-2.571878344262238],[-79.3399576579157,-2.571945845266677],[-79.34092589405329,-2.572530079478732],[-79.34366963553657,-2.574800945049176]]}},{"type":"Feature","properties":{"nam":"Río Patul","hyp_desc":"PERENNE","SHAPE_Leng":3740.17600445},"geometry":{"type":"LineString","coordinates":[[-79.33289831590383,-2.572151926832431],[-79.33448191211978,-2.572229564582928]]}},{"type":"Feature","properties":{"nam":"Río Patul","hyp_desc":"PERENNE","SHAPE_Leng":4584.55618326},"geometry":{"type":"LineString","coordinates":[[-79.34366963553657,-2.574800945049176],[-79.34993102572106,-2.577488028716582],[-79.3507505804519,-2.577757233113072],[-79.35138157286677,-2.577824863571222],[-79.35397470985396,-2.577562623592284],[-79.3552176571388,-2.577266645732029],[-79.35594939013411,-2.576814981912421],[-79.35783696104446,-2.575288766507152],[-79.358571275944,-2.57488625953125],[-79.35941209350067,-2.574791645081819],[-79.36161822158785,-2.574891969764867],[-79.36240175828718,-2.574695677182921],[-79.3633460762613,-2.573874295310498],[-79.36504311599857,-2.571908554351173],[-79.36530995795377,-2.571346869122153],[-79.36563504425267,-2.569668899263246],[-79.36603024192713,-2.568942563562906],[-79.36900479327832,-2.565768963968383],[-79.36964548063538,-2.564902912592109],[-79.37018519313374,-2.56369397029447],[-79.37284812067081,-2.556848728467229]]}},{"type":"Feature","properties":{"nam":"Estero Pogyos","hyp_desc":"PERENNE","SHAPE_Leng":6697.79683303},"geometry":{"type":"LineString","coordinates":[[-79.36424355799542,-2.563049126275387],[-79.36718083721793,-2.560391742125646],[-79.36759233123695,-2.559750199434353],[-79.36756799635702,-2.559221384153772],[-79.36725356809616,-2.558803296426436],[-79.36616360849068,-2.55826120064665],[-79.36569492564294,-2.557849944948223],[-79.36475902722012,-2.556650603544862],[-79.36393564852442,-2.555375896706681],[-79.36371639840189,-2.554784494537375],[-79.36363111322098,-2.55414535549679],[-79.36354765448608,-2.549286414339501],[-79.36347913239536,-2.548638127807403],[-79.36330400351763,-2.548011563095958],[-79.36055273929996,-2.542409512049584],[-79.35987863890448,-2.541287443590862],[-79.35922716441873,-2.540738823870348],[-79.3570925894145,-2.539569591625838],[-79.35650399721453,-2.538998136209621],[-79.35612520090811,-2.538039266576724],[-79.35593063549851,-2.537040783771546],[-79.3559745541719,-2.536526047895002],[-79.35632083257218,-2.535969776539031],[-79.35633520970987,-2.53574669414733],[-79.35588634129388,-2.534996980064454],[-79.35584308062057,-2.534772850154541],[-79.35599048223249,-2.534572394198733],[-79.35665329272855,-2.534079389746763],[-79.35678134254657,-2.533796523457194],[-79.35673168141683,-2.53324992554532],[-79.35632774047646,-2.531793597844418],[-79.35629564595752,-2.531158763369634],[-79.35658712851426,-2.530114003033831],[-79.3570697435355,-2.529121032138909],[-79.35775997220468,-2.528256054685459],[-79.3615757394502,-2.524187521125735],[-79.36242810042188,-2.523173378754954],[-79.36291618202777,-2.522204420034396],[-79.36395695801944,-2.519301669809379],[-79.36437559562033,-2.518553762230048],[-79.36526492694705,-2.51761074311264],[-79.36926269320597,-2.513873603879966]]}},{"type":"Feature","properties":{"nam":"Estero Shucay","hyp_desc":"PERENNE","SHAPE_Leng":6915.34321186},"geometry":{"type":"LineString","coordinates":[[-79.33287564717037,-2.517756781133491],[-79.33614711947688,-2.519068535556301]]}},{"type":"Feature","properties":{"nam":"Estero Agua Prieta","hyp_desc":"PERENNE","SHAPE_Leng":3811.8982076},"geometry":{"type":"MultiLineString","coordinates":[[[-79.33614711947688,-2.519068535556301],[-79.33565009580317,-2.519898890671621],[-79.33510089928112,-2.520283629684025],[-79.33468380566482,-2.520302207379626],[-79.33339716311049,-2.520138195272031],[-79.33287666490605,-2.520198906148662]],[[-79.3328799040524,-2.52797145495432],[-79.33361633476056,-2.528544464755148],[-79.33386805017193,-2.528836866577725],[-79.33417237271246,-2.529547381972992],[-79.3342418702692,-2.530124874808319],[-79.3341170920095,-2.530749100344829],[-79.33388544536528,-2.531371588851594],[-79.33288228577436,-2.5336865564844]]]}},{"type":"Feature","properties":{"nam":null,"hyp_desc":"PERENNE","SHAPE_Leng":2542.92996622},"geometry":{"type":"LineString","coordinates":[[-79.37072366545108,-2.535812905171751],[-79.37175408560064,-2.535021353238609],[-79.37219419720509,-2.534421890508471],[-79.37239997330367,-2.533395045938921],[-79.37245170846089,-2.531893526169734],[-79.37220558722768,-2.530573813093492],[-79.36943869271568,-2.51921062845508],[-79.36932975355796,-2.517883247266301],[-79.36926269320597,-2.513873603879966]]}},{"type":"Feature","properties":{"nam":null,"hyp_desc":"PERENNE","SHAPE_Leng":4321.17531047},"geometry":{"type":"LineString","coordinates":[[-79.36926269320597,-2.513873603879966],[-79.36716295920203,-2.51265269418685],[-79.36618843696301,-2.512325245445737],[-79.36559379346504,-2.512390536420453],[-79.36498972970027,-2.512567700731894],[-79.36321354117523,-2.513291064282064],[-79.36270459118671,-2.513657166599937],[-79.36213724168915,-2.514325553872937],[-79.35802772652217,-2.520213272212668],[-79.35742350577127,-2.520861711670516],[-79.35622219349557,-2.521850094522132],[-79.35531134307219,-2.522449649831079],[-79.35470393165625,-2.522655299563772],[-79.3504825623647,-2.523006547051334],[-79.34947652304686,-2.523231248840327],[-79.34918209407726,-2.523456088386077],[-79.34887369333482,-2.523957704020568],[-79.34747688938468,-2.527867982417976],[-79.34720312050474,-2.528429828929981],[-79.3468088142973,-2.52886716106924],[-79.34565602996176,-2.529368087688673],[-79.33936435730519,-2.531317456556446]]}},{"type":"Feature","properties":{"nam":"Estero Shucay","hyp_desc":"PERENNE","SHAPE_Leng":1506.66925526},"geometry":{"type":"LineString","coordinates":[[-79.33614711947688,-2.519068535556301],[-79.33756498230066,-2.518173661449998],[-79.33840615417768,-2.517793639874627],[-79.33900513969753,-2.517737854093749],[-79.34042844428988,-2.517844117365884],[-79.34120285394296,-2.517607526475804],[-79.34799744599196,-2.513173229655543]]}},{"type":"Feature","properties":{"nam":"Estero El Limón","hyp_desc":"PERENNE","SHAPE_Leng":6076.17179718},"geometry":{"type":"LineString","coordinates":[[-79.42915205088826,-2.562753410623093],[-79.42754308752436,-2.564885255768802],[-79.42723117822582,-2.56544794015075],[-79.4271059436153,-2.565851603442538],[-79.42702899495632,-2.567164889687339],[-79.42713774930681,-2.573661821503944],[-79.42748820919668,-2.576756951660352],[-79.42774584187096,-2.578041436419429],[-79.42828003412589,-2.578957373493579],[-79.43036044977566,-2.581451234662639],[-79.43053405506572,-2.581952364954776],[-79.43045383881095,-2.582298272001298],[-79.43013871205757,-2.582819946893477],[-79.42872353774666,-2.58456603523149],[-79.42824389470188,-2.585284021378125],[-79.42807291394969,-2.585863442852959],[-79.42811135770738,-2.587126742183708],[-79.42798306284982,-2.587730680781162],[-79.42742727393444,-2.589121535897891],[-79.42676619593068,-2.590477788460391],[-79.42599050497178,-2.591540601060111],[-79.42324003587099,-2.594735258928297],[-79.42261095805658,-2.59562730506133],[-79.42221827047938,-2.596644711263917],[-79.42126097989984,-2.600062643289729],[-79.42081428110951,-2.601015338925064],[-79.42035064671494,-2.601445588234991],[-79.41864947832767,-2.602497858216739],[-79.41795703594589,-2.603032706706607],[-79.41745004717934,-2.603701394235664],[-79.41634677763152,-2.605536465893755],[-79.41577338583897,-2.606152519450289],[-79.4117604774285,-2.6087637532001]]}},{"type":"Feature","properties":{"nam":"Río de Piedras","hyp_desc":"PERENNE","SHAPE_Leng":5487.85687157},"geometry":{"type":"LineString","coordinates":[[-79.39988553600118,-2.597399915386694],[-79.40082261127573,-2.59448030470464],[-79.40135652011605,-2.593301963998035],[-79.40539575288709,-2.588396441197248],[-79.40598414677642,-2.587500721877289],[-79.4062901619395,-2.58644829368069],[-79.40700487694659,-2.582238497647924],[-79.40734679417159,-2.581223372764194],[-79.40806289018718,-2.580454598285515],[-79.41049122232738,-2.57855701249545],[-79.41129412206455,-2.577821172332489],[-79.41194418002512,-2.576923003180201],[-79.41370448407616,-2.574058802715185],[-79.41424989146208,-2.573371627013553],[-79.41492308300514,-2.572844857657302],[-79.41676601766964,-2.571693040159343],[-79.41740103002411,-2.5711472579068],[-79.4179267848013,-2.570199689473803],[-79.41962533278299,-2.565780711264604],[-79.41993690524018,-2.565191077558323],[-79.42031515954469,-2.564698116514386],[-79.42134964029214,-2.563686031148391],[-79.42201075503381,-2.563301797361235],[-79.4228297192495,-2.563278638973713],[-79.42589433848788,-2.563892454081166],[-79.42674930461386,-2.563933068908665],[-79.42755021648041,-2.563663766072713],[-79.42915205088826,-2.562753410623093]]}},{"type":"Feature","properties":{"nam":"Estero Tres Ranchos","hyp_desc":"PERENNE","SHAPE_Leng":8136.10098869},"geometry":{"type":"LineString","coordinates":[[-79.43145125664365,-2.559378851909933],[-79.42770737592434,-2.559395126879624],[-79.42689191700909,-2.559300753171025],[-79.42604901941222,-2.559070867670198],[-79.4256972198786,-2.559344310492001],[-79.42486637910686,-2.560464014963749],[-79.42454358872813,-2.560694906115855],[-79.42416069464356,-2.560844331307702],[-79.42309742252475,-2.561061732810176],[-79.41781712021127,-2.56181063360822],[-79.4167574708995,-2.562036535101883],[-79.41637443796563,-2.562200196220656],[-79.4158992362406,-2.562570973624914],[-79.41450515625115,-2.564159692398253],[-79.41388376456449,-2.564745884199041],[-79.4123741981269,-2.565718898475872],[-79.41003653991834,-2.567052069353994],[-79.40943730122879,-2.567263170769024],[-79.40836312589958,-2.567406569055319],[-79.40733630330237,-2.567894648377204],[-79.40628570991646,-2.567865043255086],[-79.40494298308035,-2.568571107199052],[-79.40439147004145,-2.568726020217398],[-79.40358266896747,-2.568669318420072],[-79.40107472557163,-2.56817187493496],[-79.40044412803,-2.568169714148416],[-79.39959385497666,-2.568345055424094],[-79.3985533791005,-2.568676920596412],[-79.39780765961044,-2.569049029432479],[-79.39740261000406,-2.569494255125944],[-79.39679697155088,-2.570559415269221],[-79.39654053144453,-2.570806019184261],[-79.3961979194607,-2.570917525182459],[-79.39515453757843,-2.57087511738652],[-79.39114625753722,-2.570253033991859],[-79.38988464751378,-2.569859302395633],[-79.38534760791086,-2.568111988419407],[-79.38475457899962,-2.56797387284935],[-79.38422181333922,-2.568057277939283],[-79.38347681490616,-2.568713886050509],[-79.38194026294502,-2.570570211717162],[-79.38130461340369,-2.57143881945682],[-79.38104584103439,-2.572012874423998],[-79.38087507167141,-2.573090919564273],[-79.3802127382458,-2.581997167053022],[-79.37989914311468,-2.583296924365119],[-79.37843110764639,-2.588005798535812]]}},{"type":"Feature","properties":{"nam":"Río de Piedras","hyp_desc":"PERENNE","SHAPE_Leng":529.189296947},"geometry":{"type":"LineString","coordinates":[[-79.42915205088826,-2.562753410623093],[-79.43095374623178,-2.561946051826635],[-79.4313669919954,-2.561649581640699],[-79.43146293835802,-2.561227316711917],[-79.43145125664365,-2.559378851909933]]}},{"type":"Feature","properties":{"nam":"Estero Paica","hyp_desc":"PERENNE","SHAPE_Leng":8580.36189117},"geometry":{"type":"LineString","coordinates":[[-79.44860492803149,-2.524684759722033],[-79.44869865611308,-2.526351540018497],[-79.4486587781498,-2.526847439399159],[-79.4485357953836,-2.52722089425678],[-79.44801097913675,-2.527821518787602],[-79.44616456822861,-2.529241816792795],[-79.44574576672728,-2.529686687046447],[-79.44575457534388,-2.529847599498668],[-79.44615000680834,-2.530197715412078],[-79.44567439571598,-2.530960623571247],[-79.44572154590188,-2.531264883025907],[-79.4462279561624,-2.532527262628356],[-79.44620670135124,-2.53324627611142],[-79.44604718689307,-2.533646573952757],[-79.44571030086193,-2.533732520479683],[-79.44450692003305,-2.533345535753235],[-79.44365732387463,-2.533387977024002],[-79.44150349771873,-2.533961539368642],[-79.44092400982645,-2.534228165903714],[-79.44060545916946,-2.534488340529468],[-79.44011751278455,-2.535190561222278],[-79.43867943303984,-2.537976288250241],[-79.43811068225153,-2.538926717792919],[-79.43769054022195,-2.539414074929929],[-79.4364335729911,-2.540566115871965],[-79.43605306929571,-2.541048045801385],[-79.43577202073213,-2.541812849544181],[-79.43535283376677,-2.543895298647353],[-79.43503946216333,-2.544668660028926],[-79.4343539620549,-2.545535311610136],[-79.4312589375871,-2.54882454898956],[-79.43058511602389,-2.549696999673564],[-79.4303482123538,-2.55028476420688],[-79.42999485829068,-2.552163627470675],[-79.42985164539941,-2.552515571001754],[-79.42961282840564,-2.552783418825639],[-79.42908823725958,-2.553039556552807],[-79.42785758784666,-2.553415824520275],[-79.42727215232699,-2.553677920259004],[-79.4250633031046,-2.555356680743497],[-79.42453731545592,-2.555659107475151],[-79.42415367408705,-2.555760686071785],[-79.42287875434846,-2.555669985035208],[-79.41435755251328,-2.554178714184271],[-79.41305426354596,-2.554012540038779],[-79.4126276299914,-2.554026036954508],[-79.41199455961308,-2.554177393666306],[-79.40950907546406,-2.555195588351058],[-79.40867322572753,-2.555447634480734],[-79.40806047992214,-2.555470822160858],[-79.40664363010606,-2.555251370151182],[-79.40605022207845,-2.555243607516661],[-79.40544173616269,-2.555422422804998],[-79.40484806979251,-2.55570789040163],[-79.39995171424849,-2.558450285751002],[-79.39874640325957,-2.559013223012208],[-79.39748161946162,-2.559266444970526],[-79.39294606703017,-2.559814790673134]]}},{"type":"Feature","properties":{"nam":null,"hyp_desc":"PERENNE","SHAPE_Leng":3513.65717199},"geometry":{"type":"LineString","coordinates":[[-79.44860492803149,-2.524684759722033],[-79.44158765346339,-2.526499459335085],[-79.44083998268104,-2.526855672572259],[-79.43993026374574,-2.527634758062979],[-79.43937562555551,-2.527808128990156],[-79.43553105396171,-2.527978508949284],[-79.43373895243361,-2.528672367631012],[-79.43154926914964,-2.52856771194314],[-79.42972632623103,-2.529241222558274],[-79.42911131489157,-2.529352633534458],[-79.42827552465994,-2.529259826656129],[-79.42573219414938,-2.528682117384478],[-79.4251098121399,-2.528628123338618],[-79.42470290539076,-2.528687654472156],[-79.423713866043,-2.529130680206927],[-79.41885905212668,-2.531958282210873]]}},{"type":"Feature","properties":{"nam":"Río Patul","hyp_desc":"PERENNE","SHAPE_Leng":7087.9323887},"geometry":{"type":"LineString","coordinates":[[-79.37284812067081,-2.556848728467229],[-79.37268763344565,-2.554439814432452],[-79.37274563521864,-2.553369754025955],[-79.37310408747918,-2.552332192762891],[-79.37526297838042,-2.547657029144647],[-79.37575063105871,-2.546415374964665],[-79.37665296349593,-2.540618145424261],[-79.37703373687344,-2.539913759219399],[-79.37836341093386,-2.538614601377173],[-79.37888535350666,-2.537940498336475],[-79.3797989677017,-2.536147854232877],[-79.38026506049279,-2.534905348803263],[-79.38036920847081,-2.533598725846164],[-79.38034127268547,-2.527610249901957],[-79.3805318793016,-2.526314961362717],[-79.38521109475452,-2.514746570719809],[-79.3859405135946,-2.513657159944501],[-79.38880943533414,-2.51004213795241],[-79.38916933338352,-2.509500589142525],[-79.3894390628957,-2.508914056104674],[-79.39089944407655,-2.503168828608614],[-79.3909451226164,-2.5023035127858],[-79.39080482147321,-2.499688252587363],[-79.39084853019186,-2.499012701669607],[-79.39112025485927,-2.498258353689955],[-79.39165391128712,-2.497387077059768]]}},{"type":"Feature","properties":{"nam":"Estero La Trinidad","hyp_desc":"PERENNE","SHAPE_Leng":6167.96947043},"geometry":{"type":"LineString","coordinates":[[-79.45963176938604,-2.516074081171715],[-79.45733706832065,-2.512794689865523],[-79.4566220388309,-2.511996833394331],[-79.45607049268925,-2.511695325646065],[-79.45439944209556,-2.511259955042116],[-79.45392886578979,-2.511029067893007],[-79.45379311506095,-2.510795523923992],[-79.4537761516969,-2.509894329836669],[-79.45365076388511,-2.50964049484781],[-79.45334782643845,-2.509381507232286],[-79.45301120626326,-2.509392209159984],[-79.45242749129909,-2.509967307465777],[-79.45212391320241,-2.510149201937703],[-79.45057871600281,-2.510520421249333],[-79.44885318091558,-2.511498731441371],[-79.44830144216557,-2.511703572681331],[-79.44795474756408,-2.51167917179291],[-79.44762673631989,-2.511522547323402],[-79.44568043318439,-2.509976814260265],[-79.44532643939164,-2.509826443124484],[-79.44471591613386,-2.509797496533794],[-79.44277170026476,-2.510231939906002],[-79.44178970708174,-2.510660592932265],[-79.44122186967209,-2.511272510906997],[-79.43991206458517,-2.513301042921211],[-79.43936611525677,-2.513963473770594],[-79.4386538987034,-2.514476908721929],[-79.4372771805572,-2.51523393808795],[-79.43546323831335,-2.516118253218687],[-79.43315080931812,-2.51681344069338],[-79.43230372170058,-2.516866633397953],[-79.43020382944988,-2.516618697153246],[-79.4294217409765,-2.516738464285496],[-79.42853633267534,-2.51731718239081],[-79.42548132998063,-2.519890860428087],[-79.42457508597418,-2.520444917488969],[-79.42328639279008,-2.520610476852019],[-79.41273144225781,-2.520626377082896]]}},{"type":"Feature","properties":{"nam":"Río Cañar","hyp_desc":"PERENNE","SHAPE_Leng":12127.6380915},"geometry":{"type":"LineString","coordinates":[[-79.39165391128712,-2.497387077059768],[-79.39246163053568,-2.497909807871845],[-79.39315044754062,-2.498063896600537],[-79.39356668803825,-2.49796492997836],[-79.39509729625786,-2.49724389124529],[-79.39571988560775,-2.497083187759396],[-79.40011538378148,-2.49677691873422],[-79.40164204287683,-2.496795079997121],[-79.40419954204245,-2.497170054552674],[-79.40543994895175,-2.497462674531211],[-79.4060034457942,-2.497749346796549],[-79.40737955843785,-2.498731229910857],[-79.40789863609473,-2.498916661255466],[-79.40843623095151,-2.498807807855447],[-79.40956135412827,-2.498275331811757],[-79.41016515082394,-2.498101477216994],[-79.41230132679432,-2.49793745606487],[-79.41455110145519,-2.497602295400821],[-79.41985938533232,-2.497322971627083],[-79.42337187991161,-2.497441177510255],[-79.42699647180449,-2.498585194837773],[-79.43204593322011,-2.501014659050067],[-79.43810004460745,-2.499396277092441],[-79.4432527128552,-2.501966661684937],[-79.44751993458328,-2.504309963812174],[-79.44844115920752,-2.503944064575895],[-79.44927093695173,-2.503380207631382],[-79.44951988659199,-2.503037723969213],[-79.4498878804003,-2.501906343632105],[-79.45021502339918,-2.501452930489365],[-79.45074550035213,-2.50114593925128],[-79.45217517002199,-2.500565798096551],[-79.45273429876575,-2.500236340259868],[-79.45416855020581,-2.498677643350972],[-79.45467577682102,-2.498543837506475],[-79.45544357040717,-2.498674982250065],[-79.45643243217285,-2.499005336263987],[-79.45698699885982,-2.499276135836656],[-79.45744763816225,-2.499651064721645],[-79.4582441828196,-2.500523180155958],[-79.45872360905102,-2.500837248920091],[-79.45954207428449,-2.501024244649807],[-79.46218313209803,-2.501255701605648],[-79.46278955923302,-2.501407459632804],[-79.46313594826248,-2.501607137692829],[-79.46383114925082,-2.502398083002331],[-79.4661939459822,-2.505893475097831],[-79.46688491701174,-2.506626486533047],[-79.46722170104515,-2.506750472305641],[-79.46760098980441,-2.506753889625314],[-79.46925887799253,-2.506454812383621],[-79.46988231910895,-2.506476761111997],[-79.47131499695972,-2.507026919699433],[-79.47251061009554,-2.507639826336504],[-79.47305061766899,-2.508014646565006],[-79.47368971199208,-2.508779067551207],[-79.47409364336269,-2.509668268556607],[-79.47412621800945,-2.51029097719263],[-79.47393542076605,-2.511982108540345],[-79.47394788941024,-2.512347540101702],[-79.47405681660925,-2.512634816160728],[-79.47430912993634,-2.51280736756867],[-79.47485461151217,-2.512931116720557],[-79.4774535741823,-2.513097689874078],[-79.4785062181924,-2.513279081334209],[-79.4790942351548,-2.513547372156122],[-79.47982604721551,-2.51402230809943],[-79.48031997212692,-2.514441078421711],[-79.48071037837414,-2.514957859857495],[-79.48163320839194,-2.517002879425079],[-79.48194105110105,-2.518035325886349],[-79.48190252340349,-2.518468435508725],[-79.48171617038992,-2.518945365334571],[-79.48085924995907,-2.520348164682431]]}},{"type":"Feature","properties":{"nam":"Estero Pogyos","hyp_desc":"PERENNE","SHAPE_Leng":2420.59070148},"geometry":{"type":"LineString","coordinates":[[-79.36926269320597,-2.513873603879966],[-79.36948383132157,-2.512556438602542],[-79.36983977458681,-2.511946600480109],[-79.3705567801379,-2.511554405429622],[-79.37342573093028,-2.510484815372853],[-79.37436297008962,-2.510028482011636],[-79.37476238212037,-2.509615588864964],[-79.37521313564943,-2.50849028886519],[-79.3755455664965,-2.508014298113392],[-79.37604896141207,-2.507678880887581],[-79.37783036628562,-2.506886010876465],[-79.37858637954739,-2.506460481532858],[-79.38238561223979,-2.503107450535514],[-79.38298774967636,-2.502479683036963],[-79.38334033466701,-2.5019352972104],[-79.38422470743704,-2.499647931274017]]}},{"type":"Feature","properties":{"nam":"Río Cañar","hyp_desc":"PERENNE","SHAPE_Leng":5994.02284395},"geometry":{"type":"LineString","coordinates":[[-79.33287288628608,-2.511131854178909],[-79.33452158812605,-2.510832584161407],[-79.33537195353959,-2.51083975312575],[-79.33683684187247,-2.511187809846664],[-79.33745577038951,-2.511247381403725],[-79.33957208771872,-2.510686799318942],[-79.34019656447111,-2.510740202697981],[-79.34082683210106,-2.51089759256689],[-79.34799744599196,-2.513173229655543]]}},{"type":"Feature","properties":{"nam":"Río Cañar","hyp_desc":"PERENNE","SHAPE_Leng":4413.80049926},"geometry":{"type":"LineString","coordinates":[[-79.34799744599196,-2.513173229655543],[-79.3567468173444,-2.512376111335617],[-79.35778382535955,-2.512049493011182],[-79.3626406859692,-2.510009993644157],[-79.36325756921974,-2.509902850335215],[-79.36487371528685,-2.509965098195712],[-79.36543772004448,-2.509884000188296],[-79.36613963459739,-2.509447898145499],[-79.36762776633074,-2.508131484548915],[-79.36819149505666,-2.507819474988154],[-79.37405845735674,-2.506041834623674],[-79.37506053734214,-2.505652063575543],[-79.37572479040178,-2.505156548817446],[-79.37736139820962,-2.503546572013685],[-79.37791881038477,-2.503287499994021],[-79.37916116110671,-2.502950337380205],[-79.37975374816959,-2.502663698045317],[-79.38422470743704,-2.499647931274017]]}},{"type":"Feature","properties":{"nam":"Río Cañar","hyp_desc":"PERENNE","SHAPE_Leng":882.932727373},"geometry":{"type":"LineString","coordinates":[[-79.38422470743704,-2.499647931274017],[-79.38735722616853,-2.497955501760329],[-79.38819548306154,-2.497592111634745],[-79.38896502221678,-2.497484491699486],[-79.39165391128712,-2.497387077059768]]}},{"type":"Feature","properties":{"nam":"Estero Pancho Negrito","hyp_desc":"PERENNE","SHAPE_Leng":5326.51340261},"geometry":{"type":"LineString","coordinates":[[-79.39654649150252,-2.473830797276629],[-79.39631444386771,-2.47467658048502],[-79.39556245588498,-2.478342317599228],[-79.39522487624652,-2.479282928385492],[-79.39496953675219,-2.479519780575979],[-79.3945371046595,-2.479648394705786],[-79.39286194422183,-2.479718958697695]]}},{"type":"Feature","properties":{"nam":"Río Cañar","hyp_desc":"PERENNE","SHAPE_Leng":1192.61703941},"geometry":{"type":"LineString","coordinates":[[-79.50735993559779,-2.53918351097706],[-79.50923662949138,-2.539380391859656],[-79.51030609351228,-2.539348794432327],[-79.51416350982264,-2.538205153715528],[-79.51469785992856,-2.537918673623813],[-79.51512064170319,-2.537492164090914],[-79.51647243183166,-2.535338968079768]]}},{"type":"Feature","properties":{"nam":"Río Cañar","hyp_desc":"PERENNE","SHAPE_Leng":1625.93919472},"geometry":{"type":"LineString","coordinates":[[-79.50000098661677,-2.533392267448237],[-79.50327437736581,-2.53209102782399],[-79.5038336132854,-2.531975232190727],[-79.50427477463407,-2.532117334030824],[-79.50463132365765,-2.532758362794788],[-79.50476641101898,-2.533571414745555],[-79.50465386491476,-2.534187185504799],[-79.50421908577648,-2.535550200661534],[-79.50424286279535,-2.535985329128294],[-79.50446486070261,-2.536155904534379],[-79.50480664510077,-2.536252034655324],[-79.5069473996442,-2.536473450120216],[-79.50731992090513,-2.536562472394279],[-79.50759406082668,-2.536726460655072],[-79.50771433436194,-2.537014662448997],[-79.50770623617355,-2.537463660722378],[-79.50735993559779,-2.53918351097706]]}},{"type":"Feature","properties":{"nam":"Río Cañar","hyp_desc":"PERENNE","SHAPE_Leng":218.643320591},"geometry":{"type":"LineString","coordinates":[[-79.49823125477846,-2.532552915219252],[-79.49848445856198,-2.532751993263608],[-79.50000098661677,-2.533392267448237]]}},{"type":"Feature","properties":{"nam":"Río Cañar","hyp_desc":"PERENNE","SHAPE_Leng":2732.31906388},"geometry":{"type":"LineString","coordinates":[[-79.50000098661677,-2.533392267448237],[-79.50648681193094,-2.528533942711184],[-79.50723334660167,-2.528129194607061],[-79.50780108085435,-2.528080321946081],[-79.50854364814911,-2.528310783311078],[-79.5091767014126,-2.528808826813904],[-79.51004005759366,-2.530067301961048],[-79.51090399469128,-2.531586842556605],[-79.51115740234785,-2.532619950280208],[-79.51121230379233,-2.535903290013727],[-79.51127995014916,-2.536256646038462],[-79.51142852895786,-2.536502753390821],[-79.51186583884339,-2.536585856868471],[-79.51244265553733,-2.536483774873766],[-79.51647243183166,-2.535338968079768]]}},{"type":"Feature","properties":{"nam":"Estero La Olla","hyp_desc":"PERENNE","SHAPE_Leng":3166.02105881},"geometry":{"type":"LineString","coordinates":[[-79.46679612136992,-2.518866638822216],[-79.46544857025138,-2.519713316779346],[-79.46461594810513,-2.520095798926917],[-79.46379132102014,-2.520149739233141],[-79.46183146338048,-2.519877272977711],[-79.4611840838574,-2.519870895113976],[-79.45970602991778,-2.520313994203162],[-79.45890267264414,-2.520675919681277],[-79.45838712527642,-2.521018826001598],[-79.45815168916417,-2.521322545745041],[-79.45795405765043,-2.521885104759351],[-79.45755195230544,-2.524438250802187],[-79.45722094738623,-2.525389753534846],[-79.45663212510772,-2.525935754711375],[-79.45420964192307,-2.527361355762408],[-79.45342016081115,-2.528021042682559],[-79.45314079490325,-2.528545120896167],[-79.45263507474773,-2.530121766647501],[-79.45238700415597,-2.530652548860592],[-79.45214385423054,-2.530941186552166],[-79.45142323113002,-2.531516473637855],[-79.4512702562915,-2.531776213887623],[-79.45106861891882,-2.532543465614804],[-79.45075521686321,-2.533064371120452],[-79.4478885415341,-2.53646472583653]]}},{"type":"Feature","properties":{"nam":null,"hyp_desc":"PERENNE","SHAPE_Leng":1516.86855743},"geometry":{"type":"LineString","coordinates":[[-79.47996396445076,-2.520972395470958],[-79.47916939596634,-2.521169712020214],[-79.4784233796977,-2.521159944433414],[-79.47802926825008,-2.520975562812169],[-79.4774342836071,-2.520493316317206],[-79.47711366228633,-2.520343768707673],[-79.47660432186456,-2.520349555639378],[-79.47548153835046,-2.520564650261464],[-79.47462085635614,-2.520512231145124],[-79.46679612136992,-2.518866638822216]]}},{"type":"Feature","properties":{"nam":"Estero Paica","hyp_desc":"PERENNE","SHAPE_Leng":2037.57215033},"geometry":{"type":"LineString","coordinates":[[-79.45963176938604,-2.516074081171715],[-79.45862180593187,-2.515255194093059],[-79.45822222859735,-2.515070144341178],[-79.45790722923874,-2.515118557172514],[-79.45752254900088,-2.515523860560746],[-79.45643244404333,-2.517214487083586],[-79.45588304644679,-2.517904514074892],[-79.4555623860354,-2.518162155644407],[-79.45452394795164,-2.518696319534617],[-79.45412323073798,-2.518989628830743],[-79.45400373862078,-2.519247841529273],[-79.45403948342054,-2.520219407365619],[-79.45394250004654,-2.520514978889696],[-79.45360009645704,-2.520879353114883],[-79.45308077552906,-2.521172232282184],[-79.45209685859312,-2.521457279014434],[-79.45161314352522,-2.521391901557924],[-79.45134480719035,-2.521028641997125],[-79.45107073626657,-2.520282456536179],[-79.45095659398137,-2.520148803365716],[-79.4508846839315,-2.520166536407366],[-79.45044978128568,-2.520836395695985],[-79.44860492803149,-2.524684759722033]]}},{"type":"Feature","properties":{"nam":null,"hyp_desc":"PERENNE","SHAPE_Leng":1073.59899694},"geometry":{"type":"LineString","coordinates":[[-79.46679612136992,-2.518866638822216],[-79.46407010519293,-2.515323549904764],[-79.46343920046833,-2.514744261770431],[-79.46317854221084,-2.51472772124416],[-79.4629127926924,-2.514864779415226],[-79.4618051014842,-2.515875152407261],[-79.46132284713458,-2.516170752766186],[-79.46061071577748,-2.516225574741793],[-79.45963176938604,-2.516074081171715]]}},{"type":"Feature","properties":{"nam":"Estero Guayjas","hyp_desc":"PERENNE","SHAPE_Leng":7678.88103748},"geometry":{"type":"LineString","coordinates":[[-79.46755912843707,-2.47852516388991],[-79.4712691748625,-2.48400601767909],[-79.47164616081048,-2.484287503085004],[-79.47218997492705,-2.484297878546801],[-79.47307707197757,-2.484747194304339],[-79.47400966627076,-2.484780140598716],[-79.47467496876912,-2.484582119592783],[-79.47494507377466,-2.484192388409038],[-79.47514295660217,-2.483248746524502],[-79.47573533126706,-2.483928973846162],[-79.47602251289064,-2.48411696040058],[-79.4767117668858,-2.484247979627203],[-79.47717053104336,-2.484159396956059],[-79.47735506075503,-2.483980119359286],[-79.47759543214131,-2.483271664063193],[-79.47790663862395,-2.482799999451041],[-79.47859960098006,-2.482183507105531],[-79.47898762539675,-2.482074857031271],[-79.47920390966587,-2.482233785927484],[-79.47981105030709,-2.48306826773507],[-79.48044302117552,-2.483403097368793],[-79.48077601199866,-2.484142496289081],[-79.48142632143548,-2.484330631536774],[-79.48178429583962,-2.484698077963956],[-79.48222952193106,-2.484847051728879],[-79.48265067030755,-2.485308672651264],[-79.48307523313147,-2.48541521620252],[-79.4833641017503,-2.485386871408388],[-79.48360149398411,-2.48524266727613],[-79.48394509332823,-2.484797370019352],[-79.48414061749276,-2.484726759682111],[-79.48479034655718,-2.484893881205203],[-79.48580311292619,-2.484764842908926],[-79.48641776487577,-2.485201972865825],[-79.48671822754568,-2.48530281304829],[-79.48785656254455,-2.485177316638277],[-79.48822524866809,-2.485211107013456],[-79.48883380806888,-2.485637401072506],[-79.49062057599625,-2.487757883186924],[-79.49094503666483,-2.487999867633806],[-79.49153417339934,-2.488223235495032],[-79.49395291054677,-2.488583194923284],[-79.49523178750302,-2.488599011017502],[-79.49576188554306,-2.488366893920809],[-79.49700338699334,-2.487313050687432],[-79.49753341696726,-2.48703413761032],[-79.49856462363933,-2.486890697346705],[-79.49953774152758,-2.487022821967336],[-79.49994250270232,-2.487367260861927],[-79.50052838220246,-2.488378162741137],[-79.50093453560724,-2.488737270941261],[-79.50150288174126,-2.488889900052913],[-79.50364507142301,-2.48908195256345],[-79.5040357157659,-2.489206736739046],[-79.50439068373831,-2.489425916324775],[-79.50502733469875,-2.490021175822921],[-79.50698630973702,-2.492187842243327],[-79.50782026010322,-2.492857878841678],[-79.5084034567596,-2.493046864293575],[-79.51008975742576,-2.493305156611718],[-79.51070011208994,-2.493491211230415],[-79.51298421925544,-2.494815188496202],[-79.51357615294854,-2.495076118303014],[-79.51488264492482,-2.495267357983519],[-79.52430668353583,-2.495713954441001]]}},{"type":"Feature","properties":{"nam":"Estero Seco","hyp_desc":"PERENNE","SHAPE_Leng":5451.37432845},"geometry":{"type":"MultiLineString","coordinates":[[[-79.52430668353583,-2.495713954441001],[-79.51962263648612,-2.491348572060882],[-79.51860578663428,-2.4905726781294],[-79.51780845964612,-2.490378994321587],[-79.51520729158977,-2.490408515011765],[-79.51482818161763,-2.490327205071381],[-79.51451226226318,-2.49013436707991],[-79.51394716560256,-2.489263770096362],[-79.51216251332582,-2.485353182075626],[-79.51181559589932,-2.484800821453473],[-79.51134866629451,-2.484365875383588],[-79.51038785446441,-2.483820030047101],[-79.50492151045022,-2.481146287923634],[-79.50396994744901,-2.4805942073737],[-79.50351837217774,-2.480152834514559],[-79.50279222264342,-2.478818849380835],[-79.50241620439584,-2.478303284793776],[-79.5014227262451,-2.477502164220408],[-79.49995447944038,-2.476580660838577],[-79.49831443897878,-2.475930560785049],[-79.49728796520502,-2.475722770511994],[-79.49672266425726,-2.475846544693938],[-79.49557621191943,-2.476425996679899],[-79.49533656656291,-2.476430823961014],[-79.49518195809202,-2.47626460568195],[-79.49484429342635,-2.475298605337744],[-79.49453729545581,-2.474798521675946],[-79.49395466450129,-2.474216228125936],[-79.49334353917044,-2.473776470307114]],[[-79.49189482711775,-2.473777283391164],[-79.49151975369459,-2.47388274064339],[-79.49114618394952,-2.473902791825514],[-79.49063023524576,-2.473777993138472]]]}},{"type":"Feature","properties":{"nam":"Estero Rivera","hyp_desc":"PERENNE","SHAPE_Leng":7391.61470843},"geometry":{"type":"MultiLineString","coordinates":[[[-79.45957919676569,-2.47379542041401],[-79.45933964451939,-2.474264645994222],[-79.45913093571292,-2.474498074860068],[-79.45887931293407,-2.474557498436949],[-79.45826504576497,-2.474216114717977],[-79.45776853763883,-2.473796436639458]],[[-79.43631755124999,-2.473808475922801],[-79.4365570913636,-2.475356025780153],[-79.43645136117611,-2.475924472921557],[-79.43587297443987,-2.476606807088342],[-79.43451942517139,-2.477699406938011]]]}},{"type":"Feature","properties":{"nam":"Estero El Trapiche","hyp_desc":"PERENNE","SHAPE_Leng":3261.61579407},"geometry":{"type":"LineString","coordinates":[[-79.5287752961589,-2.498615377596181],[-79.52794722904166,-2.499988872900782],[-79.52738314672605,-2.500577317211861],[-79.5269149892055,-2.500624778128205],[-79.52563701636397,-2.500279371451783],[-79.52486912389936,-2.500352409096195],[-79.52419366358077,-2.500700974366902],[-79.52338493992423,-2.501576546090382],[-79.52290539549435,-2.501898300713395],[-79.522304043945,-2.502046137843911],[-79.52081798087404,-2.502207360073605],[-79.52028967975018,-2.502373786758492],[-79.51999661170596,-2.502742946123183],[-79.51970541484161,-2.503822734099388],[-79.51929592890302,-2.504572809976216],[-79.51767445074772,-2.506671907588202],[-79.51699852742783,-2.507256470410346],[-79.51661499736286,-2.507166593675864],[-79.51596485367516,-2.506553919267979],[-79.51566459289492,-2.506377446028164],[-79.51496591669915,-2.506393004897854],[-79.51421478534725,-2.506654039715583],[-79.51368098508435,-2.506944693592187],[-79.51244331492809,-2.508233858066666],[-79.51200271346747,-2.508389937249108],[-79.5103618218062,-2.507737087473326],[-79.51000015489238,-2.507735688635568],[-79.50898566077593,-2.508073089847832],[-79.50867317508028,-2.50803220717364],[-79.50762521502371,-2.507193370263322],[-79.50724662657947,-2.507050429893774],[-79.50647381080321,-2.507070671475988],[-79.50543605752705,-2.507283929653297]]}},{"type":"Feature","properties":{"nam":"Estero Seco","hyp_desc":"PERENNE","SHAPE_Leng":591.495860087},"geometry":{"type":"LineString","coordinates":[[-79.5287752961589,-2.498615377596181],[-79.52430668353583,-2.495713954441001]]}}]}