{"type":"FeatureCollection","features":[{"type":"Feature","properties":{"DPA_SECTOR":"010151999033","ZONA":"Zona 6","COD_PARROQ":"010151","PARROQ":"BAÐOS","Pob_total":98.0,"Area_Km2":1.70264402784,"Porc_NBI":95.652173913},"geometry":{"type":"Polygon","coordinates":[[[-79.065887,-2.930947],[-79.065658,-2.930999],[-79.065458,-2.929215],[-79.064129,-2.929394],[-79.063727,-2.929335],[-79.063661,-2.930673],[-79.062937,-2.930727],[-79.062855,-2.930838],[-79.062933,-2.931745],[-79.062925,-2.933154],[-79.06339,-2.933777],[-79.063122,-2.934471],[-79.063593,-2.934746],[-79.06551,-2.935339],[-79.065914,-2.93553],[-79.066442,-2.93598],[-79.066693,-2.936332],[-79.06731,-2.93653],[-79.067469,-2.93651],[-79.067518,-2.93635],[-79.067138,-2.936106],[-79.067053,-2.935996],[-79.067074,-2.935832],[-79.067336,-2.935201],[-79.06761,-2.93485],[-79.067865,-2.935182],[-79.067979,-2.935211],[-79.068047,-2.934923],[-79.068184,-2.935332],[-79.068322,-2.935414],[-79.068826,-2.935333],[-79.069112,-2.935411],[-79.069265,-2.935374],[-79.06946,-2.935154],[-79.069631,-2.93513],[-79.070391,-2.935135],[-79.070748,-2.935323],[-79.071706,-2.936127],[-79.072047,-2.936184],[-79.07229,-2.936593],[-79.072794,-2.936758],[-79.073034,-2.937267],[-79.07326,-2.937488],[-79.074048,-2.937502],[-79.07502,-2.938011],[-79.075817,-2.938222],[-79.076232,-2.938185],[-79.076986,-2.937887],[-79.077921,-2.937759],[-79.078872,-2.937496],[-79.079284,-2.937989],[-79.079555,-2.938046],[-79.080452,-2.937606],[-79.081726,-2.936647],[-79.082309,-2.936607],[-79.082826,-2.93646],[-79.08458,-2.936825],[-79.084968,-2.937074],[-79.085613,-2.937253],[-79.086322,-2.937352],[-79.088083,-2.937297],[-79.089438,-2.937947],[-79.091386,-2.940323],[-79.092049,-2.941555],[-79.092139,-2.942529],[-79.092339,-2.943184],[-79.09265,-2.943298],[-79.093404,-2.943198],[-79.093729,-2.94324],[-79.094186,-2.944003],[-79.094504,-2.944298],[-79.095842,-2.944578],[-79.096041,-2.944805],[-79.096326,-2.945855],[-79.097007,-2.946408],[-79.097464,-2.946578],[-79.097663,-2.946566],[-79.097819,-2.946502],[-79.098346,-2.945974],[-79.098701,-2.945915],[-79.09887,-2.945961],[-79.099454,-2.946441],[-79.099969,-2.946551],[-79.10006,-2.946673],[-79.100146,-2.947247],[-79.100329,-2.947719],[-79.100148,-2.9484],[-79.100164,-2.948771],[-79.100284,-2.949088],[-79.099871,-2.949731],[-79.099829,-2.949886],[-79.099983,-2.950134],[-79.099673,-2.950388],[-79.099648,-2.950546],[-79.099891,-2.951395],[-79.100403,-2.952178],[-79.101717,-2.951309],[-79.101533,-2.950567],[-79.101689,-2.950297],[-79.101797,-2.949836],[-79.101882,-2.948955],[-79.101574,-2.948622],[-79.101551,-2.947325],[-79.101297,-2.946307],[-79.10052,-2.945379],[-79.100148,-2.945127],[-79.099632,-2.945007],[-79.098775,-2.944324],[-79.098526,-2.943979],[-79.098556,-2.94382],[-79.098324,-2.943207],[-79.097492,-2.942819],[-79.097205,-2.942466],[-79.097023,-2.941588],[-79.096786,-2.941206],[-79.096805,-2.94088],[-79.096194,-2.939984],[-79.095883,-2.939875],[-79.095657,-2.939296],[-79.095232,-2.938875],[-79.094927,-2.938268],[-79.094292,-2.938273],[-79.093814,-2.938175],[-79.093115,-2.939392],[-79.090877,-2.938071],[-79.090243,-2.937535],[-79.085182,-2.935037],[-79.082815,-2.933572],[-79.082136,-2.933843],[-79.080561,-2.934149],[-79.078448,-2.934281],[-79.078063,-2.934377],[-79.075514,-2.935942],[-79.074849,-2.935811],[-79.074143,-2.93518],[-79.073879,-2.934724],[-79.0733,-2.934147],[-79.073128,-2.933798],[-79.072628,-2.933451],[-79.071799,-2.932461],[-79.071672,-2.931667],[-79.071516,-2.931233],[-79.071323,-2.930994],[-79.070577,-2.930567],[-79.070379,-2.93035],[-79.06968,-2.929057],[-79.069675,-2.927747],[-79.069596,-2.927524],[-79.069411,-2.927398],[-79.069466,-2.927925],[-79.06916,-2.92839],[-79.06795,-2.929691],[-79.066985,-2.9306],[-79.066254,-2.930942],[-79.065887,-2.930947]]]}},{"type":"Feature","properties":{"DPA_SECTOR":"010151999053","ZONA":"Zona 6","COD_PARROQ":"010151","PARROQ":"BAÐOS","Pob_total":117.0,"Area_Km2":228.348550524,"Porc_NBI":100.0},"geometry":{"type":"Polygon","coordinates":[[[-79.193667,-2.931683],[-79.193016,-2.931232],[-79.192642,-2.931191],[-79.192433,-2.931311],[-79.19199,-2.931964],[-79.191567,-2.932337],[-79.19098,-2.932429],[-79.190194,-2.932168],[-79.189856,-2.932172],[-79.189658,-2.932353],[-79.189244,-2.933066],[-79.188919,-2.9334],[-79.188356,-2.933551],[-79.187287,-2.933469],[-79.186509,-2.933513],[-79.186188,-2.933627],[-79.185405,-2.934228],[-79.184541,-2.935345],[-79.183975,-2.935677],[-79.183425,-2.935773],[-79.182743,-2.93564],[-79.182182,-2.935633],[-79.181862,-2.935732],[-79.181085,-2.937535],[-79.180308,-2.93823],[-79.179833,-2.939106],[-79.179476,-2.939575],[-79.179322,-2.940109],[-79.179092,-2.940553],[-79.178799,-2.940743],[-79.178494,-2.940719],[-79.177918,-2.940493],[-79.177477,-2.940603],[-79.177384,-2.940879],[-79.177388,-2.941415],[-79.177208,-2.941949],[-79.176056,-2.943352],[-79.175798,-2.944456],[-79.175581,-2.944715],[-79.174455,-2.945418],[-79.173515,-2.945721],[-79.172887,-2.94602],[-79.171823,-2.946025],[-79.171408,-2.946156],[-79.170766,-2.946978],[-79.169888,-2.947418],[-79.169444,-2.947817],[-79.169297,-2.948366],[-79.16932,-2.948986],[-79.169154,-2.949362],[-79.168248,-2.94962],[-79.167947,-2.949855],[-79.167583,-2.950334],[-79.166378,-2.950838],[-79.165875,-2.950787],[-79.165027,-2.950274],[-79.164677,-2.95015],[-79.164317,-2.950352],[-79.163748,-2.950839],[-79.163809,-2.951177],[-79.163959,-2.951404],[-79.164683,-2.95183],[-79.164742,-2.952059],[-79.164708,-2.95261],[-79.165164,-2.953073],[-79.165762,-2.953892],[-79.166182,-2.954258],[-79.166632,-2.955275],[-79.167243,-2.955859],[-79.167283,-2.956179],[-79.167412,-2.956446],[-79.167895,-2.956717],[-79.167931,-2.956881],[-79.167774,-2.957442],[-79.16871,-2.957881],[-79.169274,-2.958287],[-79.169692,-2.958749],[-79.1704,-2.960004],[-79.171364,-2.961027],[-79.171484,-2.961524],[-79.171876,-2.96174],[-79.171761,-2.962058],[-79.17183,-2.962209],[-79.172091,-2.962353],[-79.172616,-2.962438],[-79.172847,-2.962798],[-79.173277,-2.962891],[-79.173453,-2.963042],[-79.173514,-2.963243],[-79.173486,-2.963809],[-79.173964,-2.964213],[-79.174145,-2.964519],[-79.174154,-2.964755],[-79.174391,-2.964981],[-79.174944,-2.966083],[-79.175201,-2.966346],[-79.175226,-2.966834],[-79.175598,-2.96777],[-79.176062,-2.968555],[-79.176408,-2.969452],[-79.176698,-2.970732],[-79.176638,-2.971558],[-79.17591,-2.973193],[-79.175635,-2.974142],[-79.175386,-2.974503],[-79.174807,-2.97501],[-79.174637,-2.975406],[-79.174781,-2.975851],[-79.175388,-2.976429],[-79.175514,-2.976719],[-79.175509,-2.977139],[-79.175239,-2.977547],[-79.175339,-2.978173],[-79.175328,-2.978824],[-79.174843,-2.979],[-79.174739,-2.979403],[-79.174803,-2.979958],[-79.174942,-2.980332],[-79.174915,-2.980682],[-79.175106,-2.981008],[-79.175338,-2.981911],[-79.175295,-2.984026],[-79.175534,-2.985091],[-79.175572,-2.985862],[-79.17537,-2.990382],[-79.175677,-2.990453],[-79.176287,-2.990889],[-79.176738,-2.991833],[-79.176912,-2.992021],[-79.17722,-2.992018],[-79.177646,-2.991887],[-79.178601,-2.992189],[-79.179124,-2.992599],[-79.179263,-2.993223],[-79.179442,-2.993476],[-79.180231,-2.993676],[-79.180783,-2.993934],[-79.181297,-2.993877],[-79.181593,-2.993926],[-79.182181,-2.99443],[-79.182859,-2.994494],[-79.182936,-2.994919],[-79.183625,-2.995126],[-79.184015,-2.995447],[-79.184119,-2.99549],[-79.184576,-2.995332],[-79.185211,-2.99549],[-79.185344,-2.995427],[-79.185579,-2.995052],[-79.185702,-2.994985],[-79.186188,-2.995131],[-79.186964,-2.995594],[-79.187619,-2.995547],[-79.188194,-2.995892],[-79.18912,-2.996201],[-79.189498,-2.996853],[-79.190545,-2.997816],[-79.190808,-2.998373],[-79.191907,-2.999303],[-79.19231,-2.999519],[-79.192816,-2.999641],[-79.195594,-3.000746],[-79.197194,-3.00117],[-79.197437,-3.001513],[-79.197788,-3.002366],[-79.198945,-3.003756],[-79.199157,-3.004188],[-79.199326,-3.004815],[-79.199885,-3.005896],[-79.20001,-3.005982],[-79.200188,-3.005972],[-79.201134,-3.005723],[-79.202835,-3.005808],[-79.203327,-3.006277],[-79.203704,-3.006903],[-79.204068,-3.007296],[-79.204661,-3.007718],[-79.205286,-3.007884],[-79.206339,-3.008462],[-79.207267,-3.009327],[-79.207932,-3.01011],[-79.208825,-3.010453],[-79.210257,-3.010254],[-79.210594,-3.010345],[-79.211139,-3.010309],[-79.211657,-3.010429],[-79.21274,-3.010059],[-79.213473,-3.009977],[-79.214043,-3.009738],[-79.214388,-3.009465],[-79.215017,-3.008722],[-79.215423,-3.008536],[-79.216083,-3.008597],[-79.216443,-3.008357],[-79.217813,-3.006892],[-79.218637,-3.005648],[-79.219171,-3.005003],[-79.220082,-3.004273],[-79.221203,-3.003934],[-79.222043,-3.003814],[-79.223465,-3.003279],[-79.22504,-3.003335],[-79.225122,-3.003419],[-79.225433,-3.003468],[-79.226646,-3.003553],[-79.227496,-3.003779],[-79.22802,-3.004023],[-79.228511,-3.004498],[-79.229088,-3.004856],[-79.229335,-3.00495],[-79.230151,-3.005027],[-79.230351,-3.005265],[-79.230397,-3.005384],[-79.23033,-3.005765],[-79.230033,-3.006527],[-79.229525,-3.006895],[-79.229494,-3.007006],[-79.229629,-3.007219],[-79.229425,-3.007492],[-79.229553,-3.007741],[-79.229811,-3.00767],[-79.230278,-3.008546],[-79.230167,-3.008833],[-79.230443,-3.009206],[-79.230496,-3.010022],[-79.230694,-3.010198],[-79.230609,-3.010444],[-79.230652,-3.010666],[-79.231683,-3.011452],[-79.231858,-3.011944],[-79.231678,-3.012573],[-79.231904,-3.013488],[-79.231898,-3.014166],[-79.23179,-3.014776],[-79.231557,-3.014933],[-79.231667,-3.015197],[-79.231662,-3.015455],[-79.231533,-3.015674],[-79.231039,-3.016035],[-79.23092,-3.016273],[-79.230899,-3.01679],[-79.230595,-3.017425],[-79.230735,-3.018019],[-79.230495,-3.018347],[-79.230441,-3.0186],[-79.229682,-3.019219],[-79.229726,-3.019698],[-79.228663,-3.020132],[-79.228627,-3.020212],[-79.228777,-3.020462],[-79.228117,-3.020885],[-79.227911,-3.020781],[-79.227461,-3.020949],[-79.227035,-3.020886],[-79.226816,-3.020976],[-79.226309,-3.021577],[-79.226088,-3.021636],[-79.226051,-3.022006],[-79.22598,-3.022086],[-79.22566,-3.022245],[-79.224946,-3.022169],[-79.224699,-3.022205],[-79.224581,-3.022319],[-79.224193,-3.02193],[-79.223071,-3.022086],[-79.222442,-3.022066],[-79.222127,-3.022283],[-79.22189,-3.023014],[-79.221511,-3.023297],[-79.221011,-3.023299],[-79.220239,-3.023484],[-79.219902,-3.023432],[-79.219311,-3.02294],[-79.218752,-3.022087],[-79.218457,-3.021998],[-79.217392,-3.02197],[-79.217991,-3.022419],[-79.21862,-3.023075],[-79.219396,-3.024111],[-79.219585,-3.024556],[-79.220105,-3.027473],[-79.220208,-3.029227],[-79.220384,-3.030632],[-79.221095,-3.033064],[-79.221743,-3.034924],[-79.222644,-3.036743],[-79.224627,-3.039272],[-79.225739,-3.040499],[-79.227315,-3.046831],[-79.227713,-3.047762],[-79.228175,-3.048396],[-79.229453,-3.050765],[-79.230291,-3.052711],[-79.231108,-3.054318],[-79.231516,-3.055301],[-79.231789,-3.055725],[-79.232793,-3.058664],[-79.233401,-3.059742],[-79.235538,-3.062605],[-79.236248,-3.061895],[-79.237358,-3.060985],[-79.23865,-3.060075],[-79.240184,-3.05876],[-79.241799,-3.057709],[-79.245302,-3.054279],[-79.248088,-3.052075],[-79.249682,-3.051165],[-79.251316,-3.050519],[-79.252204,-3.050257],[-79.253102,-3.050463],[-79.253514,-3.050651],[-79.25442,-3.050777],[-79.254787,-3.050949],[-79.255647,-3.051443],[-79.256679,-3.052248],[-79.25918,-3.053569],[-79.260934,-3.055858],[-79.262001,-3.0571],[-79.2627,-3.057709],[-79.264747,-3.059072],[-79.266657,-3.060065],[-79.268871,-3.061708],[-79.269741,-3.062463],[-79.270065,-3.063041],[-79.272171,-3.06515],[-79.273705,-3.067212],[-79.2754,-3.07047],[-79.275874,-3.071277],[-79.276304,-3.07177],[-79.277253,-3.072145],[-79.278604,-3.072386],[-79.279592,-3.072373],[-79.281983,-3.07257],[-79.286,-3.072517],[-79.287158,-3.07243],[-79.289142,-3.072134],[-79.292217,-3.071572],[-79.293004,-3.071095],[-79.295047,-3.070397],[-79.296251,-3.070115],[-79.298621,-3.069238],[-79.300345,-3.068136],[-79.302054,-3.067437],[-79.304588,-3.066172],[-79.307627,-3.065072],[-79.30892,-3.064761],[-79.310569,-3.064495],[-79.311222,-3.064466],[-79.312715,-3.064095],[-79.313384,-3.063484],[-79.31447,-3.062724],[-79.315213,-3.062083],[-79.315942,-3.061592],[-79.316521,-3.061309],[-79.316819,-3.06122],[-79.318043,-3.061774],[-79.319008,-3.06203],[-79.319572,-3.062046],[-79.32082,-3.061734],[-79.324322,-3.058619],[-79.325654,-3.057233],[-79.327141,-3.055966],[-79.329022,-3.054551],[-79.329899,-3.053641],[-79.330405,-3.05297],[-79.330792,-3.052299],[-79.331262,-3.051225],[-79.331501,-3.049971],[-79.33166,-3.04815],[-79.332399,-3.045359],[-79.333159,-3.044077],[-79.333307,-3.043987],[-79.333901,-3.044048],[-79.335358,-3.043364],[-79.336733,-3.04241],[-79.338785,-3.040398],[-79.340331,-3.039415],[-79.340628,-3.039385],[-79.34163,-3.040074],[-79.343351,-3.040898],[-79.34485,-3.041766],[-79.345896,-3.042081],[-79.348033,-3.043323],[-79.350222,-3.044372],[-79.351766,-3.044628],[-79.352434,-3.044629],[-79.353593,-3.044392],[-79.353965,-3.044064],[-79.354159,-3.043587],[-79.354353,-3.042646],[-79.355195,-3.040826],[-79.355701,-3.039931],[-79.356133,-3.039544],[-79.356669,-3.038664],[-79.35742,-3.037694],[-79.357688,-3.037127],[-79.358679,-3.03483],[-79.359425,-3.032562],[-79.359753,-3.03186],[-79.359904,-3.031811],[-79.360267,-3.030462],[-79.360575,-3.029845],[-79.36094,-3.028695],[-79.36224,-3.02693],[-79.363917,-3.025305],[-79.364755,-3.024633],[-79.365175,-3.024185],[-79.365315,-3.023792],[-79.365343,-3.023399],[-79.365204,-3.022866],[-79.364356,-3.021013],[-79.363743,-3.02017],[-79.362907,-3.019636],[-79.361791,-3.019213],[-79.355975,-3.017343],[-79.35384,-3.016535],[-79.352312,-3.015901],[-79.351255,-3.015224],[-79.350899,-3.014735],[-79.350871,-3.014146],[-79.351043,-3.013873],[-79.354539,-3.012184],[-79.356663,-3.010765],[-79.357694,-3.009631],[-79.358425,-3.008282],[-79.358905,-3.006889],[-79.359187,-3.004879],[-79.359188,-3.00416],[-79.359004,-3.003413],[-79.358774,-3.002951],[-79.357275,-3.002105],[-79.355889,-3.001879],[-79.34873,-2.998702],[-79.345067,-2.996871],[-79.344152,-2.996066],[-79.342356,-2.99407],[-79.339521,-2.990222],[-79.337892,-2.987807],[-79.336355,-2.985251],[-79.335574,-2.983742],[-79.33506,-2.982502],[-79.334572,-2.979786],[-79.334967,-2.978772],[-79.334897,-2.97782],[-79.333667,-2.975465],[-79.333545,-2.97365],[-79.33419,-2.972645],[-79.335657,-2.971318],[-79.337036,-2.96911],[-79.337608,-2.966184],[-79.336842,-2.965865],[-79.335523,-2.96503],[-79.332756,-2.963553],[-79.329209,-2.962479],[-79.327977,-2.961857],[-79.325497,-2.960346],[-79.323767,-2.958601],[-79.323302,-2.958014],[-79.322629,-2.95695],[-79.322147,-2.955794],[-79.321865,-2.954822],[-79.321734,-2.953884],[-79.321636,-2.952125],[-79.321802,-2.947394],[-79.321806,-2.944379],[-79.321634,-2.942863],[-79.321402,-2.941791],[-79.320705,-2.93978],[-79.320007,-2.93864],[-79.319542,-2.93812],[-79.318252,-2.937222],[-79.317386,-2.936785],[-79.316587,-2.936248],[-79.316022,-2.935711],[-79.314991,-2.934202],[-79.314609,-2.933515],[-79.313945,-2.931755],[-79.312846,-2.926151],[-79.309982,-2.925628],[-79.308575,-2.925165],[-79.306893,-2.924409],[-79.305396,-2.923284],[-79.304564,-2.922529],[-79.303949,-2.921708],[-79.303351,-2.920484],[-79.30287,-2.919127],[-79.302117,-2.916069],[-79.301918,-2.914846],[-79.301715,-2.911371],[-79.301452,-2.909478],[-79.301269,-2.908941],[-79.299982,-2.90657],[-79.299368,-2.904827],[-79.29882,-2.904022],[-79.298188,-2.903351],[-79.297489,-2.902714],[-79.296657,-2.902126],[-79.295741,-2.901606],[-79.294193,-2.901168],[-79.292796,-2.901637],[-79.291312,-2.902506],[-79.290044,-2.903677],[-79.285129,-2.910008],[-79.284495,-2.910661],[-79.279502,-2.913241],[-79.278952,-2.913642],[-79.277647,-2.916855],[-79.276101,-2.920328],[-79.275533,-2.921399],[-79.270942,-2.928426],[-79.270948,-2.928717],[-79.270068,-2.929331],[-79.269288,-2.930119],[-79.268768,-2.930488],[-79.268033,-2.931277],[-79.266933,-2.932105],[-79.265884,-2.932658],[-79.264913,-2.933282],[-79.264377,-2.933811],[-79.263874,-2.934456],[-79.262996,-2.935012],[-79.262515,-2.935083],[-79.262127,-2.935041],[-79.261174,-2.934702],[-79.260436,-2.934269],[-79.259051,-2.933983],[-79.258639,-2.934044],[-79.257892,-2.934294],[-79.257059,-2.934863],[-79.256287,-2.935204],[-79.255342,-2.935036],[-79.254913,-2.935992],[-79.253951,-2.937373],[-79.253789,-2.937508],[-79.253017,-2.93786],[-79.25173,-2.938008],[-79.251093,-2.938477],[-79.250668,-2.938594],[-79.249921,-2.939347],[-79.249734,-2.940355],[-79.249296,-2.940419],[-79.249158,-2.940527],[-79.249015,-2.941157],[-79.24866,-2.941527],[-79.248452,-2.94193],[-79.248043,-2.942289],[-79.247787,-2.942691],[-79.247245,-2.942664],[-79.247036,-2.942737],[-79.246291,-2.943911],[-79.245671,-2.944328],[-79.245044,-2.945119],[-79.24425,-2.945591],[-79.244015,-2.946176],[-79.24286,-2.94827],[-79.24285,-2.948785],[-79.243041,-2.949998],[-79.24303,-2.950386],[-79.242699,-2.951014],[-79.242557,-2.951097],[-79.242012,-2.951146],[-79.241416,-2.951374],[-79.240571,-2.952122],[-79.239321,-2.95258],[-79.239233,-2.952915],[-79.239354,-2.953372],[-79.23884,-2.954169],[-79.238355,-2.954494],[-79.238184,-2.95494],[-79.237947,-2.955075],[-79.23772,-2.955135],[-79.23754,-2.954807],[-79.237284,-2.954566],[-79.235953,-2.954158],[-79.23587,-2.953512],[-79.235741,-2.953267],[-79.234416,-2.95262],[-79.23425,-2.95233],[-79.234181,-2.95199],[-79.234231,-2.951319],[-79.233919,-2.951155],[-79.232988,-2.950901],[-79.232594,-2.950479],[-79.232453,-2.950011],[-79.231661,-2.948678],[-79.231746,-2.94767],[-79.231692,-2.947295],[-79.230247,-2.946164],[-79.230084,-2.945818],[-79.23,-2.94508],[-79.229907,-2.944872],[-79.229234,-2.944319],[-79.228347,-2.943091],[-79.227963,-2.941885],[-79.22709,-2.94115],[-79.226865,-2.940746],[-79.226384,-2.940154],[-79.226214,-2.940133],[-79.226006,-2.940233],[-79.22571,-2.9406],[-79.224631,-2.941036],[-79.224113,-2.940935],[-79.223701,-2.941019],[-79.223455,-2.941318],[-79.223284,-2.941801],[-79.223033,-2.942047],[-79.222606,-2.942067],[-79.222338,-2.941983],[-79.221321,-2.942027],[-79.220925,-2.941862],[-79.220638,-2.941639],[-79.220321,-2.941056],[-79.219669,-2.940965],[-79.219319,-2.940414],[-79.218674,-2.94017],[-79.218423,-2.939989],[-79.218232,-2.93975],[-79.217959,-2.939108],[-79.217573,-2.938563],[-79.21743,-2.938391],[-79.216955,-2.938191],[-79.216819,-2.937996],[-79.216613,-2.937303],[-79.216284,-2.93563],[-79.215483,-2.93549],[-79.214724,-2.935185],[-79.214281,-2.93526],[-79.213505,-2.935559],[-79.212995,-2.935568],[-79.212881,-2.935445],[-79.2126,-2.934627],[-79.212364,-2.934523],[-79.211625,-2.934483],[-79.211489,-2.93439],[-79.211279,-2.933802],[-79.211034,-2.933616],[-79.210397,-2.933503],[-79.210265,-2.933399],[-79.209912,-2.932662],[-79.209686,-2.932544],[-79.208896,-2.932799],[-79.208705,-2.932731],[-79.208288,-2.932247],[-79.208101,-2.932193],[-79.2072,-2.932307],[-79.205999,-2.931989],[-79.204546,-2.932423],[-79.203952,-2.932895],[-79.203123,-2.93275],[-79.202812,-2.933087],[-79.202652,-2.933507],[-79.202475,-2.933664],[-79.202336,-2.933671],[-79.201082,-2.93349],[-79.200205,-2.932943],[-79.198904,-2.932876],[-79.198163,-2.93269],[-79.197459,-2.932797],[-79.196027,-2.93263],[-79.195022,-2.932912],[-79.194598,-2.932855],[-79.194382,-2.932626],[-79.19409,-2.931984],[-79.193667,-2.931683]]]}},{"type":"Feature","properties":{"DPA_SECTOR":"010151999051","ZONA":"Zona 6","COD_PARROQ":"010151","PARROQ":"BAÐOS","Pob_total":140.0,"Area_Km2":42.0641959291,"Porc_NBI":96.9696969697},"geometry":{"type":"Polygon","coordinates":[[[-79.085413,-2.954354],[-79.08304,-2.957364],[-79.081458,-2.959213],[-79.081629,-2.959243],[-79.081383,-2.959401],[-79.08107,-2.959436],[-79.0772,-2.960754],[-79.075481,-2.961166],[-79.074946,-2.96141],[-79.074031,-2.961423],[-79.073395,-2.961598],[-79.072956,-2.961956],[-79.072696,-2.962291],[-79.071588,-2.963179],[-79.070916,-2.963924],[-79.070195,-2.964199],[-79.069422,-2.964754],[-79.068571,-2.964867],[-79.067809,-2.964721],[-79.067555,-2.964865],[-79.067071,-2.964874],[-79.066361,-2.965184],[-79.066872,-2.965985],[-79.067216,-2.966291],[-79.067424,-2.966416],[-79.068355,-2.966653],[-79.070102,-2.966575],[-79.0704,-2.966701],[-79.070597,-2.966695],[-79.071124,-2.966351],[-79.071299,-2.966317],[-79.07157,-2.966482],[-79.071711,-2.966766],[-79.072118,-2.966979],[-79.072316,-2.966979],[-79.07285,-2.966692],[-79.073115,-2.966706],[-79.074057,-2.96703],[-79.07528,-2.967185],[-79.075549,-2.967407],[-79.076143,-2.967678],[-79.076503,-2.967742],[-79.077562,-2.967677],[-79.078523,-2.967757],[-79.07869,-2.968017],[-79.079191,-2.96827],[-79.079843,-2.968913],[-79.080047,-2.968842],[-79.080215,-2.968542],[-79.080558,-2.968573],[-79.08096,-2.968969],[-79.081219,-2.969357],[-79.081549,-2.969518],[-79.081918,-2.970126],[-79.081906,-2.970541],[-79.082149,-2.970736],[-79.082317,-2.97069],[-79.082972,-2.970063],[-79.083148,-2.970065],[-79.083585,-2.970272],[-79.083984,-2.970298],[-79.084126,-2.970226],[-79.084384,-2.969848],[-79.084527,-2.969836],[-79.084727,-2.970057],[-79.085424,-2.969894],[-79.085738,-2.969578],[-79.08612,-2.969539],[-79.086261,-2.9696],[-79.086451,-2.969842],[-79.08668,-2.970482],[-79.087551,-2.971409],[-79.087701,-2.971899],[-79.087933,-2.9721],[-79.088536,-2.972344],[-79.088714,-2.972556],[-79.08878,-2.973075],[-79.088719,-2.973241],[-79.088418,-2.973563],[-79.088456,-2.973897],[-79.08876,-2.973993],[-79.090062,-2.974126],[-79.090442,-2.9744],[-79.090953,-2.975144],[-79.091293,-2.975427],[-79.091445,-2.975475],[-79.091804,-2.975209],[-79.091947,-2.975279],[-79.092408,-2.976565],[-79.093017,-2.976806],[-79.093221,-2.976988],[-79.093458,-2.977316],[-79.093531,-2.977673],[-79.093663,-2.977743],[-79.094204,-2.977688],[-79.094339,-2.977759],[-79.094809,-2.978157],[-79.095164,-2.978685],[-79.095569,-2.978681],[-79.095884,-2.978574],[-79.096421,-2.978662],[-79.097396,-2.979173],[-79.097995,-2.979296],[-79.098441,-2.97948],[-79.098662,-2.979694],[-79.098821,-2.980185],[-79.09904,-2.980383],[-79.099392,-2.980421],[-79.100196,-2.980844],[-79.100508,-2.980903],[-79.100753,-2.981115],[-79.101399,-2.981314],[-79.103355,-2.982809],[-79.103722,-2.983503],[-79.104388,-2.983911],[-79.104701,-2.984209],[-79.105588,-2.984389],[-79.105895,-2.984688],[-79.106511,-2.984929],[-79.106792,-2.985291],[-79.106955,-2.985756],[-79.107118,-2.985888],[-79.107143,-2.986004],[-79.107447,-2.98612],[-79.108164,-2.986133],[-79.109071,-2.986441],[-79.109824,-2.987696],[-79.110101,-2.987968],[-79.110348,-2.988035],[-79.110695,-2.987862],[-79.111243,-2.988065],[-79.111772,-2.987978],[-79.112469,-2.988146],[-79.112828,-2.988423],[-79.11285,-2.98856],[-79.112671,-2.988783],[-79.113121,-2.989356],[-79.113292,-2.989356],[-79.113688,-2.989126],[-79.114202,-2.98909],[-79.115119,-2.989242],[-79.115497,-2.989203],[-79.115774,-2.989044],[-79.116624,-2.988924],[-79.117322,-2.988642],[-79.117702,-2.988614],[-79.118637,-2.989005],[-79.119158,-2.989139],[-79.119925,-2.989516],[-79.120033,-2.989863],[-79.119862,-2.990422],[-79.119903,-2.990572],[-79.120111,-2.990759],[-79.120336,-2.990791],[-79.12097,-2.990535],[-79.122184,-2.990319],[-79.12264,-2.99012],[-79.122842,-2.9899],[-79.123072,-2.989279],[-79.123353,-2.989141],[-79.123961,-2.989588],[-79.12462,-2.990323],[-79.126808,-2.991178],[-79.127542,-2.990941],[-79.127922,-2.990969],[-79.128177,-2.991112],[-79.128581,-2.99152],[-79.128838,-2.991574],[-79.128992,-2.991538],[-79.129582,-2.991073],[-79.129888,-2.990969],[-79.132391,-2.991017],[-79.133871,-2.990933],[-79.134429,-2.990986],[-79.135721,-2.991459],[-79.136648,-2.991184],[-79.137048,-2.991174],[-79.138104,-2.991489],[-79.139226,-2.992173],[-79.139825,-2.992829],[-79.140422,-2.993071],[-79.141006,-2.993115],[-79.141293,-2.993047],[-79.142013,-2.992558],[-79.142746,-2.993189],[-79.143155,-2.99383],[-79.144056,-2.994347],[-79.144521,-2.994742],[-79.145331,-2.995132],[-79.145894,-2.995866],[-79.146301,-2.99617],[-79.147262,-2.996228],[-79.147446,-2.996151],[-79.147582,-2.995906],[-79.147795,-2.995735],[-79.148004,-2.995657],[-79.148909,-2.99572],[-79.148982,-2.995783],[-79.148924,-2.996311],[-79.149199,-2.996501],[-79.149352,-2.996714],[-79.149618,-2.996811],[-79.149941,-2.997229],[-79.150063,-2.997703],[-79.150908,-2.997167],[-79.151422,-2.9971],[-79.153292,-2.99762],[-79.153968,-2.998359],[-79.154157,-2.998743],[-79.154386,-2.99893],[-79.154988,-2.99907],[-79.155651,-2.999534],[-79.156337,-2.99964],[-79.156989,-2.999928],[-79.157333,-2.999863],[-79.157649,-2.999941],[-79.157955,-3.000196],[-79.158053,-3.000476],[-79.158258,-3.000679],[-79.159308,-3.001372],[-79.159471,-3.001944],[-79.159678,-3.00214],[-79.160311,-3.002252],[-79.160649,-3.002519],[-79.161574,-3.002956],[-79.162156,-3.002971],[-79.162475,-3.003134],[-79.162906,-3.003113],[-79.163125,-3.003201],[-79.163325,-3.003339],[-79.163509,-3.003783],[-79.163982,-3.003836],[-79.164161,-3.004382],[-79.164423,-3.004522],[-79.164592,-3.004749],[-79.16515,-3.004983],[-79.165262,-3.005272],[-79.165732,-3.005666],[-79.166086,-3.005847],[-79.166556,-3.00638],[-79.167238,-3.006885],[-79.16926,-3.007462],[-79.169609,-3.007439],[-79.170262,-3.007554],[-79.170486,-3.007363],[-79.170607,-3.007356],[-79.171448,-3.007941],[-79.171602,-3.008177],[-79.172106,-3.008234],[-79.172545,-3.008599],[-79.173565,-3.008818],[-79.174656,-3.009538],[-79.175511,-3.009909],[-79.176194,-3.010024],[-79.177606,-3.010641],[-79.178294,-3.011136],[-79.178798,-3.01124],[-79.179445,-3.011561],[-79.180092,-3.011689],[-79.180524,-3.012043],[-79.181183,-3.012349],[-79.181692,-3.012394],[-79.182208,-3.012919],[-79.182598,-3.013116],[-79.183363,-3.013738],[-79.183928,-3.013948],[-79.184005,-3.014227],[-79.183882,-3.015227],[-79.184004,-3.01586],[-79.184468,-3.016814],[-79.184943,-3.017368],[-79.184988,-3.017719],[-79.185342,-3.017978],[-79.185524,-3.018418],[-79.18593,-3.018814],[-79.186306,-3.01938],[-79.186972,-3.019441],[-79.187113,-3.019702],[-79.187344,-3.01988],[-79.187976,-3.020026],[-79.188373,-3.020422],[-79.188622,-3.020564],[-79.188743,-3.020516],[-79.188879,-3.020586],[-79.189151,-3.020891],[-79.189107,-3.021023],[-79.18892,-3.021027],[-79.189017,-3.021126],[-79.189878,-3.021491],[-79.19006,-3.021701],[-79.19035,-3.02182],[-79.190455,-3.02212],[-79.190634,-3.022343],[-79.190966,-3.022408],[-79.19105,-3.022522],[-79.191287,-3.022416],[-79.191577,-3.022528],[-79.191803,-3.022719],[-79.192158,-3.022728],[-79.192435,-3.022852],[-79.192782,-3.02262],[-79.193186,-3.022616],[-79.193476,-3.022521],[-79.193584,-3.02273],[-79.193908,-3.022728],[-79.193969,-3.022862],[-79.193902,-3.022991],[-79.193982,-3.023105],[-79.194339,-3.023124],[-79.194549,-3.02331],[-79.195053,-3.023345],[-79.19522,-3.02357],[-79.195335,-3.02356],[-79.195637,-3.023275],[-79.195799,-3.023477],[-79.196494,-3.023507],[-79.196731,-3.023686],[-79.197193,-3.023852],[-79.197604,-3.024374],[-79.197791,-3.024468],[-79.199173,-3.024597],[-79.199271,-3.024494],[-79.199561,-3.02444],[-79.199952,-3.024593],[-79.200281,-3.024291],[-79.200525,-3.024361],[-79.200621,-3.024083],[-79.200855,-3.023936],[-79.201408,-3.023738],[-79.202122,-3.023594],[-79.202521,-3.023419],[-79.20268,-3.023458],[-79.204323,-3.023205],[-79.205123,-3.022542],[-79.205569,-3.021951],[-79.206425,-3.021638],[-79.207611,-3.021048],[-79.207781,-3.02102],[-79.208058,-3.021129],[-79.208119,-3.021361],[-79.208046,-3.021819],[-79.208398,-3.022052],[-79.208722,-3.022138],[-79.209605,-3.022945],[-79.211296,-3.022122],[-79.213463,-3.020858],[-79.213979,-3.020721],[-79.214861,-3.020659],[-79.215912,-3.020936],[-79.217392,-3.02197],[-79.218457,-3.021998],[-79.218752,-3.022087],[-79.219311,-3.02294],[-79.219902,-3.023432],[-79.220239,-3.023484],[-79.221011,-3.023299],[-79.221511,-3.023297],[-79.22189,-3.023014],[-79.222127,-3.022283],[-79.222442,-3.022066],[-79.223071,-3.022086],[-79.224193,-3.02193],[-79.224581,-3.022319],[-79.224699,-3.022205],[-79.224946,-3.022169],[-79.22566,-3.022245],[-79.22598,-3.022086],[-79.226051,-3.022006],[-79.226088,-3.021636],[-79.226309,-3.021577],[-79.226816,-3.020976],[-79.227035,-3.020886],[-79.227461,-3.020949],[-79.227911,-3.020781],[-79.228117,-3.020885],[-79.228777,-3.020462],[-79.228627,-3.020212],[-79.228663,-3.020132],[-79.229726,-3.019698],[-79.229682,-3.019219],[-79.230441,-3.0186],[-79.230495,-3.018347],[-79.230735,-3.018019],[-79.230595,-3.017425],[-79.230899,-3.01679],[-79.23092,-3.016273],[-79.231039,-3.016035],[-79.231533,-3.015674],[-79.231662,-3.015455],[-79.231667,-3.015197],[-79.231557,-3.014933],[-79.23179,-3.014776],[-79.231867,-3.014399],[-79.231904,-3.013488],[-79.231678,-3.012573],[-79.231858,-3.011944],[-79.231683,-3.011452],[-79.230652,-3.010666],[-79.230609,-3.010444],[-79.230694,-3.010198],[-79.230496,-3.010022],[-79.230443,-3.009206],[-79.230167,-3.008833],[-79.230278,-3.008546],[-79.229811,-3.00767],[-79.229553,-3.007741],[-79.229439,-3.007561],[-79.229629,-3.007219],[-79.229499,-3.006946],[-79.230033,-3.006527],[-79.23033,-3.005765],[-79.230397,-3.005384],[-79.230351,-3.005265],[-79.230151,-3.005027],[-79.229335,-3.00495],[-79.229088,-3.004856],[-79.228511,-3.004498],[-79.22802,-3.004023],[-79.22772,-3.00387],[-79.226646,-3.003553],[-79.225433,-3.003468],[-79.225122,-3.003419],[-79.22504,-3.003335],[-79.223465,-3.003279],[-79.222043,-3.003814],[-79.221203,-3.003934],[-79.220082,-3.004273],[-79.219171,-3.005003],[-79.218637,-3.005648],[-79.217813,-3.006892],[-79.216443,-3.008357],[-79.216083,-3.008597],[-79.215423,-3.008536],[-79.215017,-3.008722],[-79.214388,-3.009465],[-79.214043,-3.009738],[-79.213473,-3.009977],[-79.21274,-3.010059],[-79.211657,-3.010429],[-79.211139,-3.010309],[-79.210594,-3.010345],[-79.210257,-3.010254],[-79.208825,-3.010453],[-79.207932,-3.01011],[-79.207267,-3.009327],[-79.206339,-3.008462],[-79.205286,-3.007884],[-79.204661,-3.007718],[-79.204068,-3.007296],[-79.203704,-3.006903],[-79.203327,-3.006277],[-79.202835,-3.005808],[-79.201134,-3.005723],[-79.200188,-3.005972],[-79.20001,-3.005982],[-79.199885,-3.005896],[-79.199326,-3.004815],[-79.199157,-3.004188],[-79.198945,-3.003756],[-79.197788,-3.002366],[-79.197437,-3.001513],[-79.197194,-3.00117],[-79.195594,-3.000746],[-79.192816,-2.999641],[-79.19231,-2.999519],[-79.191907,-2.999303],[-79.190808,-2.998373],[-79.190545,-2.997816],[-79.189498,-2.996853],[-79.18912,-2.996201],[-79.188194,-2.995892],[-79.187619,-2.995547],[-79.186964,-2.995594],[-79.186188,-2.995131],[-79.185702,-2.994985],[-79.185579,-2.995052],[-79.185344,-2.995427],[-79.185211,-2.99549],[-79.184576,-2.995332],[-79.184119,-2.99549],[-79.183625,-2.995126],[-79.182936,-2.994919],[-79.182859,-2.994494],[-79.182181,-2.99443],[-79.181593,-2.993926],[-79.181297,-2.993877],[-79.180783,-2.993934],[-79.180231,-2.993676],[-79.179442,-2.993476],[-79.179263,-2.993223],[-79.179124,-2.992599],[-79.178601,-2.992189],[-79.177646,-2.991887],[-79.17722,-2.992018],[-79.176912,-2.992021],[-79.176738,-2.991833],[-79.176287,-2.990889],[-79.175677,-2.990453],[-79.175362,-2.99038],[-79.174485,-2.990536],[-79.174258,-2.990156],[-79.173454,-2.989752],[-79.173374,-2.989644],[-79.173427,-2.989365],[-79.173342,-2.989255],[-79.172346,-2.988602],[-79.172262,-2.988024],[-79.172177,-2.987911],[-79.17116,-2.987537],[-79.171,-2.987143],[-79.17137,-2.985603],[-79.171031,-2.985205],[-79.17097,-2.984465],[-79.170523,-2.984138],[-79.170296,-2.983556],[-79.169913,-2.983297],[-79.169691,-2.982924],[-79.169472,-2.982729],[-79.168758,-2.982471],[-79.168608,-2.982347],[-79.168313,-2.981608],[-79.167746,-2.980993],[-79.166618,-2.979396],[-79.165875,-2.978897],[-79.164305,-2.978444],[-79.162897,-2.978721],[-79.161656,-2.978666],[-79.160708,-2.978481],[-79.159986,-2.978197],[-79.159228,-2.977588],[-79.157915,-2.977248],[-79.157611,-2.976902],[-79.156881,-2.976477],[-79.155964,-2.976269],[-79.155313,-2.975587],[-79.155173,-2.975363],[-79.155169,-2.974964],[-79.154556,-2.974204],[-79.153819,-2.973678],[-79.153096,-2.973358],[-79.152697,-2.972989],[-79.152593,-2.972557],[-79.151257,-2.971759],[-79.150708,-2.970662],[-79.150407,-2.970532],[-79.150105,-2.970251],[-79.149005,-2.970206],[-79.147888,-2.969951],[-79.147762,-2.969802],[-79.147748,-2.969441],[-79.147448,-2.969298],[-79.146843,-2.96929],[-79.14539,-2.96956],[-79.145003,-2.969191],[-79.144347,-2.968965],[-79.14379,-2.968902],[-79.143125,-2.968652],[-79.142557,-2.968611],[-79.14212,-2.9688],[-79.141696,-2.968823],[-79.141299,-2.968652],[-79.140775,-2.968185],[-79.140332,-2.968025],[-79.139995,-2.967531],[-79.139805,-2.967413],[-79.139531,-2.967445],[-79.139128,-2.96775],[-79.139019,-2.968078],[-79.138662,-2.968194],[-79.138366,-2.968156],[-79.138046,-2.967896],[-79.137887,-2.967859],[-79.137667,-2.967956],[-79.137442,-2.968475],[-79.137114,-2.968529],[-79.136833,-2.968441],[-79.13661,-2.968116],[-79.13617,-2.96781],[-79.135922,-2.96743],[-79.135454,-2.966943],[-79.13505,-2.96673],[-79.13465,-2.96665],[-79.133746,-2.966723],[-79.133273,-2.966329],[-79.132682,-2.966449],[-79.131103,-2.965996],[-79.130428,-2.966419],[-79.129799,-2.966399],[-79.129583,-2.966223],[-79.129482,-2.965482],[-79.129304,-2.964993],[-79.129085,-2.965185],[-79.129059,-2.965787],[-79.1289,-2.965875],[-79.128523,-2.965828],[-79.127889,-2.965382],[-79.126854,-2.964111],[-79.126758,-2.963621],[-79.126699,-2.963525],[-79.126621,-2.963616],[-79.126463,-2.963484],[-79.126368,-2.963052],[-79.126263,-2.96295],[-79.124594,-2.962688],[-79.124342,-2.962711],[-79.124224,-2.962864],[-79.124375,-2.96356],[-79.124312,-2.964274],[-79.124155,-2.964322],[-79.12381,-2.96408],[-79.123518,-2.963734],[-79.123167,-2.96365],[-79.122778,-2.963686],[-79.122387,-2.964137],[-79.1219,-2.962986],[-79.122173,-2.962363],[-79.121855,-2.961761],[-79.121549,-2.96174],[-79.121162,-2.962007],[-79.120939,-2.962211],[-79.120637,-2.962682],[-79.120331,-2.96234],[-79.119763,-2.962077],[-79.119454,-2.961784],[-79.118776,-2.961774],[-79.11847,-2.962078],[-79.118155,-2.962148],[-79.118019,-2.961962],[-79.118175,-2.961566],[-79.117962,-2.961243],[-79.117941,-2.960846],[-79.117807,-2.960778],[-79.117458,-2.960864],[-79.116731,-2.961409],[-79.116401,-2.961344],[-79.115834,-2.960645],[-79.115803,-2.960109],[-79.115383,-2.959725],[-79.115163,-2.959624],[-79.115002,-2.959846],[-79.114922,-2.959825],[-79.114783,-2.959563],[-79.114462,-2.959442],[-79.114303,-2.958958],[-79.113783,-2.958312],[-79.113443,-2.95811],[-79.113004,-2.957405],[-79.112143,-2.956899],[-79.111464,-2.956012],[-79.110383,-2.955526],[-79.109943,-2.955505],[-79.109743,-2.955384],[-79.108823,-2.954416],[-79.108803,-2.954274],[-79.109084,-2.954033],[-79.109002,-2.953823],[-79.108154,-2.953798],[-79.107673,-2.953332],[-79.107673,-2.953939],[-79.107881,-2.954115],[-79.1083,-2.954262],[-79.108185,-2.95466],[-79.108271,-2.955155],[-79.108201,-2.955356],[-79.10764,-2.955466],[-79.107459,-2.955607],[-79.107489,-2.955839],[-79.107828,-2.956359],[-79.106344,-2.956573],[-79.105692,-2.956813],[-79.104419,-2.956926],[-79.102883,-2.956062],[-79.102403,-2.955459],[-79.102241,-2.954726],[-79.10137,-2.954042],[-79.100673,-2.952548],[-79.099891,-2.951395],[-79.099653,-2.950513],[-79.09618,-2.950565],[-79.094911,-2.951155],[-79.094541,-2.951401],[-79.093963,-2.951593],[-79.093703,-2.951756],[-79.093548,-2.952205],[-79.093108,-2.952792],[-79.092773,-2.953648],[-79.092569,-2.953847],[-79.091708,-2.954369],[-79.090617,-2.954653],[-79.08789,-2.954869],[-79.087204,-2.954779],[-79.085903,-2.954124],[-79.085524,-2.954375],[-79.085413,-2.954354]]]}},{"type":"Feature","properties":{"DPA_SECTOR":"010151999035","ZONA":"Zona 6","COD_PARROQ":"010151","PARROQ":"BAÐOS","Pob_total":213.0,"Area_Km2":7.09175578406,"Porc_NBI":60.3773584906},"geometry":{"type":"Polygon","coordinates":[[[-79.061349,-2.926188],[-79.060829,-2.926574],[-79.060638,-2.926492],[-79.060678,-2.926362],[-79.060558,-2.926318],[-79.05998,-2.926344],[-79.059407,-2.927255],[-79.060069,-2.929055],[-79.061146,-2.93111],[-79.061232,-2.931679],[-79.060926,-2.932247],[-79.060864,-2.932834],[-79.059608,-2.933601],[-79.057757,-2.93385],[-79.056834,-2.934255],[-79.055997,-2.934294],[-79.055262,-2.934532],[-79.054554,-2.934977],[-79.053957,-2.935536],[-79.053613,-2.936089],[-79.053862,-2.936262],[-79.054108,-2.936651],[-79.054589,-2.936874],[-79.054696,-2.937112],[-79.055029,-2.937259],[-79.055051,-2.937539],[-79.055508,-2.938392],[-79.056128,-2.93874],[-79.056547,-2.939595],[-79.05749,-2.940044],[-79.058873,-2.940229],[-79.059008,-2.940335],[-79.059217,-2.940768],[-79.059372,-2.940826],[-79.059728,-2.940864],[-79.060206,-2.940773],[-79.060619,-2.940961],[-79.061327,-2.941518],[-79.061619,-2.942162],[-79.061948,-2.942603],[-79.062665,-2.942948],[-79.063136,-2.943337],[-79.063464,-2.943405],[-79.064128,-2.943331],[-79.064756,-2.943665],[-79.064932,-2.943911],[-79.065387,-2.944247],[-79.0656,-2.944866],[-79.065842,-2.945034],[-79.066229,-2.945693],[-79.066529,-2.945989],[-79.06768,-2.94628],[-79.069205,-2.946943],[-79.069776,-2.948378],[-79.070131,-2.948777],[-79.070236,-2.949033],[-79.070373,-2.949986],[-79.070906,-2.950671],[-79.070943,-2.950833],[-79.070739,-2.95119],[-79.070818,-2.951909],[-79.071265,-2.952537],[-79.071491,-2.952734],[-79.071865,-2.952944],[-79.072766,-2.953118],[-79.07334,-2.953421],[-79.073891,-2.953518],[-79.074405,-2.953834],[-79.075021,-2.953723],[-79.075904,-2.953839],[-79.076277,-2.954105],[-79.076747,-2.954256],[-79.077027,-2.954606],[-79.077402,-2.954861],[-79.077844,-2.955486],[-79.078789,-2.955826],[-79.079484,-2.956177],[-79.08016,-2.95634],[-79.081168,-2.956325],[-79.082066,-2.956157],[-79.083498,-2.955653],[-79.083864,-2.955617],[-79.084139,-2.955461],[-79.084442,-2.955147],[-79.08443,-2.954998],[-79.084936,-2.954353],[-79.085068,-2.954291],[-79.085524,-2.954375],[-79.085903,-2.954124],[-79.087204,-2.954779],[-79.08789,-2.954869],[-79.090617,-2.954653],[-79.091708,-2.954369],[-79.092569,-2.953847],[-79.092773,-2.953648],[-79.093108,-2.952792],[-79.093548,-2.952205],[-79.093703,-2.951756],[-79.093963,-2.951593],[-79.094541,-2.951401],[-79.094911,-2.951155],[-79.09618,-2.950565],[-79.099653,-2.950513],[-79.099673,-2.950388],[-79.099983,-2.950134],[-79.099829,-2.949886],[-79.100284,-2.949088],[-79.100164,-2.948771],[-79.100148,-2.9484],[-79.100329,-2.947719],[-79.100146,-2.947247],[-79.10006,-2.946673],[-79.099969,-2.946551],[-79.099454,-2.946441],[-79.09887,-2.945961],[-79.098701,-2.945915],[-79.098346,-2.945974],[-79.097819,-2.946502],[-79.097663,-2.946566],[-79.097464,-2.946578],[-79.097007,-2.946408],[-79.096326,-2.945855],[-79.096041,-2.944805],[-79.095842,-2.944578],[-79.094504,-2.944298],[-79.094186,-2.944003],[-79.093729,-2.94324],[-79.093404,-2.943198],[-79.09265,-2.943298],[-79.092339,-2.943184],[-79.092139,-2.942529],[-79.092049,-2.941555],[-79.091386,-2.940323],[-79.089438,-2.937947],[-79.088083,-2.937297],[-79.086322,-2.937352],[-79.085613,-2.937253],[-79.084968,-2.937074],[-79.08458,-2.936825],[-79.082826,-2.93646],[-79.082309,-2.936607],[-79.081726,-2.936647],[-79.080452,-2.937606],[-79.079555,-2.938046],[-79.079284,-2.937989],[-79.078872,-2.937496],[-79.077921,-2.937759],[-79.076986,-2.937887],[-79.076232,-2.938185],[-79.075817,-2.938222],[-79.07502,-2.938011],[-79.074048,-2.937502],[-79.07326,-2.937488],[-79.073034,-2.937267],[-79.072794,-2.936758],[-79.07229,-2.936593],[-79.072047,-2.936184],[-79.071706,-2.936127],[-79.070748,-2.935323],[-79.070391,-2.935135],[-79.069631,-2.93513],[-79.06946,-2.935154],[-79.069265,-2.935374],[-79.069112,-2.935411],[-79.068826,-2.935333],[-79.068322,-2.935414],[-79.068184,-2.935332],[-79.068047,-2.934923],[-79.067979,-2.935211],[-79.067865,-2.935182],[-79.06761,-2.93485],[-79.067336,-2.935201],[-79.067074,-2.935832],[-79.067053,-2.935996],[-79.067138,-2.936106],[-79.067518,-2.93635],[-79.067469,-2.93651],[-79.06731,-2.93653],[-79.066693,-2.936332],[-79.066442,-2.93598],[-79.065914,-2.93553],[-79.06551,-2.935339],[-79.063593,-2.934746],[-79.063182,-2.934509],[-79.063122,-2.934471],[-79.06339,-2.933777],[-79.062925,-2.933154],[-79.062933,-2.931745],[-79.062855,-2.930838],[-79.062937,-2.930727],[-79.063661,-2.930673],[-79.063727,-2.929335],[-79.063636,-2.929271],[-79.063633,-2.9291],[-79.064006,-2.927996],[-79.06404,-2.927428],[-79.063964,-2.927063],[-79.063557,-2.926003],[-79.063468,-2.925543],[-79.063342,-2.925345],[-79.062234,-2.925608],[-79.062231,-2.925929],[-79.061349,-2.926188]]]}},{"type":"Feature","properties":{"DPA_SECTOR":"010151999028","ZONA":"Zona 6","COD_PARROQ":"010151","PARROQ":"BAÐOS","Pob_total":201.0,"Area_Km2":1.29261307973,"Porc_NBI":100.0},"geometry":{"type":"Polygon","coordinates":[[[-79.081209,-2.927963],[-79.081517,-2.92838],[-79.081466,-2.929188],[-79.081766,-2.929615],[-79.081866,-2.930052],[-79.081725,-2.931124],[-79.08186,-2.931778],[-79.081831,-2.932155],[-79.082187,-2.932853],[-79.082731,-2.933523],[-79.085182,-2.935037],[-79.090243,-2.937535],[-79.090877,-2.938071],[-79.093115,-2.939392],[-79.093814,-2.938175],[-79.094292,-2.938273],[-79.094927,-2.938268],[-79.095232,-2.938875],[-79.095657,-2.939296],[-79.095883,-2.939875],[-79.096194,-2.939984],[-79.095864,-2.93926],[-79.095775,-2.938771],[-79.095777,-2.937932],[-79.095547,-2.937593],[-79.095336,-2.937417],[-79.094848,-2.937328],[-79.094617,-2.936917],[-79.093701,-2.936244],[-79.092854,-2.935377],[-79.092292,-2.935007],[-79.092426,-2.93363],[-79.092278,-2.932588],[-79.092392,-2.932121],[-79.092134,-2.931245],[-79.092412,-2.930631],[-79.092401,-2.930319],[-79.092213,-2.930103],[-79.091956,-2.929991],[-79.091894,-2.929767],[-79.091635,-2.929481],[-79.091451,-2.929008],[-79.091573,-2.928524],[-79.092123,-2.928082],[-79.092082,-2.927761],[-79.09195,-2.927783],[-79.091438,-2.928262],[-79.0911,-2.928747],[-79.091236,-2.929241],[-79.091651,-2.929867],[-79.09161,-2.930006],[-79.091281,-2.930006],[-79.090993,-2.929897],[-79.090494,-2.928984],[-79.09016,-2.92873],[-79.089729,-2.928546],[-79.089672,-2.928386],[-79.089817,-2.927939],[-79.090759,-2.927063],[-79.090782,-2.926913],[-79.090675,-2.926835],[-79.090384,-2.926915],[-79.08945,-2.927644],[-79.08828,-2.928115],[-79.087271,-2.927883],[-79.086608,-2.927544],[-79.085818,-2.926685],[-79.085714,-2.926189],[-79.085532,-2.925963],[-79.084962,-2.925317],[-79.084362,-2.924944],[-79.083704,-2.924137],[-79.082632,-2.924504],[-79.080777,-2.924966],[-79.08126,-2.92711],[-79.081171,-2.927372],[-79.081209,-2.927963]]]}},{"type":"Feature","properties":{"DPA_SECTOR":"010151999052","ZONA":"Zona 6","COD_PARROQ":"010151","PARROQ":"BAÐOS","Pob_total":162.0,"Area_Km2":26.6203499333,"Porc_NBI":97.5},"geometry":{"type":"Polygon","coordinates":[[[-79.092105,-2.927166],[-79.092056,-2.927553],[-79.092123,-2.928082],[-79.091573,-2.928524],[-79.091451,-2.929008],[-79.091635,-2.929481],[-79.091894,-2.929767],[-79.091956,-2.929991],[-79.092213,-2.930103],[-79.092401,-2.930319],[-79.092412,-2.930631],[-79.092134,-2.931245],[-79.092392,-2.932121],[-79.092278,-2.932588],[-79.092426,-2.93363],[-79.092292,-2.935007],[-79.092854,-2.935377],[-79.093701,-2.936244],[-79.094617,-2.936917],[-79.094848,-2.937328],[-79.095336,-2.937417],[-79.095547,-2.937593],[-79.095777,-2.937932],[-79.095775,-2.938771],[-79.095864,-2.93926],[-79.09609,-2.939847],[-79.096805,-2.94088],[-79.096786,-2.941206],[-79.097023,-2.941588],[-79.097205,-2.942466],[-79.097492,-2.942819],[-79.098324,-2.943207],[-79.098556,-2.94382],[-79.098526,-2.943979],[-79.098775,-2.944324],[-79.099632,-2.945007],[-79.100148,-2.945127],[-79.10052,-2.945379],[-79.101374,-2.946457],[-79.101551,-2.947325],[-79.101574,-2.948622],[-79.101882,-2.948955],[-79.101797,-2.949836],[-79.101689,-2.950297],[-79.101533,-2.950567],[-79.101717,-2.951309],[-79.100403,-2.952178],[-79.100673,-2.952548],[-79.10137,-2.954042],[-79.102241,-2.954726],[-79.102403,-2.955459],[-79.102883,-2.956062],[-79.104419,-2.956926],[-79.105692,-2.956813],[-79.106344,-2.956573],[-79.107828,-2.956359],[-79.107489,-2.955839],[-79.107459,-2.955607],[-79.10764,-2.955466],[-79.108201,-2.955356],[-79.108271,-2.955155],[-79.108185,-2.95466],[-79.1083,-2.954262],[-79.107881,-2.954115],[-79.107673,-2.953939],[-79.107673,-2.953332],[-79.108154,-2.953798],[-79.109002,-2.953823],[-79.109084,-2.954033],[-79.108803,-2.954274],[-79.108823,-2.954416],[-79.109743,-2.955384],[-79.109943,-2.955505],[-79.110383,-2.955526],[-79.111464,-2.956012],[-79.112143,-2.956899],[-79.113004,-2.957405],[-79.113443,-2.95811],[-79.113783,-2.958312],[-79.114303,-2.958958],[-79.114462,-2.959442],[-79.114783,-2.959563],[-79.114922,-2.959825],[-79.115002,-2.959846],[-79.115163,-2.959624],[-79.115383,-2.959725],[-79.115803,-2.960109],[-79.115834,-2.960645],[-79.116401,-2.961344],[-79.116731,-2.961409],[-79.117458,-2.960864],[-79.117807,-2.960778],[-79.117941,-2.960846],[-79.117962,-2.961243],[-79.118175,-2.961566],[-79.118019,-2.961962],[-79.118155,-2.962148],[-79.11847,-2.962078],[-79.118776,-2.961774],[-79.119454,-2.961784],[-79.119763,-2.962077],[-79.120331,-2.96234],[-79.120637,-2.962682],[-79.120939,-2.962211],[-79.121162,-2.962007],[-79.121549,-2.96174],[-79.121855,-2.961761],[-79.122173,-2.962363],[-79.1219,-2.962986],[-79.122387,-2.964137],[-79.122778,-2.963686],[-79.123167,-2.96365],[-79.123518,-2.963734],[-79.12381,-2.96408],[-79.124155,-2.964322],[-79.124312,-2.964274],[-79.124375,-2.96356],[-79.124224,-2.962864],[-79.124342,-2.962711],[-79.124594,-2.962688],[-79.126263,-2.96295],[-79.126368,-2.963052],[-79.126463,-2.963484],[-79.126621,-2.963616],[-79.126699,-2.963525],[-79.126758,-2.963621],[-79.126854,-2.964111],[-79.127889,-2.965382],[-79.128523,-2.965828],[-79.1289,-2.965875],[-79.129059,-2.965787],[-79.129085,-2.965185],[-79.129304,-2.964993],[-79.129482,-2.965482],[-79.129583,-2.966223],[-79.129799,-2.966399],[-79.130428,-2.966419],[-79.131103,-2.965996],[-79.132682,-2.966449],[-79.133273,-2.966329],[-79.133746,-2.966723],[-79.13465,-2.96665],[-79.13505,-2.96673],[-79.135454,-2.966943],[-79.135922,-2.96743],[-79.13617,-2.96781],[-79.13661,-2.968116],[-79.136833,-2.968441],[-79.137114,-2.968529],[-79.137442,-2.968475],[-79.137667,-2.967956],[-79.137887,-2.967859],[-79.138046,-2.967896],[-79.138366,-2.968156],[-79.138662,-2.968194],[-79.139019,-2.968078],[-79.139128,-2.96775],[-79.139531,-2.967445],[-79.139805,-2.967413],[-79.139995,-2.967531],[-79.140332,-2.968025],[-79.140775,-2.968185],[-79.141299,-2.968652],[-79.141696,-2.968823],[-79.14212,-2.9688],[-79.142557,-2.968611],[-79.143125,-2.968652],[-79.14379,-2.968902],[-79.144347,-2.968965],[-79.145003,-2.969191],[-79.14539,-2.96956],[-79.146843,-2.96929],[-79.147448,-2.969298],[-79.147748,-2.969441],[-79.147762,-2.969802],[-79.147888,-2.969951],[-79.149005,-2.970206],[-79.150105,-2.970251],[-79.150407,-2.970532],[-79.150708,-2.970662],[-79.151257,-2.971759],[-79.152593,-2.972557],[-79.152697,-2.972989],[-79.153096,-2.973358],[-79.153819,-2.973678],[-79.154556,-2.974204],[-79.155169,-2.974964],[-79.155173,-2.975363],[-79.155313,-2.975587],[-79.155964,-2.976269],[-79.156881,-2.976477],[-79.157611,-2.976902],[-79.157915,-2.977248],[-79.159228,-2.977588],[-79.159986,-2.978197],[-79.160708,-2.978481],[-79.161656,-2.978666],[-79.162897,-2.978721],[-79.164305,-2.978444],[-79.165875,-2.978897],[-79.166618,-2.979396],[-79.167746,-2.980993],[-79.168313,-2.981608],[-79.168608,-2.982347],[-79.168758,-2.982471],[-79.169472,-2.982729],[-79.169691,-2.982924],[-79.169913,-2.983297],[-79.170296,-2.983556],[-79.170523,-2.984138],[-79.17097,-2.984465],[-79.171031,-2.985205],[-79.17137,-2.985603],[-79.171,-2.987143],[-79.17116,-2.987537],[-79.172177,-2.987911],[-79.172262,-2.988024],[-79.172346,-2.988602],[-79.173342,-2.989255],[-79.173427,-2.989365],[-79.173374,-2.989644],[-79.173454,-2.989752],[-79.174258,-2.990156],[-79.174485,-2.990536],[-79.17537,-2.990382],[-79.175572,-2.985862],[-79.175534,-2.985091],[-79.175295,-2.984026],[-79.175338,-2.981911],[-79.175106,-2.981008],[-79.174915,-2.980682],[-79.174942,-2.980332],[-79.174803,-2.979958],[-79.174739,-2.979403],[-79.174843,-2.979],[-79.175328,-2.978824],[-79.175339,-2.978173],[-79.175239,-2.977547],[-79.175509,-2.977139],[-79.175514,-2.976719],[-79.175388,-2.976429],[-79.174781,-2.975851],[-79.174637,-2.975406],[-79.174807,-2.97501],[-79.175386,-2.974503],[-79.175635,-2.974142],[-79.17591,-2.973193],[-79.176638,-2.971558],[-79.176698,-2.970732],[-79.176408,-2.969452],[-79.176062,-2.968555],[-79.175598,-2.96777],[-79.175226,-2.966834],[-79.175201,-2.966346],[-79.174944,-2.966083],[-79.174391,-2.964981],[-79.174154,-2.964755],[-79.174145,-2.964519],[-79.173964,-2.964213],[-79.173486,-2.963809],[-79.173514,-2.963243],[-79.173453,-2.963042],[-79.173277,-2.962891],[-79.172847,-2.962798],[-79.172616,-2.962438],[-79.172091,-2.962353],[-79.17183,-2.962209],[-79.171761,-2.962058],[-79.171876,-2.96174],[-79.171484,-2.961524],[-79.171364,-2.961027],[-79.1704,-2.960004],[-79.169692,-2.958749],[-79.169274,-2.958287],[-79.16871,-2.957881],[-79.167774,-2.957442],[-79.167931,-2.956881],[-79.167895,-2.956717],[-79.167412,-2.956446],[-79.167283,-2.956179],[-79.167243,-2.955859],[-79.166632,-2.955275],[-79.166182,-2.954258],[-79.165762,-2.953892],[-79.165164,-2.953073],[-79.164708,-2.95261],[-79.164742,-2.952059],[-79.164683,-2.95183],[-79.163959,-2.951404],[-79.163809,-2.951177],[-79.163748,-2.950839],[-79.163145,-2.950514],[-79.162393,-2.950523],[-79.162002,-2.950205],[-79.161378,-2.949984],[-79.160864,-2.950019],[-79.159836,-2.95027],[-79.158845,-2.949929],[-79.158403,-2.949948],[-79.155158,-2.951019],[-79.154693,-2.950992],[-79.154051,-2.950732],[-79.153114,-2.950589],[-79.152483,-2.950151],[-79.15204,-2.949692],[-79.151436,-2.947709],[-79.150399,-2.946532],[-79.150027,-2.945923],[-79.14968,-2.945559],[-79.149405,-2.945593],[-79.149045,-2.945859],[-79.148625,-2.94588],[-79.148328,-2.945796],[-79.147581,-2.945078],[-79.146884,-2.944787],[-79.146737,-2.944528],[-79.145386,-2.943657],[-79.144752,-2.94343],[-79.144377,-2.943165],[-79.144071,-2.942833],[-79.143443,-2.941493],[-79.143281,-2.939971],[-79.1431,-2.939836],[-79.142505,-2.939944],[-79.14214,-2.939799],[-79.141852,-2.939157],[-79.141635,-2.938315],[-79.141354,-2.93774],[-79.14033,-2.937053],[-79.139644,-2.936082],[-79.139022,-2.935671],[-79.138246,-2.934791],[-79.137607,-2.934665],[-79.135606,-2.934804],[-79.134836,-2.934664],[-79.13456,-2.934486],[-79.133945,-2.933575],[-79.133642,-2.933466],[-79.133012,-2.933429],[-79.132645,-2.933271],[-79.131562,-2.932357],[-79.131219,-2.932186],[-79.130626,-2.93215],[-79.129569,-2.932503],[-79.128532,-2.932567],[-79.128168,-2.932444],[-79.1274,-2.931826],[-79.127089,-2.931769],[-79.126421,-2.932097],[-79.125812,-2.932254],[-79.12547,-2.932447],[-79.125283,-2.932703],[-79.124882,-2.934069],[-79.123444,-2.935532],[-79.122778,-2.936471],[-79.122464,-2.936632],[-79.12178,-2.936805],[-79.121093,-2.936807],[-79.12068,-2.936718],[-79.120306,-2.936496],[-79.118374,-2.934992],[-79.118006,-2.934387],[-79.117572,-2.933911],[-79.115608,-2.932892],[-79.115122,-2.932335],[-79.114795,-2.931758],[-79.114444,-2.931623],[-79.113163,-2.93165],[-79.110625,-2.930956],[-79.109692,-2.930995],[-79.108968,-2.930907],[-79.108716,-2.930729],[-79.108452,-2.930355],[-79.107941,-2.929142],[-79.107735,-2.928905],[-79.107516,-2.928826],[-79.107139,-2.928825],[-79.105985,-2.929323],[-79.105216,-2.929419],[-79.104918,-2.929324],[-79.104467,-2.928751],[-79.1041,-2.928559],[-79.102675,-2.928685],[-79.101753,-2.927987],[-79.101229,-2.927804],[-79.100358,-2.927638],[-79.099375,-2.927575],[-79.098858,-2.92705],[-79.098448,-2.926907],[-79.098121,-2.926873],[-79.096676,-2.927237],[-79.095536,-2.927134],[-79.094844,-2.926876],[-79.094401,-2.92661],[-79.093724,-2.92603],[-79.093344,-2.925462],[-79.093227,-2.925225],[-79.09319,-2.924871],[-79.09309,-2.924787],[-79.093012,-2.925022],[-79.092814,-2.925145],[-79.092696,-2.925408],[-79.092678,-2.925976],[-79.092217,-2.926355],[-79.092186,-2.92653],[-79.092342,-2.926802],[-79.092342,-2.926985],[-79.092105,-2.927166]]]}},{"type":"Feature","properties":{"DPA_SECTOR":"010151999027","ZONA":"Zona 6","COD_PARROQ":"010151","PARROQ":"BAÐOS","Pob_total":214.0,"Area_Km2":0.72073618606,"Porc_NBI":96.0784313725},"geometry":{"type":"Polygon","coordinates":[[[-79.081759,-2.920093],[-79.082612,-2.920262],[-79.082866,-2.920658],[-79.082997,-2.920735],[-79.083539,-2.920705],[-79.083634,-2.92078],[-79.084331,-2.921936],[-79.083704,-2.924137],[-79.084362,-2.924944],[-79.084962,-2.925317],[-79.085532,-2.925963],[-79.085714,-2.926189],[-79.085818,-2.926685],[-79.086608,-2.927544],[-79.087271,-2.927883],[-79.08828,-2.928115],[-79.08945,-2.927644],[-79.090384,-2.926915],[-79.090675,-2.926835],[-79.090782,-2.926913],[-79.090759,-2.927063],[-79.089817,-2.927939],[-79.089672,-2.928386],[-79.089729,-2.928546],[-79.09016,-2.92873],[-79.090494,-2.928984],[-79.090993,-2.929897],[-79.091281,-2.930006],[-79.09161,-2.930006],[-79.091651,-2.929867],[-79.091236,-2.929241],[-79.0911,-2.928747],[-79.091438,-2.928262],[-79.09195,-2.927783],[-79.092082,-2.927761],[-79.092105,-2.927166],[-79.092342,-2.926985],[-79.092193,-2.926417],[-79.092678,-2.925976],[-79.092696,-2.925408],[-79.092814,-2.925145],[-79.093012,-2.925022],[-79.09309,-2.924787],[-79.092053,-2.924559],[-79.091738,-2.924337],[-79.091389,-2.923963],[-79.090701,-2.922669],[-79.089224,-2.921977],[-79.088459,-2.921352],[-79.08796,-2.921358],[-79.086849,-2.920678],[-79.086018,-2.919921],[-79.085211,-2.918899],[-79.084846,-2.918736],[-79.083935,-2.918531],[-79.083376,-2.918246],[-79.082621,-2.917566],[-79.082474,-2.917245],[-79.081435,-2.918035],[-79.080574,-2.918856],[-79.081759,-2.920093]]]}}]}