{"type":"FeatureCollection","name":"SNAP_Opt","crs":{"type":"name","properties":{"name":"urn:ogc:def:crs:OGC:1.3:CRS84"}},"features":[{"type":"Feature","properties":{"ID_Área":"HB01001","Nombre":"CAJAS","Name":"National Park","Categoría":"Parque Nacional","Registro":"ACUERDO INTERMINISTERIAL NO. 203 DEL 06/06/1977- REGISTRO OFICIAL NO. 371DEL 04/07/1977","Modificaci":"REGISTRO OFICIAL NO. 69 DEL 20 DE NOVIEMBRE DE 1979; REGISTRO OFICIAL NO. 02 DEL 17 DE ENERO DE 2003","Tipo":"Terrestre","Titularida":"Estatal","Área_ofic":29389.370301,"Área_calc":293.850904602,"Imagen":"https://sostenibilidad.maps.arcgis.com/sharing/rest/content/items/edf30db5ce6041fd9d2bd4e699f01a01/data","Estado_de_":"Verificado","Shape_Leng":117522.260101},"geometry":{"type":"Polygon","coordinates":[[[-79.22160592143922,-2.745971912065313,0.0],[-79.21385997781465,-2.746331062414212,0.0],[-79.21301513654444,-2.746022345694806,0.0],[-79.21174405635003,-2.746617248270029,0.0],[-79.21102894617991,-2.747131603257677,0.0],[-79.21045706339866,-2.747329680242306,0.0],[-79.2098560850837,-2.74781707607327,0.0],[-79.20979734514559,-2.748766460607144,0.0],[-79.208909223045,-2.750347578485626,0.0],[-79.20856488622019,-2.751350786127672,0.0],[-79.20722003278138,-2.752415783145097,0.0],[-79.20644617189335,-2.753879513403853,0.0],[-79.2055564480966,-2.756147854776452,0.0],[-79.20481353237348,-2.75608343214224,0.0],[-79.20218298674385,-2.756603917720323,0.0],[-79.19746583796551,-2.757718030461213,0.0],[-79.19597852519736,-2.758204063569464,0.0],[-79.19443454220952,-2.758626711231578,0.0],[-79.19397609239415,-2.759258988838844,0.0],[-79.1932022117432,-2.760722696323826,0.0],[-79.19265815427791,-2.761472394338356,0.0],[-79.1921718198578,-2.761959947684289,0.0],[-79.19185600095,-2.762673823159647,0.0],[-79.19174095011829,-2.763306623516461,0.0],[-79.19171127517119,-2.763975722603781,0.0],[-79.19130984861344,-2.764807019853962,0.0],[-79.19022265535432,-2.765691520981637,0.0],[-79.18962236065728,-2.765717729309684,0.0],[-79.18930678519293,-2.766268838030113,0.0],[-79.18887773364357,-2.76678360265025,0.0],[-79.18816248243792,-2.767008568380859,0.0],[-79.18756227038588,-2.766980519784793,0.0],[-79.18678863317835,-2.768272408180604,0.0],[-79.18667253491107,-2.769592431634956,0.0],[-79.18624256079188,-2.770342297215531,0.0],[-79.18564038951422,-2.771634473555757,0.0],[-79.19674702044819,-2.778171143536663,0.0],[-79.1976903215651,-2.77915822634505,0.0],[-79.19763247275576,-2.779872497907382,0.0],[-79.19840363779963,-2.780217295332835,0.0],[-79.20406251654144,-2.780461059646775,0.0],[-79.20408876082247,-2.781690888904557,0.0],[-79.20377288082922,-2.782811684137086,0.0],[-79.20337130784607,-2.78373341147834,0.0],[-79.20285559671956,-2.78468209072743,0.0],[-79.20236872780187,-2.785142515896579,0.0],[-79.20171025371548,-2.786090975080864,0.0],[-79.20082277930018,-2.786831103962076,0.0],[-79.19979200832576,-2.787923670343458,0.0],[-79.19921966291214,-2.788411088061685,0.0],[-79.19884736602411,-2.788925940830822,0.0],[-79.19775982421866,-2.790018415541542,0.0],[-79.19670152527064,-2.79036040339817,0.0],[-79.19544378236324,-2.790647827591409,0.0],[-79.1947571766354,-2.790872832739309,0.0],[-79.19398468477986,-2.791396106910578,0.0],[-79.193441318119,-2.791675587503523,0.0],[-79.19255382214418,-2.792424745471864,0.0],[-79.19221014378445,-2.792966765158709,0.0],[-79.19135239911351,-2.793372352678297,0.0],[-79.19069502276838,-2.793226656659777,0.0],[-79.18960870357002,-2.793514335867417,0.0],[-79.18877907347252,-2.793910922011229,0.0],[-79.18797849578962,-2.794054362264982,0.0],[-79.1857204338976,-2.79390618454453,0.0],[-79.1845767231324,-2.794220895850895,0.0],[-79.1838910264996,-2.794219830818407,0.0],[-79.1827193817223,-2.794073332765908,0.0],[-79.18189093470602,-2.793701304345055,0.0],[-79.18137794098325,-2.792868601715373,0.0],[-79.18106416933597,-2.792235142468648,0.0],[-79.18046473971656,-2.791691664414311,0.0],[-79.17983620647856,-2.791799197031,0.0],[-79.17909155161706,-2.792494307360267,0.0],[-79.17846345136704,-2.79232152329512,0.0],[-79.16938987231269,-2.793374371486058,0.0],[-79.16873112334181,-2.79339142727102,0.0],[-79.1674914401649,-2.793642671902218,0.0],[-79.16667292761736,-2.794120635645428,0.0],[-79.16641691943947,-2.794662776575049,0.0],[-79.1659032852179,-2.794978454910429,0.0],[-79.16566408272236,-2.795556791254067,0.0],[-79.16547654503375,-2.796885725205321,0.0],[-79.16534747329709,-2.797482319539399,0.0],[-79.16515935799177,-2.798096905112315,0.0],[-79.16490216763097,-2.798675213000872,0.0],[-79.1647725182776,-2.799280847048514,0.0],[-79.16453948091986,-2.799868235348495,0.0],[-79.16423909596695,-2.800392219713106,0.0],[-79.16402453515796,-2.801024847297299,0.0],[-79.16414125416114,-2.802227665124725,0.0],[-79.16359903554722,-2.802489040403917,0.0],[-79.16300423764142,-2.802587570013281,0.0],[-79.16229216647187,-2.803644403497194,0.0],[-79.16192295619517,-2.804331040451066,0.0],[-79.16170005902036,-2.804900356719639,0.0],[-79.1622840735495,-2.805950190552844,0.0],[-79.16232188094484,-2.806574172937634,0.0],[-79.16196086240521,-2.80705284739972,0.0],[-79.16128581619844,-2.807069866198801,0.0],[-79.16070997454176,-2.806906194832999,0.0],[-79.16029730377159,-2.807348618982938,0.0],[-79.15972849951683,-2.808794493378314,0.0],[-79.1593736182672,-2.809300302926915,0.0],[-79.15880618843485,-2.809507379521073,0.0],[-79.15802678853477,-2.810482717196654,0.0],[-79.15779098885754,-2.811033926072858,0.0],[-79.15762475471588,-2.811666625060105,0.0],[-79.15776489369684,-2.812263641629415,0.0],[-79.15782184868247,-2.812860525102689,0.0],[-79.15776687088878,-2.813511486265659,0.0],[-79.15663872882574,-2.813582034753499,0.0],[-79.15612283444291,-2.813897697216257,0.0],[-79.15585725830896,-2.814439815521092,0.0],[-79.15536435181423,-2.814791682835993,0.0],[-79.15518355867678,-2.815388189075047,0.0],[-79.15458593107782,-2.815495747328034,0.0],[-79.15410586510177,-2.815901887804631,0.0],[-79.15335572422882,-2.816850136350645,0.0],[-79.15311540872065,-2.817410377316461,0.0],[-79.15272067281514,-2.817879948531437,0.0],[-79.15263091494857,-2.818485639912483,0.0],[-79.15225920825368,-2.818964289746277,0.0],[-79.15219756585888,-2.819560982265509,0.0],[-79.15195164396502,-2.820112170696786,0.0],[-79.15201699550363,-2.820727151700168,0.0],[-79.15217231780952,-2.821315149190936,0.0],[-79.15173106354531,-2.822055913452653,0.0],[-79.15114628904145,-2.82220869934266,0.0],[-79.15090088367889,-2.822787014125883,0.0],[-79.15087235767703,-2.823410887006595,0.0],[-79.15068260923451,-2.823980248686679,0.0],[-79.15040182192783,-2.824540421617341,0.0],[-79.14984839233917,-2.82477463652029,0.0],[-79.1494957478946,-2.82528044002449,0.0],[-79.14938406574521,-2.825886095249335,0.0],[-79.14886312013554,-2.826192699602076,0.0],[-79.14858795089268,-2.826752880437423,0.0],[-79.1482089462844,-2.827222471205528,0.0],[-79.14760990114392,-2.827158216659659,0.0],[-79.14738138141375,-2.827718471498243,0.0],[-79.14668925374184,-2.827871079890522,0.0],[-79.14620812595713,-2.828231999690174,0.0],[-79.14559481377331,-2.8283033529894,0.0],[-79.14506435500479,-2.828582812185101,0.0],[-79.1445505608831,-2.829694185618917,0.0],[-79.14394335903982,-2.829810759607501,0.0],[-79.14284152593652,-2.830297269799817,0.0],[-79.14243948762605,-2.830757778377746,0.0],[-79.14236542781909,-2.831381574297835,0.0],[-79.14232246948389,-2.832593166064628,0.0],[-79.14168670301122,-2.833704338263861,0.0],[-79.14133464336992,-2.834192052679637,0.0],[-79.14122178532583,-2.834824826984402,0.0],[-79.14127812945706,-2.83826096977562,0.0],[-79.14143882907824,-2.840051593525588,0.0],[-79.14164499782584,-2.841173163513779,0.0],[-79.14234059928296,-2.843073158880812,0.0],[-79.14272600887918,-2.843878541467217,0.0],[-79.14293305977239,-2.844448538172072,0.0],[-79.14239121665427,-2.859186520105049,0.0],[-79.14913081539527,-2.885483348344274,0.0],[-79.15359653111547,-2.896630729492829,0.0],[-79.15445857691999,-2.897102352423956,0.0],[-79.15535997522217,-2.897221375996188,0.0],[-79.1561750903413,-2.89716845569838,0.0],[-79.1573097119525,-2.897314985506851,0.0],[-79.15794992957738,-2.897316030706375,0.0],[-79.15954968536795,-2.897635122456485,0.0],[-79.1603352432193,-2.897437472120946,0.0],[-79.16161705289146,-2.896589582697458,0.0],[-79.16257766903547,-2.896238495853461,0.0],[-79.16318880549969,-2.896149067056315,0.0],[-79.16415007022735,-2.895743725622307,0.0],[-79.16476194869996,-2.895193136930227,0.0],[-79.16505349423048,-2.894605858239274,0.0],[-79.16549099174016,-2.894136365046319,0.0],[-79.16604422369946,-2.893703230364896,0.0],[-79.16674356753803,-2.893288416630347,0.0],[-79.16726804352676,-2.892909489563842,0.0],[-79.16787935426413,-2.892711547720606,0.0],[-79.16875064103797,-2.893734747941376,0.0],[-79.16918587928471,-2.894323208655809,0.0],[-79.1701739991478,-2.895048199321843,0.0],[-79.17072672086402,-2.895284196855365,0.0],[-79.1732057431631,-2.89586692386071,0.0],[-79.17384600929702,-2.895840831519406,0.0],[-79.17495011244307,-2.896801112360754,0.0],[-79.17646228518838,-2.897418441416621,0.0],[-79.17736420092015,-2.897573620777723,0.0],[-79.17800309802158,-2.897773445821381,0.0],[-79.17939997739006,-2.898010943746375,0.0],[-79.1803604408205,-2.898102916760263,0.0],[-79.18038701568153,-2.899414099525997,0.0],[-79.18053100933338,-2.900408998018405,0.0],[-79.18050009201623,-2.901466915107035,0.0],[-79.18081820522129,-2.902896131862838,0.0],[-79.18101972249234,-2.904126228094079,0.0],[-79.18145424118853,-2.905528520391394,0.0],[-79.1833164891967,-2.906580452219565,0.0],[-79.18445043437647,-2.906817387569125,0.0],[-79.1851777050406,-2.907225471236646,0.0],[-79.18709114264692,-2.907554086221579,0.0],[-79.18813890256003,-2.90755577467453,0.0],[-79.18866330219197,-2.907231091938541,0.0],[-79.18950710321306,-2.9071781954356,0.0],[-79.19008916929637,-2.906998282711498,0.0],[-79.19102065936393,-2.906945526154497,0.0],[-79.19168951977164,-2.90697373015254,0.0],[-79.19232961342904,-2.907065184776065,0.0],[-79.19346449914492,-2.9070670069065,0.0],[-79.1944247604544,-2.90695099703218,0.0],[-79.19524009925405,-2.906771455695881,0.0],[-79.19602573436049,-2.906537610154587,0.0],[-79.19750894542105,-2.907010200575654,0.0],[-79.1978011754678,-2.906341522433959,0.0],[-79.19786075173745,-2.905636300759753,0.0],[-79.19771850530886,-2.903529167796795,0.0],[-79.19722554581352,-2.902452304557763,0.0],[-79.19673155864554,-2.902035557054163,0.0],[-79.1962626371689,-2.901410889026946,0.0],[-79.19594360947889,-2.900587686265446,0.0],[-79.1962358116779,-2.899891703593099,0.0],[-79.19783723114837,-2.899188948687246,0.0],[-79.19847833630875,-2.898638378716847,0.0],[-79.19932335005551,-2.897816859713719,0.0],[-79.19955698928449,-2.897229467545936,0.0],[-79.20040264712328,-2.896353692198885,0.0],[-79.2006362710809,-2.895775342727682,0.0],[-79.20107347304484,-2.895134017998996,0.0],[-79.20185095234685,-2.894719300785257,0.0],[-79.20278109224652,-2.895163865007568,0.0],[-79.2039153787861,-2.895545456807607,0.0],[-79.20458438561923,-2.895835882739842,0.0],[-79.20528233257754,-2.89595454668082,0.0],[-79.20630086220962,-2.895956165172008,0.0],[-79.20816283892657,-2.896130930806764,0.0],[-79.20880289036313,-2.896249500514215,0.0],[-79.20944229141944,-2.896521618663547,0.0],[-79.21046031709662,-2.896749471404073,0.0],[-79.21118764615125,-2.897130412223712,0.0],[-79.21229302310836,-2.897313016225288,0.0],[-79.21334050813698,-2.897133823253153,0.0],[-79.21505818128333,-2.896494517920905,0.0],[-79.21537751080727,-2.897173204403877,0.0],[-79.21554939984361,-2.898692647386274,0.0],[-79.21551908978762,-2.899741541496931,0.0],[-79.2154014455197,-2.900564232593541,0.0],[-79.21516745774437,-2.901377696659452,0.0],[-79.21504897983988,-2.902372195083724,0.0],[-79.21458166814423,-2.903574120101007,0.0],[-79.21414399546309,-2.904513855663165,0.0],[-79.21385154532908,-2.905327225375144,0.0],[-79.21315192660602,-2.906266544990372,0.0],[-79.21277292379439,-2.90690744801968,0.0],[-79.20922000959057,-2.927573617943792,0.0],[-79.21312675491343,-2.927218186921254,0.0],[-79.21331937796486,-2.926269022500715,0.0],[-79.21399013112291,-2.925112642850821,0.0],[-79.21429111255716,-2.924245035255492,0.0],[-79.21493603376088,-2.924137553624749,0.0],[-79.21504910201074,-2.924797843647759,0.0],[-79.21557232664631,-2.925223681567113,0.0],[-79.21686268378839,-2.925397550901133,0.0],[-79.21714255840675,-2.926148534269945,0.0],[-79.21737086703284,-2.927161670488569,0.0],[-79.21799608638574,-2.927786609513545,0.0],[-79.21846034380941,-2.928890549362293,0.0],[-79.21887672462171,-2.929343343930688,0.0],[-79.219503201616,-2.929172534461854,0.0],[-79.21985474472605,-2.928323088169596,0.0],[-79.220279370276,-2.92782642111801,0.0],[-79.22115373018644,-2.926236311735352,0.0],[-79.22154464016715,-2.925730546715064,0.0],[-79.22212078006453,-2.925396885219812,0.0],[-79.2229230079526,-2.925705612381513,0.0],[-79.22327693698801,-2.92476573930959,0.0],[-79.22373802605367,-2.924314340644309,0.0],[-79.22463774809952,-2.924107789023568,0.0],[-79.22537371445561,-2.923656824312173,0.0],[-79.22615468820406,-2.922464434078651,0.0],[-79.2263522016839,-2.921614737782861,0.0],[-79.22626609457063,-2.920963529512185,0.0],[-79.22771675787185,-2.919998263153647,0.0],[-79.22792022628369,-2.91929325727386,0.0],[-79.22833872083183,-2.918398695685746,0.0],[-79.22876012142993,-2.917802546381957,0.0],[-79.22857957712581,-2.916789482459759,0.0],[-79.22817145722087,-2.916083509231758,0.0],[-79.22901235937856,-2.916102923602391,0.0],[-79.22968393449507,-2.91656516046893,0.0],[-79.23080548831383,-2.916847254529556,0.0],[-79.2316022337837,-2.917427243061949,0.0],[-79.2321010574812,-2.918006762085452,0.0],[-79.23232634956457,-2.918802873451284,0.0],[-79.23219341237726,-2.920059596739623,0.0],[-79.23226410350189,-2.921226214466896,0.0],[-79.23119184473437,-2.923566574110247,0.0],[-79.23110823583593,-2.924190386530088,0.0],[-79.23066981216321,-2.924885978282667,0.0],[-79.22994748762302,-2.92667528418792,0.0],[-79.22927450933804,-2.927822636970171,0.0],[-79.22879723083433,-2.928201671617326,0.0],[-79.22741609444118,-2.930342589522136,0.0],[-79.22669855253157,-2.931227630104829,0.0],[-79.22613959920224,-2.932067707161668,0.0],[-79.22609578207762,-2.932763922019137,0.0],[-79.22630153400691,-2.933469576130975,0.0],[-79.22636295361953,-2.934446280151835,0.0],[-79.22684034261603,-2.935070983647222,0.0],[-79.22650659333516,-2.935685351782286,0.0],[-79.22636106446248,-2.936715982480348,0.0],[-79.22757001807017,-2.937549833781874,0.0],[-79.22827747728904,-2.937361064026256,0.0],[-79.22920142689809,-2.937841795526405,0.0],[-79.22957989700876,-2.938457299703427,0.0],[-79.23088446190539,-2.939264172002947,0.0],[-79.23127773355701,-2.939762144684783,0.0],[-79.23247257014,-2.939926812557232,0.0],[-79.23219516858362,-2.940812555179695,0.0],[-79.23262619013842,-2.941256331433248,0.0],[-79.23325830675607,-2.942152562257653,0.0],[-79.23403420951475,-2.942768698327459,0.0],[-79.2337840457761,-2.943491716348396,0.0],[-79.23563354399543,-2.944878187899315,0.0],[-79.23785947674303,-2.948182311755889,0.0],[-79.23803033990332,-2.948915042133101,0.0],[-79.23845703966327,-2.949964674262728,0.0],[-79.23900694156782,-2.950598538569349,0.0],[-79.23982832153774,-2.950898252532251,0.0],[-79.24161730564629,-2.950023949993943,0.0],[-79.24198087001143,-2.949038869700125,0.0],[-79.2421446948715,-2.947809317966209,0.0],[-79.24216287767116,-2.94696837267911,0.0],[-79.24227836777902,-2.946091411553119,0.0],[-79.24273357108295,-2.945097431848689,0.0],[-79.24334851999721,-2.944040405471755,0.0],[-79.24422258436194,-2.943001872437331,0.0],[-79.24528695142969,-2.942849827646892,0.0],[-79.24565427344768,-2.94197326250196,0.0],[-79.24665996884929,-2.941595053401008,0.0],[-79.24726145830566,-2.941234292490658,0.0],[-79.24789123930357,-2.940394308452207,0.0],[-79.24842636751495,-2.940051526593557,0.0],[-79.24871099511947,-2.939210998001587,0.0],[-79.24922445327124,-2.938343701879427,0.0],[-79.25050532600058,-2.937414310783668,0.0],[-79.25149495323669,-2.936520632093319,0.0],[-79.25223343307894,-2.936268593449426,0.0],[-79.25283467999019,-2.936423264156004,0.0],[-79.2534733659875,-2.936360967045025,0.0],[-79.25393437330648,-2.935963807629427,0.0],[-79.25437361264949,-2.935467143072916,0.0],[-79.2550829268894,-2.93431112101494,0.0],[-79.25520702645096,-2.933442862944762,0.0],[-79.25531359359314,-2.93105573179543,0.0],[-79.25541179382672,-2.930440975346406,0.0],[-79.25623119390976,-2.927657074657779,0.0],[-79.25632937977032,-2.927051360444619,0.0],[-79.25642886908635,-2.926328091352762,0.0],[-79.25643534504124,-2.92468231288328,0.0],[-79.25662509258544,-2.924094933823318,0.0],[-79.25790258854762,-2.923174451221402,0.0],[-79.2589284304661,-2.922308143887578,0.0],[-79.25942791083206,-2.921549118607249,0.0],[-79.25965266751952,-2.920880301072984,0.0],[-79.25969353906831,-2.920256409658682,0.0],[-79.2595625898527,-2.917679003341111,0.0],[-79.25973256278256,-2.916811156742797,0.0],[-79.26003523125293,-2.916287143893012,0.0],[-79.26051973221152,-2.915799825225695,0.0],[-79.26223587373032,-2.914518161696879,0.0],[-79.26526947635995,-2.9128228026176,0.0],[-79.26576416780712,-2.912443768163354,0.0],[-79.2682938883259,-2.910883259314044,0.0],[-79.27170018040735,-2.90955016064975,0.0],[-79.27237616265866,-2.909352256709069,0.0],[-79.273658311894,-2.90902868337716,0.0],[-79.27578330005478,-2.908941516429768,0.0],[-79.27640195901118,-2.908734479314593,0.0],[-79.27926666848593,-2.906821771090191,0.0],[-79.27977366864913,-2.906397631705314,0.0],[-79.28127440943415,-2.904917038973174,0.0],[-79.28178176533021,-2.904510627676877,0.0],[-79.28257454383979,-2.904023519236532,0.0],[-79.28409991193833,-2.903447098099865,0.0],[-79.28533585632702,-2.903195777839549,0.0],[-79.286103531416,-2.902952786780211,0.0],[-79.28670150666296,-2.902592046645095,0.0],[-79.28714081697291,-2.902104327306516,0.0],[-79.28738659513633,-2.901535363312231,0.0],[-79.28728106285338,-2.900793313635027,0.0],[-79.2874597386617,-2.900106320680317,0.0],[-79.28936482013924,-2.898219234373821,0.0],[-79.28997484628574,-2.89776801078594,0.0],[-79.29062969297505,-2.89741632769136,0.0],[-79.29182847675541,-2.896450545042428,0.0],[-79.2941300719044,-2.894790116130336,0.0],[-79.2946720767193,-2.894338786207321,0.0],[-79.29563083874055,-2.893363589620153,0.0],[-79.29672491219644,-2.892497112254798,0.0],[-79.29858383374311,-2.890637052251379,0.0],[-79.29927549518939,-2.890095512654961,0.0],[-79.30057398837302,-2.889355936168203,0.0],[-79.301701004847,-2.888634186941564,0.0],[-79.30254525322911,-2.888680668621183,0.0],[-79.30336898678507,-2.888537215900653,0.0],[-79.30393280269507,-2.888158254051992,0.0],[-79.30438388363015,-2.887607303705232,0.0],[-79.30497770327062,-2.885555409546344,0.0],[-79.30147787770348,-2.884067114221903,0.0],[-79.30203706369647,-2.88338973875257,0.0],[-79.30267989541883,-2.882414053669294,0.0],[-79.30301531017628,-2.881772500687664,0.0],[-79.30326759663393,-2.8807058006818,0.0],[-79.3033247178079,-2.880090959392997,0.0],[-79.30460557257092,-2.880246604964601,0.0],[-79.30530114797688,-2.880473720797064,0.0],[-79.30740943016833,-2.881408299674013,0.0],[-79.309204529109,-2.882016861792179,0.0],[-79.31174058095391,-2.882201500335425,0.0],[-79.31315310807632,-2.883035564223837,0.0],[-79.31398342897828,-2.883380436811009,0.0],[-79.3146616049155,-2.883589422745541,0.0],[-79.31446482715587,-2.882847611638799,0.0],[-79.31588644792392,-2.883238575015483,0.0],[-79.31679304118339,-2.88370110343805,0.0],[-79.32073528523134,-2.886374667576847,0.0],[-79.32180012750788,-2.887036408888419,0.0],[-79.32272936639734,-2.887399510854734,0.0],[-79.32405490695585,-2.888142994015294,0.0],[-79.3256630601977,-2.889375240645746,0.0],[-79.3262750195187,-2.889900646726427,0.0],[-79.32697665495957,-2.890607052604375,0.0],[-79.3275064076523,-2.89007429003437,0.0],[-79.32650255649196,-2.887685431467361,0.0],[-79.32656141860095,-2.886645557170304,0.0],[-79.32791183800126,-2.887298657632544,0.0],[-79.32887712897802,-2.887227737747551,0.0],[-79.32951632162518,-2.886812696455094,0.0],[-79.33006212990696,-2.886062911557681,0.0],[-79.33068206447106,-2.88650693638025,0.0],[-79.33096889294804,-2.887185592055284,0.0],[-79.33166264297734,-2.888289881168225,0.0],[-79.3320850829262,-2.889258123640309,0.0],[-79.33237107417332,-2.890126687611711,0.0],[-79.33309610623577,-2.890218201015873,0.0],[-79.33362348737613,-2.889766820826011,0.0],[-79.33397953643563,-2.889233796784172,0.0],[-79.33428030047759,-2.888447484148545,0.0],[-79.33425170530546,-2.887624513309676,0.0],[-79.33444911458072,-2.886783788569383,0.0],[-79.33546079455876,-2.888440164105803,0.0],[-79.33593434505403,-2.889055794878649,0.0],[-79.33660913613927,-2.88967172587068,0.0],[-79.33688090885207,-2.890268975601392,0.0],[-79.33693957961991,-2.891290954283477,0.0],[-79.33687786446157,-2.891978147271497,0.0],[-79.33716476749869,-2.89260253430557,0.0],[-79.3377254042709,-2.892096954266588,0.0],[-79.3379745735745,-2.890840317378857,0.0],[-79.3383658285083,-2.890063177652996,0.0],[-79.33890437391102,-2.889666068297454,0.0],[-79.33928886812397,-2.888897961409141,0.0],[-79.33998457468397,-2.88905271398477,0.0],[-79.34045869471115,-2.889659289257919,0.0],[-79.34101739291896,-2.89009418394215,0.0],[-79.34208789727674,-2.891126681224975,0.0],[-79.34305330144122,-2.891381312933781,0.0],[-79.34357155210503,-2.891789011002698,0.0],[-79.34471453433657,-2.89518189092086,0.0],[-79.34499812798018,-2.895770114928508,0.0],[-79.34635250805259,-2.897589788620266,0.0],[-79.34672773255012,-2.898178146849197,0.0],[-79.348407521046,-2.900052558976854,0.0],[-79.34906337384841,-2.899791279430065,0.0],[-79.34897711761484,-2.898787339654352,0.0],[-79.34868240103137,-2.898117710136419,0.0],[-79.34811185404496,-2.897709924627947,0.0],[-79.34758817216692,-2.897157521922789,0.0],[-79.34722215001115,-2.896424485909769,0.0],[-79.34710247734732,-2.89560137731224,0.0],[-79.34702925836345,-2.893765508305649,0.0],[-79.34689472397157,-2.892725339924711,0.0],[-79.34686341498896,-2.891830014424926,0.0],[-79.34708312224622,-2.891115919648109,0.0],[-79.3472224814895,-2.890374579088066,0.0],[-79.34709199849954,-2.888475310000088,0.0],[-79.34710686112591,-2.887525792691818,0.0],[-79.34721263325903,-2.886684926124763,0.0],[-79.3472311807747,-2.885898178388697,0.0],[-79.34661763323228,-2.883347093189845,0.0],[-79.34625864758011,-2.882415117723346,0.0],[-79.34579966596213,-2.881835692611058,0.0],[-79.34383388532082,-2.881046066956427,0.0],[-79.34294412020157,-2.880583546426619,0.0],[-79.3423163568198,-2.880094297802003,0.0],[-79.34168837245244,-2.879758784507182,0.0],[-79.34127171046747,-2.879061848816567,0.0],[-79.34062498454834,-2.878473092203749,0.0],[-79.34013289552053,-2.877848394161627,0.0],[-79.33958112242526,-2.876120339763341,0.0],[-79.33916301864424,-2.875649478805308,0.0],[-79.33888460288992,-2.874979878715346,0.0],[-79.33833947912439,-2.87410189171001,0.0],[-79.33761664523944,-2.872500190503614,0.0],[-79.33755938033501,-2.871677191094326,0.0],[-79.3376161664374,-2.870501658112208,0.0],[-79.3382590475671,-2.870638245129728,0.0],[-79.33881282390546,-2.870973650752987,0.0],[-79.33948017155026,-2.872068837472686,0.0],[-79.33984652608268,-2.872566746493233,0.0],[-79.34029502705627,-2.873010519981498,0.0],[-79.34093835195374,-2.873237551125448,0.0],[-79.34156004362252,-2.873256544552768,0.0],[-79.34217749254823,-2.873483511947623,0.0],[-79.34317640656775,-2.874262679867625,0.0],[-79.34609099320203,-2.875885675055103,0.0],[-79.34666003191705,-2.876166843486518,0.0],[-79.34785166959932,-2.876620737597079,0.0],[-79.34841565079932,-2.876901898669799,0.0],[-79.34960742053393,-2.877265359153999,0.0],[-79.35075104056932,-2.87788194519293,0.0],[-79.35129176618325,-2.878307764001638,0.0],[-79.3517413765762,-2.878769623335534,0.0],[-79.3525410613337,-2.879720321465771,0.0],[-79.35364921947493,-2.880382104329875,0.0],[-79.35401942777993,-2.880934268472799,0.0],[-79.35424005760697,-2.881531442048297,0.0],[-79.35458562153046,-2.882029321815214,0.0],[-79.35501784592942,-2.882464028320067,0.0],[-79.355336413682,-2.88297091265792,0.0],[-79.35585591120743,-2.884093030089939,0.0],[-79.35664701166407,-2.885152241775646,0.0],[-79.35698795375544,-2.885740545447917,0.0],[-79.35772352754775,-2.886320386654631,0.0],[-79.35850527025407,-2.886466225244975,0.0],[-79.3592941779231,-2.886313632716038,0.0],[-79.36020868174695,-2.886387302501406,0.0],[-79.36097728659225,-2.886279895320736,0.0],[-79.36174876155489,-2.886525180444709,0.0],[-79.36267191884987,-2.886445125469659,0.0],[-79.36409477749639,-2.886004059509173,0.0],[-79.3647010603631,-2.886194843956436,0.0],[-79.36524358620083,-2.886937166063505,0.0],[-79.36604536313465,-2.887227722495585,0.0],[-79.36731536894398,-2.887934933904807,0.0],[-79.3679508389726,-2.887764026652048,0.0],[-79.3687226058877,-2.887810352258914,0.0],[-79.36925474720076,-2.888344665310995,0.0],[-79.36965248527596,-2.888924012640175,0.0],[-79.37023409771004,-2.88907860013234,0.0],[-79.3708404713066,-2.888419310192819,0.0],[-79.37139689767503,-2.886909872199171,0.0],[-79.37181037513234,-2.886304563166894,0.0],[-79.37224620087727,-2.885789704419434,0.0],[-79.37197157062354,-2.884812629873816,0.0],[-79.37092562261238,-2.883490809438611,0.0],[-79.37130779557863,-2.882758850184696,0.0],[-79.37197243300622,-2.882235290785268,0.0],[-79.37253335364603,-2.881910535299664,0.0],[-79.3727871277138,-2.881341169108391,0.0],[-79.37302599603605,-2.879786055216364,0.0],[-79.37342553343676,-2.878303517639209,0.0],[-79.37350809849285,-2.877562075419619,0.0],[-79.37429464988088,-2.878268573296592,0.0],[-79.37477289048027,-2.878766645589655,0.0],[-79.37543472246921,-2.879038906093275,0.0],[-79.37612025740526,-2.879238840265833,0.0],[-79.37684992477456,-2.879628734544947,0.0],[-79.37731695080593,-2.880108702036436,0.0],[-79.37810456310433,-2.880480618319169,0.0],[-79.37885806187981,-2.880716808184602,0.0],[-79.37956232848616,-2.881188066293778,0.0],[-79.38019037393894,-2.88149644038526,0.0],[-79.38094507016869,-2.882085336292127,0.0],[-79.38149830572125,-2.882429791082018,0.0],[-79.38219766572952,-2.88358832639424,0.0],[-79.38269906310028,-2.884014081163427,0.0],[-79.38321237931825,-2.884358465389522,0.0],[-79.38408812443087,-2.885616743207571,0.0],[-79.38458338810487,-2.886006320392539,0.0],[-79.38518376185365,-2.886016232392249,0.0],[-79.38578845649897,-2.885745791236828,0.0],[-79.38608615638749,-2.885113163453337,0.0],[-79.38563758893856,-2.883493755770876,0.0],[-79.3852841566715,-2.881784049179251,0.0],[-79.38528574579124,-2.880662682204552,0.0],[-79.3854302460929,-2.879044118717373,0.0],[-79.38549341472535,-2.877696740724469,0.0],[-79.38553578376573,-2.876349333326132,0.0],[-79.38550071353704,-2.874902338634386,0.0],[-79.38568033886463,-2.874287642250832,0.0],[-79.38542840993647,-2.871538091179288,0.0],[-79.384815395095,-2.871745217621666,0.0],[-79.38417673604712,-2.871789527900578,0.0],[-79.38267062513334,-2.871479913962635,0.0],[-79.38210879360183,-2.871253011664281,0.0],[-79.3813433553179,-2.870709327541221,0.0],[-79.38042465636168,-2.87042768853616,0.0],[-79.37973544911274,-2.870037827000337,0.0],[-79.37868978586754,-2.869294786003423,0.0],[-79.3775918424694,-2.868958630734374,0.0],[-79.3760597576675,-2.86913731584941,0.0],[-79.37500515798182,-2.869153899494691,0.0],[-79.37400475455556,-2.869007777868971,0.0],[-79.37286182442631,-2.868680586336585,0.0],[-79.37157575494307,-2.868208495852387,0.0],[-79.37039765577043,-2.867709428454687,0.0],[-79.36525235645297,-2.864970979568484,0.0],[-79.3643498127988,-2.864797863574556,0.0],[-79.36372225872447,-2.864543738223545,0.0],[-79.36320981387233,-2.863991360697665,0.0],[-79.36152895548298,-2.862858534334086,0.0],[-79.3602033664154,-2.861726220943204,0.0],[-79.35321671569993,-2.854174101841901,0.0],[-79.35243118569635,-2.853937837411657,0.0],[-79.35182596194335,-2.85342150792562,0.0],[-79.35078794515782,-2.853257241980329,0.0],[-79.3502204704097,-2.853066515736647,0.0],[-79.34943991976775,-2.853291472914058,0.0],[-79.34869732294655,-2.852910573082788,0.0],[-79.34828784568721,-2.852304099420825,0.0],[-79.34736369485553,-2.85192295073734,0.0],[-79.34647568055277,-2.851424275508699,0.0],[-79.34537889508304,-2.850699252655282,0.0],[-79.34395286987515,-2.849856174312778,0.0],[-79.3417018471817,-2.848876255439694,0.0],[-79.34025437020483,-2.848494347482321,0.0],[-79.33966116770695,-2.848213130092779,0.0],[-79.33954889805938,-2.847317697047673,0.0],[-79.33917312828447,-2.846729360164525,0.0],[-79.33951300317726,-2.846087784499587,0.0],[-79.34184691342199,-2.846489056774723,0.0],[-79.34273155904242,-2.846580765673403,0.0],[-79.34340966850431,-2.846446095815065,0.0],[-79.34391930701952,-2.845406859637429,0.0],[-79.34393874746057,-2.844782905303655,0.0],[-79.34407168195295,-2.844195287585257,0.0],[-79.34416679288029,-2.843327274623845,0.0],[-79.34573211894096,-2.841475666255601,0.0],[-79.3462793115266,-2.840508826090011,0.0],[-79.34732521462202,-2.839461313163531,0.0],[-79.34764640635353,-2.838512234337203,0.0],[-79.34776062444696,-2.837644246711376,0.0],[-79.34812011764726,-2.836243059005418,0.0],[-79.34876250650021,-2.834733757764312,0.0],[-79.34938638287177,-2.832799395125987,0.0],[-79.34976388190361,-2.832175950781712,0.0],[-79.35019953876525,-2.830964764121475,0.0],[-79.34992668627748,-2.830331347092717,0.0],[-79.34989417894231,-2.829463147868362,0.0],[-79.34978106757329,-2.828757614114621,0.0],[-79.34979478664431,-2.827808103921114,0.0],[-79.35020867822496,-2.826488379293468,0.0],[-79.35106992991876,-2.824427744640408,0.0],[-79.35121972938228,-2.823831103069395,0.0],[-79.35123241718735,-2.823198079616834,0.0],[-79.35092566407741,-2.822284274458915,0.0],[-79.3505954101413,-2.821695993037625,0.0],[-79.34964916165194,-2.820654669223971,0.0],[-79.34911301205607,-2.820183654592812,0.0],[-79.34852121901487,-2.818907716812343,0.0],[-79.34821390984774,-2.818391814020818,0.0],[-79.34774663049146,-2.817712905100805,0.0],[-79.3472454972254,-2.817124380012973,0.0],[-79.34677781272892,-2.816734853970029,0.0],[-79.34618418353129,-2.816372293154809,0.0],[-79.34557897504965,-2.816244825441652,0.0],[-79.34476724388418,-2.816279840752433,0.0],[-79.34221827785875,-2.816547499777326,0.0],[-79.34006918610227,-2.817059891629123,0.0],[-79.33897144752001,-2.817420049449833,0.0],[-79.33825087918623,-2.817780745496611,0.0],[-79.33770094763727,-2.818313505692867,0.0],[-79.33661238624397,-2.819731726494951,0.0],[-79.33589197152209,-2.819983902169121,0.0],[-79.33528658517402,-2.819983032755702,0.0],[-79.33461168718927,-2.820244316129309,0.0],[-79.33404095335328,-2.819981231122947,0.0],[-79.3336308903924,-2.819392835485842,0.0],[-79.33311709447408,-2.81902132295553,0.0],[-79.33252401055381,-2.818676845595079,0.0],[-79.33109683999395,-2.817878993879678,0.0],[-79.32960160677993,-2.81711721653132,0.0],[-79.32855085188368,-2.816853452512273,0.0],[-79.32786489563779,-2.816988111455397,0.0],[-79.32723606685407,-2.817267542866529,0.0],[-79.32672122889001,-2.81762852697115,0.0],[-79.32579359708659,-2.818531501752188,0.0],[-79.32520945230172,-2.819009946101855,0.0],[-79.32467227054161,-2.81927142080361,0.0],[-79.32402105484269,-2.819089616375298,0.0],[-79.32339314323887,-2.818726983617935,0.0],[-79.32275311156525,-2.818979266280045,0.0],[-79.32204379912194,-2.819330922271904,0.0],[-79.3213466786137,-2.819411301333409,0.0],[-79.32075300899189,-2.819075833156381,0.0],[-79.32039970159065,-2.818505604146204,0.0],[-79.32018409514268,-2.817944619007365,0.0],[-79.3198539723606,-2.817284007028688,0.0],[-79.31931754698195,-2.817020979673045,0.0],[-79.31868819627705,-2.817273275266102,0.0],[-79.31836762348475,-2.817788267865834,0.0],[-79.31786398841061,-2.818176391187659,0.0],[-79.31699542892196,-2.818256520002053,0.0],[-79.31645763451081,-2.818554161259724,0.0],[-79.31604499338505,-2.81898763113885,0.0],[-79.31496760793219,-2.818877548407975,0.0],[-79.31457152096048,-2.819916928623499,0.0],[-79.31452737056091,-2.820911604485895,0.0],[-79.31390009945588,-2.821670311733587,0.0],[-79.31391316275676,-2.822357605608949,0.0],[-79.31342230801414,-2.822845217129352,0.0],[-79.3130921106719,-2.823405407654644,0.0],[-79.31233038063347,-2.825411861707323,0.0],[-79.3072505199912,-2.822022337466048,0.0],[-79.30191370793997,-2.81521416572604,0.0],[-79.29583564833713,-2.814545122707407,0.0],[-79.2955972740883,-2.813803246481384,0.0],[-79.29500758040992,-2.813069897980926,0.0],[-79.29426635531615,-2.812951250603044,0.0],[-79.29355634847515,-2.812624661379048,0.0],[-79.29285125901202,-2.812008701701611,0.0],[-79.29297765197249,-2.807026199448301,0.0],[-79.29192402965386,-2.806825708138218,0.0],[-79.2905487754292,-2.807094979873274,0.0],[-79.28886868060782,-2.806721750598036,0.0],[-79.28758825703613,-2.806331022371738,0.0],[-79.28619934213096,-2.805560327903833,0.0],[-79.28531476837573,-2.805459553653799,0.0],[-79.28428923098613,-2.805277184503896,0.0],[-79.28322884076013,-2.805483610415806,0.0],[-79.28258854049022,-2.806314618169922,0.0],[-79.28226301887905,-2.807137045949758,0.0],[-79.28159784605558,-2.807678640717142,0.0],[-79.28092755373326,-2.808645245325958,0.0],[-79.28023352073465,-2.808933593672857,0.0],[-79.28017207956248,-2.807513762652768,0.0],[-79.27964227386916,-2.806581558101767,0.0],[-79.27851398358408,-2.805558041739996,0.0],[-79.27774790030979,-2.805149977572627,0.0],[-79.27626546359701,-2.804921712803633,0.0],[-79.27431790348463,-2.805271504085213,0.0],[-79.27393818830897,-2.805867772935372,0.0],[-79.27343079737862,-2.805369662003367,0.0],[-79.27274633053948,-2.805269175750577,0.0],[-79.27186046770181,-2.805285947834967,0.0],[-79.2654736858819,-2.802147628523028,0.0],[-79.26604884571731,-2.801660168956093,0.0],[-79.26664418979881,-2.801588710842603,0.0],[-79.26725886023533,-2.801752395513862,0.0],[-79.26854228238344,-2.800850012495976,0.0],[-79.26986855057734,-2.800625907401011,0.0],[-79.27041154982723,-2.800219782249751,0.0],[-79.27177744091168,-2.799805831204508,0.0],[-79.27237932652508,-2.799490221461894,0.0],[-79.27299528155247,-2.79877674331418,0.0],[-79.27387503764281,-2.798705700448695,0.0],[-79.27458226689296,-2.79822747209208,0.0],[-79.27607849274536,-2.797858920913585,0.0],[-79.27757635532818,-2.798295190697091,0.0],[-79.27842186584327,-2.798196964892447,0.0],[-79.27902701593443,-2.797953697739116,0.0],[-79.27839709479932,-2.797066563167519,0.0],[-79.27727557781151,-2.796413818995884,0.0],[-79.2760965282213,-2.795127987337779,0.0],[-79.27522698238249,-2.794367100485147,0.0],[-79.27465199143036,-2.792431071074552,0.0],[-79.27435305725665,-2.791598683376091,0.0],[-79.2743602545587,-2.790902389941782,0.0],[-79.27420277809276,-2.790196811348783,0.0],[-79.27363208198601,-2.789942769250896,0.0],[-79.27318696496613,-2.789526139876195,0.0],[-79.27313205005447,-2.788639854915927,0.0],[-79.27277906514843,-2.787870687608803,0.0],[-79.27241512888074,-2.787273299708248,0.0],[-79.27190158089742,-2.786775205106238,0.0],[-79.27148040218322,-2.786132538551489,0.0],[-79.2709459539965,-2.784920004019876,0.0],[-79.26974001872817,-2.782422390739517,0.0],[-79.2693413248455,-2.781779758597849,0.0],[-79.26881662248132,-2.781209284426407,0.0],[-79.26830384255756,-2.780557441273879,0.0],[-79.26735993777278,-2.778376717328292,0.0],[-79.26701849621813,-2.777788428213755,0.0],[-79.26643742277322,-2.776946584707868,0.0],[-79.2659356229572,-2.7764756171148,0.0],[-79.26541115684992,-2.776131215186052,0.0],[-79.26481724108973,-2.776003740408495,0.0],[-79.26415363762304,-2.776255963173902,0.0],[-79.26362866396764,-2.775875388095738,0.0],[-79.26312811370816,-2.774934193903588,0.0],[-79.26235163512939,-2.774734105373327,0.0],[-79.2617457061989,-2.774751296914718,0.0],[-79.26158455562346,-2.77541118722247,0.0],[-79.2609097519618,-2.775636262573794,0.0],[-79.26037347211022,-2.775300885058131,0.0],[-79.2597109475202,-2.77520043571461,0.0],[-79.25913952377809,-2.775452789651629,0.0],[-79.25855646864966,-2.77558757088851,0.0],[-79.25832626188338,-2.776193100174404,0.0],[-79.2576981822946,-2.775984186396777,0.0],[-79.25728806992637,-2.775468138207384,0.0],[-79.2568441898866,-2.774599369799506,0.0],[-79.2563998319431,-2.774056142921791,0.0],[-79.25576042100533,-2.77391051180971,0.0],[-79.25444789613698,-2.773221314253143,0.0],[-79.25363963426516,-2.771700924957875,0.0],[-79.25297727316848,-2.771491959242575,0.0],[-79.25216971737248,-2.771409377703044,0.0],[-79.25126841698666,-2.771245271584524,0.0],[-79.25014042763722,-2.771587224506972,0.0],[-79.2496590869518,-2.772120035282768,0.0],[-79.25005469512145,-2.773323313338258,0.0],[-79.2491422726941,-2.774226237877394,0.0],[-79.24849217180447,-2.774089628761456,0.0],[-79.24789373123016,-2.774369065902996,0.0],[-79.24728180784179,-2.77540807551935,0.0],[-79.24742018612477,-2.776095532909198,0.0],[-79.24744327642084,-2.776828032376684,0.0],[-79.24659921219336,-2.776727305012177,0.0],[-79.2463691123266,-2.776112053279502,0.0],[-79.24571220041047,-2.776020647499648,0.0],[-79.24496615136363,-2.776155176541397,0.0],[-79.24424904783189,-2.776099851426622,0.0],[-79.24357561050779,-2.776162146464848,0.0],[-79.2430419806863,-2.776703915223412,0.0],[-79.24240399447658,-2.777118930473488,0.0],[-79.24158080979124,-2.777343769520092,0.0],[-79.24014092627347,-2.77537029901207,0.0],[-79.23988441324241,-2.774375214841932,0.0],[-79.24004158248451,-2.77299190914617,0.0],[-79.24056517273439,-2.772016073777201,0.0],[-79.24099138021757,-2.771519359009581,0.0],[-79.24165026573237,-2.771032032116101,0.0],[-79.24380760492149,-2.769769259417806,0.0],[-79.24446561547721,-2.769110116078214,0.0],[-79.24478146941932,-2.768360036168044,0.0],[-79.24601320250598,-2.766643740078317,0.0],[-79.24632908968573,-2.765486732788613,0.0],[-79.2464730312353,-2.764682139658478,0.0],[-79.2465654490134,-2.763750871148562,0.0],[-79.24660569713139,-2.762367386156956,0.0],[-79.24641411432906,-2.761164412819953,0.0],[-79.24575839717227,-2.759879367368273,0.0],[-79.24481118748555,-2.759217841656389,0.0],[-79.24409693161326,-2.758375806400244,0.0],[-79.243421029312,-2.757443399688489,0.0],[-79.24262892094562,-2.756800189606861,0.0],[-79.24214554198281,-2.756428720121397,0.0],[-79.2414687665191,-2.756093134389667,0.0],[-79.23900258384039,-2.754506995791307,0.0],[-79.23805514957483,-2.754388034750442,0.0],[-79.23704948920752,-2.754115258779639,0.0],[-79.23585105756676,-2.753453358390165,0.0],[-79.2347111170308,-2.752384623338453,0.0],[-79.23391864664332,-2.751994608405136,0.0],[-79.23287425002266,-2.751694646112495,0.0],[-79.23167478801426,-2.751738074439354,0.0],[-79.23061104347899,-2.751600849893862,0.0],[-79.22989589647794,-2.750993923558923,0.0],[-79.22896887193565,-2.749997846307006,0.0],[-79.22796732225909,-2.748468138631291,0.0],[-79.22746497716568,-2.748006213320964,0.0],[-79.22711836850151,-2.747128556084843,0.0],[-79.22747425047434,-2.745908323355274,0.0],[-79.22617899481902,-2.745743625996409,0.0],[-79.22466409299187,-2.745886050975428,0.0],[-79.22160592143922,-2.745971912065313,0.0]]]}},{"type":"Feature","properties":{"ID_Área":"HB01047","Nombre":"QUIMSACOCHA","Name":"National Recreation Area","Categoría":"Área Nacional de Recreación","Registro":"ACUERDO MINISTERIAL NO. 007 DEL 25 DE ENERO DE 2012","Modificaci":"Sin modificación","Tipo":"Terrestre","Titularida":"Estatal","Área_ofic":3217.1503175,"Área_calc":32.1666433544,"Imagen":"https://sostenibilidad.maps.arcgis.com/sharing/rest/content/items/edf30db5ce6041fd9d2bd4e699f01a01/data","Estado_de_":"Verificado","Shape_Leng":42590.4711658},"geometry":{"type":"Polygon","coordinates":[[[-79.23329913159247,-3.014584596573591,0.0],[-79.23328890696791,-3.020914509612145,0.0],[-79.20720398976871,-3.02087156701625,0.0],[-79.20721436531025,-3.01454174433188,0.0],[-79.18407209452153,-3.014503200726498,0.0],[-79.18405830089034,-3.015227482262761,0.0],[-79.18392766878003,-3.015896409546166,0.0],[-79.18365664256723,-3.016612122234281,0.0],[-79.18348316441114,-3.017624592315097,0.0],[-79.18340555356386,-3.019944769935165,0.0],[-79.1838217133906,-3.020661635379314,0.0],[-79.1846048484856,-3.022465123718556,0.0],[-79.1852405987886,-3.023650762209816,0.0],[-79.18609892736447,-3.024590817421797,0.0],[-79.18681032030595,-3.025184297700393,0.0],[-79.18727505473504,-3.025901246697746,0.0],[-79.18756905536122,-3.026518440998601,0.0],[-79.18756802858687,-3.02713604400813,0.0],[-79.18727152525429,-3.028024426377968,0.0],[-79.18685363886559,-3.028343829410672,0.0],[-79.18633811908023,-3.02841711120258,0.0],[-79.18589627372458,-3.028540249827148,0.0],[-79.18530568712083,-3.02886026629698,0.0],[-79.18464240974257,-3.029080691053855,0.0],[-79.18334058919915,-3.029252114758514,0.0],[-79.1825555604555,-3.029126909388298,0.0],[-79.18140749375947,-3.028793113251983,0.0],[-79.18061672837443,-3.028333324828572,0.0],[-79.17980696721439,-3.027937705686607,0.0],[-79.17912019619652,-3.027146233733166,0.0],[-79.17860628798877,-3.02625648979937,0.0],[-79.17782139399243,-3.025514585637489,0.0],[-79.17625127092815,-3.024771355107623,0.0],[-79.17571809924745,-3.024107641646112,0.0],[-79.17570392832384,-3.032574081821526,0.0],[-79.199090233646,-3.03261344379812,0.0],[-79.19910128921222,-3.025379393727174,0.0],[-79.23328159108823,-3.025435874622747,0.0],[-79.23323007091007,-3.057084519771202,0.0],[-79.24402429653432,-3.057102316085873,0.0],[-79.2440228259922,-3.058006594356672,0.0],[-79.24852044268478,-3.058013979655001,0.0],[-79.24852190963362,-3.057109699596357,0.0],[-79.2521200081979,-3.05711559223152,0.0],[-79.25218833136347,-3.014615236073392,0.0],[-79.26568073408018,-3.014636920101238,0.0],[-79.26573768367591,-2.978465345595988,0.0],[-79.22975933997833,-2.978407849444229,0.0],[-79.2297012099963,-3.014578723442029,0.0],[-79.23329913159247,-3.014584596573591,0.0]]]}},{"type":"Feature","properties":{"ID_Área":"HB01062","Nombre":"MAZAN","Name":"Protected Area","Categoría":"Área protegida Autónoma Descentralizada","Registro":"ACUERDO MIN ISTERIAL NO. 006 DEL 24  DE JUNIO  DE 2021","Modificaci":"Sin modificación","Tipo":"Terrestre","Titularida":"Gobierno Autónomo Descentralizado","Área_ofic":2023.10747052,"Área_calc":20.2255812532,"Imagen":"https://sostenibilidad.maps.arcgis.com/sharing/rest/content/items/edf30db5ce6041fd9d2bd4e699f01a01/data","Estado_de_":"Verificado","Shape_Leng":25701.5536518},"geometry":{"type":"Polygon","coordinates":[[[-79.13749415239252,-2.845277081219178,0.0],[-79.13747329171497,-2.845810952969802,0.0],[-79.13720597015443,-2.845872986788173,0.0],[-79.13676225270972,-2.846103770040702,0.0],[-79.13599918058826,-2.846263847049784,0.0],[-79.13547215158748,-2.845520757465358,0.0],[-79.13502825717467,-2.845278954589184,0.0],[-79.13478865043724,-2.845573061979819,0.0],[-79.13531144208483,-2.845698077987137,0.0],[-79.13558888765866,-2.846189122257412,0.0],[-79.13451286405177,-2.84649244014199,0.0],[-79.1341287156902,-2.845731754671422,0.0],[-79.13349304533726,-2.845981378408787,0.0],[-79.13311692432107,-2.845998803071883,0.0],[-79.13295498412647,-2.845800015113791,0.0],[-79.13292716420045,-2.84547679159698,0.0],[-79.13273353952748,-2.845318279209029,0.0],[-79.13248922651627,-2.845297891058141,0.0],[-79.13108870178436,-2.845699309853076,0.0],[-79.13115518160696,-2.845954966419575,0.0],[-79.13136272567527,-2.845973364553013,0.0],[-79.13119416759197,-2.846192115340461,0.0],[-79.13081505698253,-2.846235855085344,0.0],[-79.13041601545186,-2.846140054894435,0.0],[-79.1305198265627,-2.845557630008439,0.0],[-79.13038977835734,-2.845484198943761,0.0],[-79.13018605841722,-2.845944260941622,0.0],[-79.12834463964555,-2.845769703856737,0.0],[-79.12829562307205,-2.84594723787557,0.0],[-79.12872908894273,-2.846026549207268,0.0],[-79.12872931352155,-2.846187896672419,0.0],[-79.13004819576719,-2.846425381997967,0.0],[-79.13014019762532,-2.847065348783748,0.0],[-79.129252742973,-2.847144992004864,0.0],[-79.12886353170647,-2.847113842792401,0.0],[-79.12863087972599,-2.847019341829507,0.0],[-79.12858534232761,-2.847370424064709,0.0],[-79.12885331516675,-2.84794153785828,0.0],[-79.12889617109401,-2.848172563839177,0.0],[-79.12895135100865,-2.848186051530986,0.0],[-79.1291649461287,-2.848527082916488,0.0],[-79.12923288751028,-2.848530844001222,0.0],[-79.12940731249068,-2.848668652039678,0.0],[-79.12946346168751,-2.848789705653257,0.0],[-79.12939967142086,-2.848922655295559,0.0],[-79.12949189785782,-2.849097514260724,0.0],[-79.12967306559275,-2.849126902206391,0.0],[-79.12976872089914,-2.849301610410129,0.0],[-79.12966591140983,-2.849785288890848,0.0],[-79.12966516490982,-2.850247698050765,0.0],[-79.12953798592346,-2.850733633498179,0.0],[-79.1294143849269,-2.85089037585547,0.0],[-79.12942469399309,-2.851107051374744,0.0],[-79.12918971807098,-2.851274902851143,0.0],[-79.1293142676885,-2.851356449646047,0.0],[-79.12928741434969,-2.851482726492965,0.0],[-79.12935115700563,-2.851498141338062,0.0],[-79.12946321285418,-2.851654312072967,0.0],[-79.12954482659435,-2.851801819396692,0.0],[-79.12955141304201,-2.851936907622182,0.0],[-79.12964264414566,-2.852022227107141,0.0],[-79.13005165787429,-2.852173139267108,0.0],[-79.13050307657593,-2.852587672760708,0.0],[-79.13064555297323,-2.852485988348912,0.0],[-79.13081323430082,-2.852616027937595,0.0],[-79.13088559539358,-2.853070900361779,0.0],[-79.1306591274155,-2.853273791761694,0.0],[-79.13072497392584,-2.853519651000623,0.0],[-79.13072875313823,-2.854007714123648,0.0],[-79.13125775573769,-2.854589653833798,0.0],[-79.13127929104998,-2.854691894323846,0.0],[-79.13088516330392,-2.854960716204451,0.0],[-79.13043475969857,-2.855925694211683,0.0],[-79.12983328461524,-2.855938001995176,0.0],[-79.12954599350591,-2.855860039837729,0.0],[-79.12946150875007,-2.855884405984458,0.0],[-79.12921708255115,-2.856270382080743,0.0],[-79.12865267195646,-2.856552932532129,0.0],[-79.12778437477589,-2.856786337948885,0.0],[-79.12703032892638,-2.857161621826382,0.0],[-79.1267524027539,-2.857409285396419,0.0],[-79.12643496598025,-2.857952475197536,0.0],[-79.12629912543794,-2.858036254644165,0.0],[-79.12620307666944,-2.858204373370442,0.0],[-79.12591537772498,-2.858322445489129,0.0],[-79.12569031650864,-2.858522542088275,0.0],[-79.1258085213253,-2.858998900942598,0.0],[-79.12575962422775,-2.859260232014593,0.0],[-79.12547387911903,-2.859559332317919,0.0],[-79.12535812760142,-2.859621714404016,0.0],[-79.12489098928062,-2.859700700007298,0.0],[-79.1246746803501,-2.85993842657897,0.0],[-79.124383893896,-2.859963447592513,0.0],[-79.12419035905455,-2.859744940771147,0.0],[-79.12359604354405,-2.859834205546329,0.0],[-79.12297867097514,-2.859502336100566,0.0],[-79.12292768259962,-2.859667272255605,0.0],[-79.12239055653505,-2.859428307496088,0.0],[-79.12209634480477,-2.859514177303385,0.0],[-79.12194628482982,-2.859327841186114,0.0],[-79.12164593491121,-2.859482963827922,0.0],[-79.12145271268348,-2.859403979106858,0.0],[-79.12136993472669,-2.859319750264456,0.0],[-79.12139253454261,-2.859247449649551,0.0],[-79.12122434117532,-2.858985581153534,0.0],[-79.12110631242845,-2.85890002891452,0.0],[-79.12023278795122,-2.857870220981474,0.0],[-79.1197436822285,-2.857523642298682,0.0],[-79.11958171418614,-2.857470840382558,0.0],[-79.11951658003983,-2.85724684223156,0.0],[-79.11920858635646,-2.85682642838319,0.0],[-79.11800579608993,-2.856156112081996,0.0],[-79.11735684594217,-2.85549093903658,0.0],[-79.11704487002716,-2.855340739689002,0.0],[-79.11673049830527,-2.855105127763198,0.0],[-79.11650617370748,-2.85479732524956,0.0],[-79.1141650320247,-2.853846759831704,0.0],[-79.1126156321957,-2.85511707129219,0.0],[-79.11069523264592,-2.85690542315084,0.0],[-79.10881523302942,-2.857798752875056,0.0],[-79.1079516816485,-2.858816282727248,0.0],[-79.1067259061888,-2.859934753456804,0.0],[-79.10647377154642,-2.860356060670823,0.0],[-79.1060881158118,-2.860585261951128,0.0],[-79.10677243353064,-2.862939118514181,0.0],[-79.10683587075935,-2.86395373869253,0.0],[-79.10574497554295,-2.866872241006398,0.0],[-79.10539034941486,-2.866727610220758,0.0],[-79.10513758595178,-2.866545442730081,0.0],[-79.1050626197447,-2.86668818405422,0.0],[-79.10504741935176,-2.867017020707455,0.0],[-79.10517182164558,-2.867436511197135,0.0],[-79.10561205632193,-2.867420697316446,0.0],[-79.10618707781676,-2.86757952874475,0.0],[-79.10680508998615,-2.867571966326567,0.0],[-79.10773320328654,-2.867660946979585,0.0],[-79.10822705570726,-2.867524327307455,0.0],[-79.10855604391715,-2.86756456899133,0.0],[-79.10948135896544,-2.867332094361971,0.0],[-79.10977677353988,-2.867609907612515,0.0],[-79.11094507209275,-2.867602081420531,0.0],[-79.11127549850539,-2.867643409599237,0.0],[-79.11173176721124,-2.86761224748511,0.0],[-79.11263144883291,-2.867766008864539,0.0],[-79.112871735595,-2.867935314940028,0.0],[-79.11304763381246,-2.868322973694618,0.0],[-79.11306918439612,-2.868452312576486,0.0],[-79.112977977547,-2.868737079670967,0.0],[-79.11300161132382,-2.868803216892323,0.0],[-79.11329403720332,-2.86893020239214,0.0],[-79.11355094100153,-2.8691665381989,0.0],[-79.1136216213464,-2.869334026362,0.0],[-79.11393643683603,-2.869573351518602,0.0],[-79.11420066639539,-2.870004107066981,0.0],[-79.1142983743522,-2.870361344158345,0.0],[-79.11437824356413,-2.870465009770344,0.0],[-79.11470256772105,-2.870663932520089,0.0],[-79.1148651879403,-2.870867922552236,0.0],[-79.11496529619556,-2.870913028670775,0.0],[-79.11600874868687,-2.87114225834142,0.0],[-79.11632089887506,-2.871306981980238,0.0],[-79.11651211336813,-2.871340885798584,0.0],[-79.11701334544888,-2.873351573590536,0.0],[-79.11098468510184,-2.870369228648663,0.0],[-79.11081738555826,-2.87085256359324,0.0],[-79.11050386454095,-2.871342725930111,0.0],[-79.11034558228621,-2.87143511829333,0.0],[-79.11006868109145,-2.871500406619277,0.0],[-79.10991356988966,-2.871957537842055,0.0],[-79.10992140230061,-2.872166073688915,0.0],[-79.109810229496,-2.872524105908644,0.0],[-79.10978528777214,-2.872956535391059,0.0],[-79.10991745420496,-2.873277758515052,0.0],[-79.10981083675712,-2.873622508449308,0.0],[-79.10986434490704,-2.874031084945621,0.0],[-79.11003813028694,-2.874422351904392,0.0],[-79.11035730979224,-2.874684211484168,0.0],[-79.1102999613445,-2.875039639284414,0.0],[-79.11037105042281,-2.875230123217638,0.0],[-79.11051925627503,-2.875342423786889,0.0],[-79.11051776507165,-2.875574757722475,0.0],[-79.11063756439795,-2.875631910146172,0.0],[-79.1106586792987,-2.876934741851521,0.0],[-79.11076238889993,-2.877141346948292,0.0],[-79.1108367074217,-2.877666187174458,0.0],[-79.11093018521187,-2.877970069130605,0.0],[-79.11092812447659,-2.878183640658755,0.0],[-79.11101933671559,-2.878333983248282,0.0],[-79.1111796033488,-2.878383258276181,0.0],[-79.11118641707024,-2.878559772530147,0.0],[-79.11135686071731,-2.878709162263076,0.0],[-79.1114530505213,-2.879113325496079,0.0],[-79.11156502013156,-2.87932862567814,0.0],[-79.11144755642502,-2.87955520697374,0.0],[-79.11149346842087,-2.879799422313646,0.0],[-79.11142944459226,-2.880068229322228,0.0],[-79.11145892460493,-2.880569666151455,0.0],[-79.11152632789565,-2.880924773617491,0.0],[-79.1116241023278,-2.881131459634059,0.0],[-79.1115215704179,-2.881246667381143,0.0],[-79.11151701955268,-2.88144350769107,0.0],[-79.1115643284288,-2.881603994257877,0.0],[-79.11171888626836,-2.881843326709053,0.0],[-79.11155220746066,-2.882703684471832,0.0],[-79.11158934920441,-2.883086680955195,0.0],[-79.1117054160307,-2.883327394748718,0.0],[-79.11175788932138,-2.883957268293472,0.0],[-79.11186128720722,-2.88424543271534,0.0],[-79.11182952098214,-2.884422606382734,0.0],[-79.11176326394171,-2.884517438904534,0.0],[-79.11176304565112,-2.884650358377356,0.0],[-79.11205191240545,-2.88508440983879,0.0],[-79.11208282253607,-2.8854294199698,0.0],[-79.11224581914942,-2.885699336352403,0.0],[-79.11237682855214,-2.885740165045242,0.0],[-79.11245108598848,-2.885645416959955,0.0],[-79.11258441304462,-2.885733708965644,0.0],[-79.11295180692784,-2.885677581624235,0.0],[-79.1130191608112,-2.88587364331578,0.0],[-79.11314064088539,-2.886023360454953,0.0],[-79.11297930435869,-2.886317836881309,0.0],[-79.11296684921729,-2.886535491683007,0.0],[-79.11281071124111,-2.886563174930473,0.0],[-79.11250901923945,-2.886988189313219,0.0],[-79.11211256485682,-2.887820735259519,0.0],[-79.1120625592382,-2.888150691770317,0.0],[-79.11166870727493,-2.888697470892441,0.0],[-79.11126090986518,-2.889139265209102,0.0],[-79.11104282227039,-2.889504748497853,0.0],[-79.11103684937206,-2.889663593894217,0.0],[-79.11072889072298,-2.890148649501577,0.0],[-79.11072981059785,-2.890234962891626,0.0],[-79.11057884781603,-2.890355669383417,0.0],[-79.11058125080942,-2.89074458372686,0.0],[-79.11053846135748,-2.890834850011957,0.0],[-79.11040893597162,-2.890885160731886,0.0],[-79.11032476742274,-2.891133064602963,0.0],[-79.11033217942217,-2.891255568034314,0.0],[-79.11041412733566,-2.891428723970714,0.0],[-79.1104407848417,-2.891725092924013,0.0],[-79.11054407223475,-2.892091161232627,0.0],[-79.11072657306956,-2.892237307708435,0.0],[-79.11114519338184,-2.892416110288436,0.0],[-79.1112566796985,-2.892684438812303,0.0],[-79.11119085384942,-2.892776771126866,0.0],[-79.11139530950979,-2.893114729853068,0.0],[-79.11139681598449,-2.893239328860014,0.0],[-79.11128414568832,-2.893354300320651,0.0],[-79.1112989795686,-2.893579864120462,0.0],[-79.11119779692825,-2.893756733087788,0.0],[-79.11120905731035,-2.893854362205126,0.0],[-79.11129363459266,-2.893933931288776,0.0],[-79.11127821770576,-2.894047784805658,0.0],[-79.11134087699345,-2.894143585466509,0.0],[-79.11135491945798,-2.89428523955063,0.0],[-79.11144140027038,-2.894364813089851,0.0],[-79.1113516352173,-2.894428778569689,0.0],[-79.11128495147713,-2.894732789721811,0.0],[-79.11129030094465,-2.894973987311667,0.0],[-79.11140130486598,-2.895280368636941,0.0],[-79.11138078914152,-2.895566539367496,0.0],[-79.11123268390062,-2.896059422931822,0.0],[-79.1110119597505,-2.896234751074881,0.0],[-79.11095977841227,-2.896398017668055,0.0],[-79.11086258159683,-2.896466755965051,0.0],[-79.11076047189512,-2.89674333926461,0.0],[-79.1108748687533,-2.897236462757477,0.0],[-79.11078890537048,-2.897395557380006,0.0],[-79.11087064756977,-2.897693118901599,0.0],[-79.11096650230218,-2.897791992946936,0.0],[-79.11095142138518,-2.897885029120981,0.0],[-79.11104114601407,-2.898158687311816,0.0],[-79.11118389010936,-2.898323207865875,0.0],[-79.11130112115224,-2.898367029947686,0.0],[-79.11190379458814,-2.898368451058905,0.0],[-79.11201784739157,-2.898466252931779,0.0],[-79.11283208036508,-2.89821838834604,0.0],[-79.11384141574023,-2.897811693828444,0.0],[-79.11440514990352,-2.897854854718339,0.0],[-79.1145573218177,-2.897924011903649,0.0],[-79.11498312865227,-2.898284543590943,0.0],[-79.11577007260408,-2.898736503546089,0.0],[-79.1161889992419,-2.899258248440339,0.0],[-79.11655714142174,-2.89958865020435,0.0],[-79.11727555918874,-2.900688960869526,0.0],[-79.11729790118818,-2.901235281770792,0.0],[-79.11747252559456,-2.901628954522647,0.0],[-79.11753925514883,-2.902053892379331,0.0],[-79.11792329122099,-2.902270442442522,0.0],[-79.11800813081136,-2.902540580899528,0.0],[-79.11881181756344,-2.903338320775353,0.0],[-79.11973545366048,-2.902821391041423,0.0],[-79.1203327264249,-2.902682447457301,0.0],[-79.12084552790822,-2.902648238641713,0.0],[-79.12177202873269,-2.902210341487463,0.0],[-79.12248474938417,-2.902086558989353,0.0],[-79.122938049158,-2.902142063784121,0.0],[-79.12396584042065,-2.902627308731467,0.0],[-79.12483740567224,-2.902569621163364,0.0],[-79.12510264942956,-2.902756672419359,0.0],[-79.12535106504664,-2.902759956931894,0.0],[-79.12548561381159,-2.902550604899973,0.0],[-79.12541180463458,-2.902289228139732,0.0],[-79.12541804972243,-2.901964825598669,0.0],[-79.12613592131376,-2.901041578688877,0.0],[-79.12633768202825,-2.900837369781023,0.0],[-79.12691554579264,-2.900764643854417,0.0],[-79.12727291627391,-2.900638440648578,0.0],[-79.12762405424374,-2.900382030149221,0.0],[-79.12794443928816,-2.899956773170639,0.0],[-79.12805984675101,-2.899609089421515,0.0],[-79.12851025305132,-2.899007106681974,0.0],[-79.12878260697411,-2.898730423453022,0.0],[-79.12952229235546,-2.898448317684547,0.0],[-79.13095793582508,-2.897762613431441,0.0],[-79.13180788042443,-2.89771880568087,0.0],[-79.13225773695578,-2.897607032165553,0.0],[-79.13246821132853,-2.897279847961047,0.0],[-79.13321120700171,-2.896700428642057,0.0],[-79.13424517328362,-2.896295137646767,0.0],[-79.1344907852587,-2.896266834693828,0.0],[-79.13479615765809,-2.896362080717371,0.0],[-79.13502706870354,-2.89659213783069,0.0],[-79.13615089525996,-2.897328954396829,0.0],[-79.13698856348263,-2.897763517775413,0.0],[-79.13748924489612,-2.897842193006552,0.0],[-79.13797757088119,-2.897811420192645,0.0],[-79.13854886346928,-2.89768303923376,0.0],[-79.13961434085473,-2.897643883289624,0.0],[-79.14082891252619,-2.897439947404396,0.0],[-79.1412314350286,-2.897449312032387,0.0],[-79.14216456991146,-2.897225960519885,0.0],[-79.14305307918592,-2.896935544813021,0.0],[-79.14420626987234,-2.897181475387386,0.0],[-79.14476771782324,-2.897254172834983,0.0],[-79.14564043202007,-2.897298486605735,0.0],[-79.1463617603286,-2.897163081667395,0.0],[-79.14946505695293,-2.897270419632787,0.0],[-79.15021393389627,-2.897414803404776,0.0],[-79.1509804303956,-2.897481655795332,0.0],[-79.1482909480968,-2.885223676769464,0.0],[-79.14153564141475,-2.858717796478285,0.0],[-79.14244599771692,-2.845435372899698,0.0],[-79.14186542463362,-2.845487318534929,0.0],[-79.1417183632351,-2.8454112873577,0.0],[-79.1415602893895,-2.845433620652969,0.0],[-79.14043476771214,-2.845333101082264,0.0],[-79.13927570473871,-2.84556417872703,0.0],[-79.13854489830561,-2.845636328574191,0.0],[-79.13778925525156,-2.84553655729235,0.0],[-79.13771058798548,-2.845307694848232,0.0],[-79.13749415239252,-2.845277081219178,0.0]]]}},{"type":"Feature","properties":{"ID_Área":"HB01067","Nombre":"CURIQUINGUE GALLOCANTANA","Name":"Protected Area","Categoría":"Área protegida Autónoma Descentralizada","Registro":"ACUERDO MINISTERIAL NO. 013 DEL 11/02/ 2022","Modificaci":"Sin modificación","Tipo":"Terrestre","Titularida":"Gobierno Autónomo Descentralizado","Área_ofic":1223.62907373,"Área_calc":12.2330406016,"Imagen":"https://sostenibilidad.maps.arcgis.com/sharing/rest/content/items/edf30db5ce6041fd9d2bd4e699f01a01/data","Estado_de_":"Verificado","Shape_Leng":16172.5353282},"geometry":{"type":"Polygon","coordinates":[[[-79.12635596004932,-2.785252207905279,0.0],[-79.12600763380635,-2.785253565450692,0.0],[-79.12543492906663,-2.785112931631759,0.0],[-79.12492026357911,-2.784746389779014,0.0],[-79.12419525038129,-2.784660223737375,0.0],[-79.12365835967532,-2.784749859462049,0.0],[-79.1232441168534,-2.784767283246419,0.0],[-79.12290271482462,-2.78470488278652,0.0],[-79.12234108900729,-2.784780540180894,0.0],[-79.12147086494043,-2.784800624324205,0.0],[-79.12056122639216,-2.784892525605466,0.0],[-79.12008067352923,-2.784988292251042,0.0],[-79.11905747894589,-2.784928392450655,0.0],[-79.11896192874238,-2.785167481096262,0.0],[-79.11886557095343,-2.785916155103833,0.0],[-79.1190070151865,-2.786741768975545,0.0],[-79.11871955968546,-2.788719706707889,0.0],[-79.11864868979606,-2.789789659722484,0.0],[-79.11855169060999,-2.790130864346098,0.0],[-79.11817724585013,-2.79095008504715,0.0],[-79.11805717163935,-2.791648479810816,0.0],[-79.11805577116583,-2.792354828268838,0.0],[-79.11751025573483,-2.794026384297218,0.0],[-79.11748068858556,-2.794595995383395,0.0],[-79.11738542135137,-2.795135548434415,0.0],[-79.11705989524859,-2.796355158873947,0.0],[-79.11701128740857,-2.796996248761436,0.0],[-79.1172004654209,-2.799216721063122,0.0],[-79.11712840616205,-2.799642454912836,0.0],[-79.11727058252207,-2.800006333587156,0.0],[-79.1175034078774,-2.800222026253601,0.0],[-79.11834349885639,-2.80237320031577,0.0],[-79.1188074589377,-2.803075261579267,0.0],[-79.11948834329552,-2.80374992968637,0.0],[-79.12073275161082,-2.804773700652224,0.0],[-79.12235309858433,-2.805716002371931,0.0],[-79.12443196903506,-2.807311039997393,0.0],[-79.12526801130706,-2.808146772197057,0.0],[-79.12568178700502,-2.808835753675631,0.0],[-79.12580435853228,-2.809375559464744,0.0],[-79.12574703523737,-2.809744731491024,0.0],[-79.1258559990847,-2.810048268859678,0.0],[-79.12590202157334,-2.8104503494517,0.0],[-79.12621497485539,-2.810577903035635,0.0],[-79.12630135775143,-2.810712822901694,0.0],[-79.12642818190322,-2.81111908796546,0.0],[-79.12641558303137,-2.811320831077246,0.0],[-79.12656370713688,-2.811626741219655,0.0],[-79.12656866763389,-2.811866622060402,0.0],[-79.12646713824384,-2.812264965945945,0.0],[-79.12651351107543,-2.812516645272242,0.0],[-79.12644754508918,-2.812717029731482,0.0],[-79.12703975494865,-2.812736616328938,0.0],[-79.12847936987016,-2.813053666142505,0.0],[-79.13046959277202,-2.813675260784172,0.0],[-79.13095319811028,-2.813770882417496,0.0],[-79.13164499340553,-2.813851762518297,0.0],[-79.13219938958144,-2.813795265600753,0.0],[-79.13317288756663,-2.813524049314312,0.0],[-79.1334333325237,-2.813512396059383,0.0],[-79.13435023484936,-2.813676368866092,0.0],[-79.14376333755521,-2.810271850855159,0.0],[-79.14959494435985,-2.806598757252512,0.0],[-79.14959732938694,-2.806182081757353,0.0],[-79.14965446762889,-2.80598875654419,0.0],[-79.1496048626589,-2.805623455812455,0.0],[-79.14929084487324,-2.805331521282736,0.0],[-79.1492277247498,-2.805211428564034,0.0],[-79.14910888033268,-2.804671410897344,0.0],[-79.14893460087934,-2.804442542192823,0.0],[-79.14880634660959,-2.804167902559438,0.0],[-79.14880984015774,-2.804005145971958,0.0],[-79.14874494765824,-2.803982978766487,0.0],[-79.14875999803252,-2.803905057976405,0.0],[-79.14869878233748,-2.803889227076792,0.0],[-79.1487237276546,-2.803809151110213,0.0],[-79.14859538894322,-2.803817446990308,0.0],[-79.14862895898538,-2.803628153582983,0.0],[-79.14840014640441,-2.803480850984867,0.0],[-79.14841420503862,-2.803232479631521,0.0],[-79.14828180055227,-2.802909547534823,0.0],[-79.1481312051814,-2.80277430555571,0.0],[-79.14802256921915,-2.802319030286345,0.0],[-79.14791757951863,-2.80223314188445,0.0],[-79.1478631874265,-2.802110079876581,0.0],[-79.14759611919084,-2.801985322069696,0.0],[-79.14759322481899,-2.801881872835195,0.0],[-79.14752706569494,-2.801864407134404,0.0],[-79.14748963918527,-2.801760540671959,0.0],[-79.14755172624612,-2.801565234515874,0.0],[-79.14747511342712,-2.801447471547339,0.0],[-79.14755126451207,-2.801287181099312,0.0],[-79.14734059071333,-2.800698912418964,0.0],[-79.14744249559915,-2.800515875876028,0.0],[-79.14742430471466,-2.80030362239452,0.0],[-79.14751452251863,-2.800175545494499,0.0],[-79.14756238475697,-2.79987613826412,0.0],[-79.147617728165,-2.799794754740033,0.0],[-79.14750870862211,-2.799583623579017,0.0],[-79.14747677081883,-2.799248733810645,0.0],[-79.14752702347413,-2.798801307156227,0.0],[-79.14759820238397,-2.798714161457793,0.0],[-79.14758618292548,-2.798179287387109,0.0],[-79.1476866235574,-2.797725971708453,0.0],[-79.14761413041228,-2.79756173825819,0.0],[-79.14723338936058,-2.79709735123427,0.0],[-79.14698170567249,-2.796281783022998,0.0],[-79.14694655639205,-2.795873374670157,0.0],[-79.14679522889422,-2.795574737075579,0.0],[-79.14697418677355,-2.794999022495479,0.0],[-79.14696031409063,-2.794784968138142,0.0],[-79.14677707843391,-2.794361766350973,0.0],[-79.1468297511506,-2.79414799809931,0.0],[-79.1468214579039,-2.793816221125139,0.0],[-79.14697784561172,-2.79266573834936,0.0],[-79.1471488264513,-2.792244996951703,0.0],[-79.14720160786415,-2.791961602694214,0.0],[-79.14712089154091,-2.791428030146502,0.0],[-79.14716702003076,-2.790185373201734,0.0],[-79.14709338602523,-2.789544639393573,0.0],[-79.14722763924445,-2.788897930439894,0.0],[-79.147049267965,-2.788566605992743,0.0],[-79.14641444921497,-2.787951142406347,0.0],[-79.14617567072425,-2.787277047532121,0.0],[-79.14617998084097,-2.786955507170215,0.0],[-79.14605103846172,-2.786641412126121,0.0],[-79.14585426788862,-2.785883170267324,0.0],[-79.14587400297711,-2.785435332963425,0.0],[-79.14604965775112,-2.785091096053563,0.0],[-79.14709513055351,-2.784018374325034,0.0],[-79.14751834664679,-2.783706176192434,0.0],[-79.14701712624414,-2.78250454082615,0.0],[-79.14660256002871,-2.781819741254231,0.0],[-79.14631967964742,-2.781515199730011,0.0],[-79.14562345026795,-2.779746772290081,0.0],[-79.14441594923608,-2.77869984100083,0.0],[-79.14392629194775,-2.777672852177975,0.0],[-79.14324779261702,-2.776645565468721,0.0],[-79.14287052265557,-2.776321977350257,0.0],[-79.14190721695559,-2.776225420411545,0.0],[-79.14063074686948,-2.775583657931364,0.0],[-79.14006421984396,-2.775411681613573,0.0],[-79.13968677381271,-2.775202117183074,0.0],[-79.13823218397545,-2.77512377008094,0.0],[-79.13723144098599,-2.77481809269033,0.0],[-79.13687311829052,-2.774456466431721,0.0],[-79.13683549774473,-2.774304405586532,0.0],[-79.13691189766303,-2.77381045445188,0.0],[-79.13708221195269,-2.77358267709419,0.0],[-79.13721493623927,-2.773297873235812,0.0],[-79.13742477280817,-2.772005968788345,0.0],[-79.13753867199968,-2.771626100284047,0.0],[-79.13756473032943,-2.77057749647776,0.0],[-79.13765649233738,-2.77027078067359,0.0],[-79.1376615354794,-2.769935668124758,0.0],[-79.13776890841037,-2.769456152178001,0.0],[-79.13776307205598,-2.768518030505008,0.0],[-79.13759868035898,-2.767936276668141,0.0],[-79.13730497527851,-2.767656557163408,0.0],[-79.13700156569804,-2.767590843985521,0.0],[-79.13649225955952,-2.767057900171074,0.0],[-79.13607687048729,-2.766962298964183,0.0],[-79.13563480773934,-2.766600620058953,0.0],[-79.13505837858445,-2.765877513152758,0.0],[-79.13318856855823,-2.766870203375844,0.0],[-79.13314349558885,-2.769985472652133,0.0],[-79.1224791259305,-2.776054589092284,0.0],[-79.12282076241956,-2.776091270919193,0.0],[-79.12304013909679,-2.776371769944348,0.0],[-79.12312203400965,-2.776656365794914,0.0],[-79.12313351268237,-2.777077791986569,0.0],[-79.12350726394284,-2.777552002036952,0.0],[-79.12380473925255,-2.777805658292859,0.0],[-79.12672746192834,-2.779378502443579,0.0],[-79.12688413619873,-2.779604118982857,0.0],[-79.12678244151867,-2.780723616072244,0.0],[-79.127458389634,-2.78208048761089,0.0],[-79.12757174534477,-2.782618967003584,0.0],[-79.12748557624776,-2.78309217797583,0.0],[-79.12700038538303,-2.784252881772102,0.0],[-79.12710708637414,-2.784660348455728,0.0],[-79.12696933242027,-2.784952699070228,0.0],[-79.12672729753665,-2.785143706552859,0.0],[-79.12635596004932,-2.785252207905279,0.0]]]}}]}